unknown,postcode,city,province,country,country,telephone_nr,postcode,city,province,country,country,unknown,unknown,unknown,postcode,city,province,country,country,postcode,city,country,country,postcode,city,province,country,country
408087567,1942 LD,Amsterdam,NOORD-HOLLAND,NETHERLANDS,NL,,4460 AA,Beverwijk,ZEELAND,NETHERLANDS,,General Manager,20151231.0,,1091 GV,Amsterdam,,NETHERLANDS,NL,1091 GV,Amsterdam,NETHERLANDS,NL,6537 TL,,NOORD-HOLLAND,NETHERLANDS,NL
490412252,8444 AR,Amsterdam,UTRECHT,NETHERLANDS,NL,0251 262 727,1017 HL,Hoorn NH,NOORD-HOLLAND,NETHERLANDS,NL,General Manager,20161231.0,,1105 AJ,Amsterdam,NOORD-HOLLAND,NETHERLANDS,NL,1091 GV,Heerenveen,NETHERLANDS,NL,1942 LD,Amsterdam,NOORD-HOLLAND,NETHERLANDS,NL
490818050,3401 MG,Vuren,UTRECHT,NETHERLANDS,NL,020 569 2727,1620 AH,Zaltbommel,NOORD-HOLLAND,,NL,General Manager,20161231.0,134318000.0,,IJsselstein UT,FRIESLAND,NETHERLANDS,NL,,Amsterdam,NETHERLANDS,NL,4462 GL,IJsselstein UT,UTRECHT,NETHERLANDS,NL
414170449,1942 LD,Beverwijk,NOORD-HOLLAND,NETHERLANDS,NL,024 641 3135,1620 AH,Goes,ZEELAND,NETHERLANDS,,General Manager,20151231.0,40791000.0,3401 MG,IJsselstein UT,,NETHERLANDS,NL,3401 MG,IJsselstein UT,NETHERLANDS,NL,8444 AR,Beverwijk,NOORD-HOLLAND,NETHERLANDS,
415928142,1942 LD,Middelburg,NOORD-HOLLAND,NETHERLANDS,NL,020 662 7980,,Utrecht,NOORD-HOLLAND,NETHERLANDS,NL,General Manager,,,0000AA,Amsterdam,NOORD-HOLLAND,NETHERLANDS,NL,1091 GV,Amsterdam,NETHERLANDS,NL,1627 LL,Rhoon,GELDERLAND,NETHERLANDS,NL
386721315,4338 PT,IJsselstein UT,GELDERLAND,NETHERLANDS,NL,0229 241 144,1620 AH,Goes,,,NL,Authorised Signing Officer,20141231.0,,1105 AJ,Amsterdam,NOORD-HOLLAND,NETHERLANDS,NL,1942 LD,Unknown,NETHERLANDS,US,,Amsterdam,UTRECHT,NETHERLANDS,NL
418136164,2595 AR,Hoorn NH,NOORD-HOLLAND,NETHERLANDS,NL,,1940 AM,Beverwijk,,NETHERLANDS,,General Manager,20121231.0,,1942 LD,Amsterdam,NOORD-HOLLAND,NETHERLANDS,NL,8444 AR,Heerenveen,NETHERLANDS,NL,1091 GV,Beverwijk,NOORD-HOLLAND,NETHERLANDS,NL
402861442,1315 RA,Nijmegen,NOORD-HOLLAND,NETHERLANDS,NL,0513 638 703,1090 GN,Beverwijk,GELDERLAND,NETHERLANDS,NL,,20151231.0,742000.0,1942 LD,Heerenveen,UTRECHT,NETHERLANDS,NL,1091 GV,IJsselstein UT,NETHERLANDS,NL,1091 GV,IJsselstein UT,FRIESLAND,NETHERLANDS,NL
491361483,1091 GV,Nibbixwoud,NOORD-HOLLAND,NETHERLANDS,NL,0229 241 144,5300 AA,Goes,,,,,20131231.0,,1091 GV,IJsselstein UT,UTRECHT,NETHERLANDS,NL,3401 MG,Beverwijk,NETHERLANDS,NL,3401 MG,,NOORD-HOLLAND,NETHERLANDS,NL
418135984,1017 HL,Goes,GELDERLAND,NETHERLANDS,NL,0229 241 144,3401 MG,,NOORD-HOLLAND,NETHERLANDS,NL,Principal,20161231.0,,1091 GV,IJsselstein UT,UTRECHT,NETHERLANDS,NL,1942 LD,Amsterdam,NETHERLANDS,NL,1091 GV,Amsterdam,NOORD-HOLLAND,NETHERLANDS,NL
491080291,4462 GL,Rhoon,NOORD-HOLLAND,NETHERLANDS,NL,0229 241 144,3401 MG,Hoorn NH,,NETHERLANDS,,,20141231.0,545000.0,0000AA,Amsterdam,NOORD-HOLLAND,NETHERLANDS,NL,3401 MG,Amsterdam,,NL,1627 LL,Goes,NOORD-HOLLAND,NETHERLANDS,NL
489502674,4462 GL,IJsselstein UT,UTRECHT,NETHERLANDS,NL,,,Middelharnis,NOORD-HOLLAND,NETHERLANDS,NL,General Manager,20131231.0,,1942 LD,Beverwijk,NOORD-HOLLAND,NETHERLANDS,NL,1942 LD,BROOMFIELD,NETHERLANDS,,1091 GV,Amsterdam,NOORD-HOLLAND,NETHERLANDS,NL
387085970,0000AA,Oudenbosch,NOORD-HOLLAND,NETHERLANDS,NL,030 688 0181,1942 LD,Heerenveen,NOORD-HOLLAND,NETHERLANDS,NL,General Manager,20131231.0,,0000AA,IJsselstein UT,NOORD-HOLLAND,NETHERLANDS,NL,8444 AR,Beverwijk,NETHERLANDS,NL,1942 LD,Apeldoorn,NOORD-HOLLAND,NETHERLANDS,NL
490194260,3401 MG,Amsterdam,NOORD-HOLLAND,NETHERLANDS,NL,030 688 0181,,,NOORD-HOLLAND,NETHERLANDS,,Principal,20051231.0,,3401 MG,Heerenveen,NOORD-HOLLAND,NETHERLANDS,NL,80021-8254,Amsterdam,NETHERLANDS,NL,3401 MG,Amsterdam,ZEELAND,NETHERLANDS,NL
491450134,5223 KG,Hoorn NH,NOORD-HOLLAND,NETHERLANDS,NL,0251 262 727,1940 AP,IJsselstein UT,NOORD-HOLLAND,NETHERLANDS,NL,Sales Manager,20131231.0,,0000AA,Beverwijk,,NETHERLANDS,NL,1942 LD,Beverwijk,NETHERLANDS,NL,,Amsterdam,ZEELAND,NETHERLANDS,NL
491686286,1942 LD,Hoorn NH,UTRECHT,NETHERLANDS,NL,0251 262 767,1940 AM,Schiedam,ZUID-HOLLAND,NETHERLANDS,NL,,20151231.0,,1091 GV,Beverwijk,NOORD-HOLLAND,NETHERLANDS,NL,1942 LD,Amsterdam,NETHERLANDS,NL,1627 LL,Amsterdam,UTRECHT,NETHERLANDS,NL
408732159,3161 GN,IJsselstein UT,NOORD-HOLLAND,NETHERLANDS,NL,,1943 AG,Goes,FLEVOLAND,,,Principal,20151231.0,,1091 GV,Amsterdam,FRIESLAND,NETHERLANDS,NL,1091 GV,Beverwijk,NETHERLANDS,NL,1017 HL,Beverwijk,NOORD-HOLLAND,NETHERLANDS,NL
407720515,3401 MG,Amsterdam,NOORD-BRABANT,NETHERLANDS,NL,0229 212 829,,IJsselstein UT,NOORD-HOLLAND,,NL,Principal,20151231.0,,1091 GV,Amsterdam,FRIESLAND,NETHERLANDS,NL,1091 GV,Amsterdam,NETHERLANDS,NL,4462 GL,Beverwijk,NOORD-HOLLAND,NETHERLANDS,NL
491824006,8444 AR,Beverwijk,NOORD-HOLLAND,NETHERLANDS,NL,072 574 4444,1620 AH,Heerenveen,NOORD-HOLLAND,,NL,General Manager,,,1091 GV,Amsterdam,NOORD-HOLLAND,NETHERLANDS,NL,1091 GV,Landsmeer,NETHERLANDS,NL,3401 MG,BROOMFIELD,NOORD-HOLLAND,NETHERLANDS,NL
404739927,7327 AC,IJsselstein UT,NOORD-HOLLAND,NETHERLANDS,NL,,4460 AA,Beverwijk,,NETHERLANDS,NL,Principal,20151231.0,,1105 AJ,Unknown,NOORD-HOLLAND,NETHERLANDS,NL,0000AA,Amsterdam,NETHERLANDS,NL,1091 GV,Hoorn NH,NOORD-HOLLAND,NETHERLANDS,NL
410758544,4651 RZ,Hoorn NH,FRIESLAND,NETHERLANDS,NL,010 501 5400,1620 AH,Goes,,,,Principal,20161231.0,,1091 GV,Amsterdam,NOORD-HOLLAND,NETHERLANDS,NL,8444 AR,Beverwijk,NETHERLANDS,NL,1017 HL,Beverwijk,NOORD-HOLLAND,NETHERLANDS,NL
491248512,1627 LL,IJsselstein UT,NOORD-HOLLAND,NETHERLANDS,NL,0229 266 622,,IJsselstein UT,FRIESLAND,,NL,General Manager,20051231.0,,8444 AR,Amsterdam,NOORD-HOLLAND,NETHERLANDS,NL,6537 TL,Amsterdam,NETHERLANDS,NL,1942 LD,Amsterdam,NOORD-HOLLAND,NETHERLANDS,NL
491095965,1105 AJ,Apeldoorn,NOORD-BRABANT,NETHERLANDS,NL,0251 262 740,4460 AA,Hoorn NH,NOORD-HOLLAND,NETHERLANDS,NL,Principal,20051231.0,,6537 TL,Amsterdam,NOORD-HOLLAND,NETHERLANDS,NL,0000AA,Amsterdam,NETHERLANDS,NL,7327 AC,Nijmegen,ZUID-HOLLAND,NETHERLANDS,NL
491450133,1704 AG,Middelburg,NOORD-HOLLAND,NETHERLANDS,NL,0229 241 144,,,NOORD-HOLLAND,NETHERLANDS,NL,Principal,20101231.0,,3401 MG,Unknown,NOORD-HOLLAND,NETHERLANDS,NL,1942 LD,Nijmegen,NETHERLANDS,NL,8444 AR,Nijmegen,NOORD-HOLLAND,NETHERLANDS,NL
403105500,1091 GV,Amsterdam,UTRECHT,NETHERLANDS,NL,0229 246 064,,,UTRECHT,NETHERLANDS,NL,,,,1942 LD,Amsterdam,NOORD-HOLLAND,NETHERLANDS,NL,1942 LD,Amsterdam,NETHERLANDS,NL,1091 GV,Amsterdam,NOORD-HOLLAND,NETHERLANDS,NL
416169688,1942 LD,Beverwijk,NOORD-HOLLAND,NETHERLANDS,NL,0251 262 767,5300 AA,,,NETHERLANDS,NL,General Manager,20151231.0,,8444 AR,Amsterdam,NOORD-HOLLAND,NETHERLANDS,NL,0000AA,Beverwijk,NETHERLANDS,NL,6537 TL,Beverwijk,NOORD-HOLLAND,NETHERLANDS,NL
490366509,1019 GM,Beverwijk,NOORD-HOLLAND,NETHERLANDS,NL,0113 279 279,,,NOORD-HOLLAND,,NL,General Manager,20161231.0,,1091 GV,Amsterdam,NOORD-HOLLAND,NETHERLANDS,NL,3401 MG,Amsterdam,NETHERLANDS,NL,3401 MG,IJsselstein UT,NOORD-HOLLAND,NETHERLANDS,NL
491632245,3401 MG,Terneuzen,NOORD-HOLLAND,NETHERLANDS,NL,030 688 0181,1090 GN,,NOORD-HOLLAND,NETHERLANDS,,,,28151000.0,1105 AJ,Unknown,NOORD-HOLLAND,NETHERLANDS,NL,3401 MG,,NETHERLANDS,NL,4462 GL,Hoorn NH,NOORD-HOLLAND,NETHERLANDS,NL
490526839,1019 GM,Amsterdam,NOORD-HOLLAND,NETHERLANDS,NL,0513 638 703,3401 MG,Amsterdam,ZEELAND,NETHERLANDS,NL,Principal,20151231.0,,,,NOORD-HOLLAND,NETHERLANDS,NL,1942 LD,BROOMFIELD,NETHERLANDS,NL,1942 LD,Heerenveen,NOORD-HOLLAND,NETHERLANDS,NL
411365971,1942 LD,Hoorn NH,NOORD-HOLLAND,NETHERLANDS,NL,0113 279 279,,,FRIESLAND,NETHERLANDS,,,20151231.0,,0000AA,Amsterdam,NOORD-HOLLAND,NETHERLANDS,NL,6537 TL,IJsselstein UT,NETHERLANDS,NL,1942 LD,Heerenveen,NOORD-HOLLAND,NETHERLANDS,NL
489777250,1019 GM,Almere,NOORD-HOLLAND,NETHERLANDS,NL,0115 530 300,3160 AD,,NOORD-HOLLAND,NETHERLANDS,NL,Authorised Signing Officer,,78000.0,1091 GV,Amsterdam,FRIESLAND,NETHERLANDS,NL,1091 GV,IJsselstein UT,NETHERLANDS,NL,0000AA,IJsselstein UT,NOORD-HOLLAND,,NL
405885166,1019 GM,Heerhugowaard,UTRECHT,NETHERLANDS,NL,,3401 MG,Zaltbommel,GELDERLAND,NETHERLANDS,NL,Principal,,28734000.0,,IJsselstein UT,NOORD-HOLLAND,NETHERLANDS,NL,1019 GM,Amsterdam,NETHERLANDS,NL,4462 GL,Amsterdam,NOORD-HOLLAND,NETHERLANDS,NL
418067211,1105 AJ,Wormerveer,NOORD-HOLLAND,NETHERLANDS,NL,0167 564 052,,,,NETHERLANDS,NL,"Marketing Manager,Manager Finance,Purchasing",20151231.0,,3401 MG,,NOORD-HOLLAND,NETHERLANDS,NL,1942 LD,Amsterdam,NETHERLANDS,NL,1942 LD,Nijmegen,NOORD-HOLLAND,NETHERLANDS,NL
410151575,1105 AJ,Velsen-noord,NOORD-HOLLAND,NETHERLANDS,NL,020 670 3500,1940 AP,Heerenveen,,NETHERLANDS,,,20161231.0,,1942 LD,Nijmegen,FRIESLAND,NETHERLANDS,,1091 GV,BROOMFIELD,NETHERLANDS,NL,1627 LL,Amsterdam,GELDERLAND,NETHERLANDS,NL
407396915,1942 LD,Beverwijk,NOORD-HOLLAND,NETHERLANDS,NL,,3160 AD,Hoorn NH,UTRECHT,NETHERLANDS,,,19971231.0,742000.0,3401 MG,Amsterdam,NOORD-HOLLAND,NETHERLANDS,NL,1942 LD,BROOMFIELD,UNITED STATES,NL,6537 TL,IJsselstein UT,NOORD-HOLLAND,NETHERLANDS,NL
402576540,1943 AG,Beverwijk,GELDERLAND,NETHERLANDS,NL,088 116 4300,1620 AH,Beverwijk,NOORD-HOLLAND,,NL,,20161231.0,,8444 AR,Beverwijk,UTRECHT,NETHERLANDS,NL,3401 MG,Amsterdam,NETHERLANDS,NL,1017 HL,,NOORD-HOLLAND,IRELAND,NL
402326490,4462 GL,Amsterdam,GELDERLAND,NETHERLANDS,NL,030 688 0181,1090 GN,IJsselstein UT,ZEELAND,NETHERLANDS,,General Manager,20131231.0,,1091 GV,Amsterdam,NOORD-HOLLAND,NETHERLANDS,NL,0000AA,Amsterdam,NETHERLANDS,NL,4462 GL,Heerenveen,NOORD-HOLLAND,NETHERLANDS,NL
491502176,1017 HL,Hoorn NH,FRIESLAND,NETHERLANDS,NL,030 688 0181,1620 AH,Hoorn NH,,NETHERLANDS,NL,,20151231.0,,3401 MG,Heerenveen,NOORD-HOLLAND,NETHERLANDS,NL,0000AA,Beverwijk,NETHERLANDS,,3401 MG,Amsterdam,NOORD-HOLLAND,NETHERLANDS,NL
386770820,1627 LL,Nijmegen,NOORD-HOLLAND,NETHERLANDS,NL,0229 241 144,8440 AM,Hoorn NH,ZUID-HOLLAND,,NL,Principal,20161231.0,,1091 GV,Beverwijk,,NETHERLANDS,NL,1942 LD,BROOMFIELD,NETHERLANDS,NL,1091 GV,Beverwijk,FRIESLAND,NETHERLANDS,NL
414973545,1627 LL,Beverwijk,ZEELAND,NETHERLANDS,NL,0229 246 064,1620 AH,Hoorn NH,NOORD-HOLLAND,NETHERLANDS,NL,,20161231.0,,3401 MG,Amsterdam,NOORD-HOLLAND,NETHERLANDS,NL,1942 LD,IJsselstein UT,UNITED STATES,NL,6537 TL,Nijmegen,NOORD-HOLLAND,NETHERLANDS,NL
419613914,4338 PT,Hoorn NH,NOORD-HOLLAND,NETHERLANDS,NL,,1620 AH,,NOORD-HOLLAND,,NL,Principal,,,1091 GV,Unknown,NOORD-HOLLAND,NETHERLANDS,NL,1942 LD,Landsmeer,NETHERLANDS,NL,1091 GV,Amsterdam,UTRECHT,NETHERLANDS,NL
490152677,4460 AA,Amsterdam,NOORD-HOLLAND,NETHERLANDS,NL,0251 262 727,1620 AH,Almere,UTRECHT,NETHERLANDS,NL,Principal,20151231.0,,3401 MG,Amsterdam,NOORD-HOLLAND,NETHERLANDS,NL,1091 GV,Amsterdam,NETHERLANDS,NL,3401 MG,Heerenveen,NOORD-HOLLAND,NETHERLANDS,IE
419649736,3401 MG,Heerenveen,NOORD-HOLLAND,NETHERLANDS,NL,,6503 AB,Beverwijk,NOORD-HOLLAND,NETHERLANDS,NL,General Manager,20151231.0,138766000.0,1942 LD,Landsmeer,,NETHERLANDS,NL,1091 GV,Amsterdam,NETHERLANDS,NL,1627 LL,IJsselstein UT,UTRECHT,NETHERLANDS,NL
403318749,5301 HG,Amsterdam,NOORD-HOLLAND,NETHERLANDS,NL,0251 262 767,1090 GN,Beverwijk,UTRECHT,NETHERLANDS,NL,,19951231.0,,6537 TL,Unknown,NOORD-HOLLAND,NETHERLANDS,NL,1091 GV,Amsterdam,NETHERLANDS,NL,3401 MG,IJsselstein UT,NOORD-HOLLAND,NETHERLANDS,NL
408728637,8444 AV,IJsselstein UT,GELDERLAND,NETHERLANDS,NL,,,Hoorn NH,,,NL,General Manager,20151231.0,,3401 MG,Amsterdam,FRIESLAND,NETHERLANDS,NL,6537 TL,Beverwijk,NETHERLANDS,NL,1942 LD,Heerenveen,NOORD-HOLLAND,NETHERLANDS,NL
489450073,1942 LD,Hoorn NH,NOORD-HOLLAND,NETHERLANDS,NL,0251 262 767,3755 KA,,NOORD-HOLLAND,NETHERLANDS,NL,Principal,,52524000.0,1942 LD,IJsselstein UT,NOORD-HOLLAND,NETHERLANDS,NL,,Nijmegen,NETHERLANDS,NL,3401 MG,Goes,GELDERLAND,NETHERLANDS,NL
413971362,1315 RA,Heerenveen,NOORD-HOLLAND,NETHERLANDS,NL,030 688 0181,6503 AB,Amsterdam,NOORD-HOLLAND,,NL,General Manager,20131231.0,,1091 GV,Beverwijk,FRIESLAND,NETHERLANDS,NL,8444 AR,Unknown,NETHERLANDS,NL,1942 LD,Hoorn NH,UTRECHT,NETHERLANDS,NL
491041167,1942 LD,Schiedam,UTRECHT,NETHERLANDS,NL,030 688 0181,,Amsterdam,,NETHERLANDS,,General Manager,,,1091 GV,Beverwijk,NOORD-HOLLAND,NETHERLANDS,NL,3401 MG,Nijmegen,NETHERLANDS,NL,1942 LD,Beverwijk,GELDERLAND,,NL
410331201,1091 GV,Amsterdam,ZEELAND,NETHERLANDS,NL,0251 262 767,1620 AH,,NOORD-HOLLAND,NETHERLANDS,,General Manager,,58247000.0,6537 TL,Heerenveen,NOORD-HOLLAND,NETHERLANDS,NL,1091 GV,Beverwijk,NETHERLANDS,NL,1091 GV,Nijmegen,NOORD-HOLLAND,NETHERLANDS,NL
402297662,3401 MG,Nijmegen,NOORD-HOLLAND,NETHERLANDS,NL,0165 313 555,4460 AA,Amsterdam,NOORD-HOLLAND,,NL,Managing Partner,20161231.0,,1091 GV,IJsselstein UT,,NETHERLANDS,NL,1091 GV,Beverwijk,NETHERLANDS,NL,1942 LD,Amsterdam,UTRECHT,NETHERLANDS,US
489354605,8444 AR,Amsterdam,GELDERLAND,NETHERLANDS,NL,0229 241 144,,Almere,NOORD-HOLLAND,NETHERLANDS,,General Manager,20151231.0,176512000.0,1019 GM,Amsterdam,UTRECHT,NETHERLANDS,NL,1091 GV,Amsterdam,NETHERLANDS,NL,6537 TL,Heerenveen,NOORD-HOLLAND,NETHERLANDS,NL
491877992,1105 AJ,Beverwijk,NOORD-HOLLAND,NETHERLANDS,NL,020 482 1771,,Beverwijk,NOORD-HOLLAND,NETHERLANDS,NL,,,,1091 GV,Amsterdam,NOORD-HOLLAND,NETHERLANDS,NL,1091 GV,Amsterdam,NETHERLANDS,NL,8444 AR,IJsselstein UT,NOORD-HOLLAND,NETHERLANDS,NL
406601133,6537 TL,Hoorn NH,NOORD-HOLLAND,NETHERLANDS,NL,030 688 0181,3401 MG,Beverwijk,,NETHERLANDS,NL,Principal,20151231.0,,,Heerenveen,NOORD-HOLLAND,NETHERLANDS,NL,1091 GV,KANSAS CITY,NETHERLANDS,NL,1942 LD,IJsselstein UT,NOORD-HOLLAND,NETHERLANDS,NL
407561161,1942 LD,IJsselstein UT,UTRECHT,NETHERLANDS,NL,030 688 0181,6503 AB,Hoorn NH,UTRECHT,NETHERLANDS,,,,,6537 TL,Beverwijk,UTRECHT,NETHERLANDS,NL,1942 LD,IJsselstein UT,NETHERLANDS,NL,3401 MG,Beverwijk,,NETHERLANDS,NL
414471255,1943 AG,Nijmegen,NOORD-HOLLAND,NETHERLANDS,NL,0251 277 777,1090 GN,,NOORD-HOLLAND,NETHERLANDS,NL,,,,1091 GV,Amsterdam,NOORD-HOLLAND,NETHERLANDS,NL,8444 AR,IJsselstein UT,,NL,1942 LD,Amsterdam,FRIESLAND,NETHERLANDS,NL
404604717,1091 GV,Nijmegen,UTRECHT,NETHERLANDS,NL,0229 241 144,3100 AD,Beverwijk,GELDERLAND,NETHERLANDS,NL,General Manager,,,1942 LD,,GELDERLAND,NETHERLANDS,,8444 AR,Beverwijk,NETHERLANDS,NL,3401 MG,Amsterdam,NOORD-HOLLAND,NETHERLANDS,NL
386952761,1943 AG,Oss,NOORD-HOLLAND,NETHERLANDS,NL,,3401 MG,IJsselstein UT,NOORD-HOLLAND,,NL,General Manager,20151231.0,,1942 LD,Heerenveen,NOORD-HOLLAND,NETHERLANDS,NL,0000AA,BROOMFIELD,UNITED STATES,NL,1105 AJ,Beverwijk,FRIESLAND,NETHERLANDS,NL
411887292,3401 MG,Amsterdam,UTRECHT,NETHERLANDS,NL,,4460 AA,IJsselstein UT,NOORD-HOLLAND,NETHERLANDS,,Principal,20151231.0,,1942 LD,IJsselstein UT,NOORD-HOLLAND,NETHERLANDS,NL,3401 MG,Beverwijk,,NL,3401 MG,Amsterdam,,NETHERLANDS,NL
549986024,8444 AR,Beverwijk,ZEELAND,NETHERLANDS,NL,036 868 8780,4460 AA,,NOORD-HOLLAND,NETHERLANDS,NL,General Manager,20151231.0,,6537 TL,Beverwijk,NOORD-HOLLAND,NETHERLANDS,NL,1091 GV,,NETHERLANDS,NL,1627 LL,Beverwijk,NOORD-HOLLAND,NETHERLANDS,NL
415648518,1315 RA,Amsterdam,FLEVOLAND,NETHERLANDS,NL,0513 647 027,6503 AB,'s-Gravenhage,NOORD-HOLLAND,NETHERLANDS,NL,Principal,20151231.0,,1091 GV,Amsterdam,NOORD-HOLLAND,NETHERLANDS,NL,1091 GV,IJsselstein UT,NETHERLANDS,NL,1017 HL,Hoorn NH,NOORD-HOLLAND,NETHERLANDS,NL
492070908,1943 AG,Middelburg,NOORD-HOLLAND,NETHERLANDS,NL,030 688 0181,1105 AJ,,FLEVOLAND,NETHERLANDS,NL,General Manager,20141231.0,776000.0,1105 AJ,Beverwijk,NOORD-HOLLAND,NETHERLANDS,NL,1091 GV,Amsterdam,NETHERLANDS,NL,1091 GV,Amsterdam,NOORD-HOLLAND,NETHERLANDS,NL
414819086,3401 MG,Amsterdam,GELDERLAND,NETHERLANDS,NL,,1090 GN,Hoorn NH,NOORD-HOLLAND,NETHERLANDS,NL,Principal,20161231.0,,1942 LD,'s-Gravenhage,NOORD-HOLLAND,NETHERLANDS,NL,1091 GV,BROOMFIELD,NETHERLANDS,NL,1942 LD,Amsterdam,NOORD-HOLLAND,NETHERLANDS,NL
409500709,1091 GV,Almere,NOORD-HOLLAND,NETHERLANDS,NL,0251 262 727,8440 AK,Hoorn NH,FRIESLAND,NETHERLANDS,,Principal,20151231.0,133203000.0,1942 LD,Beverwijk,,NETHERLANDS,NL,1091 GV,Amsterdam,NETHERLANDS,NL,1017 HL,Beverwijk,ZEELAND,NETHERLANDS,NL
387438765,1815 BB,Apeldoorn,NOORD-HOLLAND,NETHERLANDS,NL,0251 262 727,1300 EG,Nijmegen,NOORD-HOLLAND,,NL,,20131231.0,28151000.0,0000AA,Amsterdam,NOORD-HOLLAND,NETHERLANDS,NL,1091 GV,Amsterdam,NETHERLANDS,NL,8444 AR,Goes,CO,NETHERLANDS,NL
406374603,1017 HL,Zaltbommel,GELDERLAND,NETHERLANDS,NL,0113 279 279,1017 HL,Hoorn NH,,,NL,Authorised Signing Officer,20120331.0,,1019 GM,Amsterdam,,NETHERLANDS,NL,1091 GV,Amsterdam,NETHERLANDS,NL,1091 GV,Hoorn NH,GELDERLAND,NETHERLANDS,NL
418384384,1127 PB,Amsterdam,NOORD-HOLLAND,NETHERLANDS,NL,024 641 3135,,Hoorn NH,ZEELAND,NETHERLANDS,,General Manager,20081231.0,,1091 GV,Nijmegen,UTRECHT,NETHERLANDS,NL,1121 NN,Amsterdam,NETHERLANDS,NL,1091 GV,Beverwijk,NOORD-HOLLAND,NETHERLANDS,NL
490793180,1315 RA,Almere,NOORD-HOLLAND,NETHERLANDS,NL,0513 638 500,,,NOORD-HOLLAND,NETHERLANDS,NL,General Manager,20161231.0,,0000AA,Beverwijk,NOORD-HOLLAND,NETHERLANDS,NL,80021-8254,Amsterdam,NETHERLANDS,NL,1019 GM,Amsterdam,NOORD-HOLLAND,NETHERLANDS,NL
405010612,7327 AB,Beverwijk,ZEELAND,NETHERLANDS,NL,0229 241 144,3401 MG,Amsterdam,NOORD-HOLLAND,NETHERLANDS,,Sales and Marketing Manager,20131231.0,,1019 GM,Amsterdam,NOORD-HOLLAND,NETHERLANDS,NL,1019 GM,Amsterdam,NETHERLANDS,NL,6537 TL,Goes,UTRECHT,NETHERLANDS,NL
402297662,1091 GV,Amsterdam,UTRECHT,NETHERLANDS,NL,0229 241 144,,Beverwijk,UTRECHT,,NL,Principal,20151231.0,,1942 LD,Amsterdam,NOORD-HOLLAND,NETHERLANDS,NL,0000AA,Heerenveen,NETHERLANDS,NL,8444 AR,Amsterdam,UTRECHT,NETHERLANDS,NL
408839269,3401 MG,Beverwijk,FLEVOLAND,NETHERLANDS,NL,0418 573 333,1940 AM,Amsterdam,NOORD-HOLLAND,,NL,,20161231.0,,0000AA,Beverwijk,NOORD-HOLLAND,NETHERLANDS,NL,1019 GM,Beverwijk,NETHERLANDS,NL,4462 GL,Beverwijk,ZEELAND,NETHERLANDS,NL
413971024,3584 CX,Den Ilp,NOORD-HOLLAND,NETHERLANDS,NL,,,Beverwijk,NOORD-HOLLAND,,NL,General Manager,20151231.0,,0000AA,Amsterdam,UTRECHT,,NL,1091 GV,IJsselstein UT,NETHERLANDS,NL,1091 GV,Beverwijk,NOORD-HOLLAND,NETHERLANDS,NL
412916009,1627 LL,Oostburg,ZEELAND,NETHERLANDS,NL,0513 638 254,4530 AB,Hoorn NH,,,NL,Director,20051231.0,,1091 GV,Nijmegen,UTRECHT,NETHERLANDS,NL,1091 GV,Beverwijk,NETHERLANDS,NL,3161 GN,Amsterdam,NOORD-HOLLAND,NETHERLANDS,NL
413599171,1091 GV,Sommelsdijk,NOORD-HOLLAND,NETHERLANDS,NL,036 868 8734,1620 AH,,FRIESLAND,NETHERLANDS,,,20141231.0,,1091 GV,Amsterdam,NOORD-HOLLAND,NETHERLANDS,NL,1942 LD,Amsterdam,NETHERLANDS,NL,1017 HL,IJsselstein UT,NOORD-HOLLAND,UNITED STATES,NL
405714457,1627 LL,Amsterdam,UTRECHT,NETHERLANDS,NL,0229 241 144,3401 MG,,NOORD-HOLLAND,NETHERLANDS,,Public Relations Manager,20051231.0,1048152000.0,1019 GM,Amsterdam,UTRECHT,NETHERLANDS,NL,1091 GV,Amsterdam,NETHERLANDS,NL,1017 HL,Beverwijk,NOORD-HOLLAND,NETHERLANDS,NL
490925887,9403 VP,Hoorn NH,ZEELAND,NETHERLANDS,NL,0229 270 200,,Nijmegen,,NETHERLANDS,NL,General Manager,,,3401 MG,Beverwijk,NOORD-HOLLAND,NETHERLANDS,NL,1019 GM,IJsselstein UT,NETHERLANDS,NL,0000AA,Amsterdam,NOORD-HOLLAND,UNITED STATES,NL
402186696,1627 LL,Amsterdam,FRIESLAND,NETHERLANDS,NL,,,Hoorn NH,NOORD-HOLLAND,NETHERLANDS,,General Manager,20151231.0,308000.0,3401 MG,Heerenveen,NOORD-HOLLAND,NETHERLANDS,NL,3401 MG,Beverwijk,NETHERLANDS,NL,1942 LD,Amsterdam,NOORD-HOLLAND,NETHERLANDS,NL
416595619,6537 TL,Beverwijk,NOORD-HOLLAND,NETHERLANDS,NL,020 662 7980,1620 AH,Hoorn NH,,NETHERLANDS,NL,"General Manager,Manager Marketing,Purchasing",20151231.0,,1942 LD,IJsselstein UT,NOORD-HOLLAND,NETHERLANDS,NL,8444 AR,Amsterdam,NETHERLANDS,NL,1942 LD,Beverwijk,NOORD-HOLLAND,NETHERLANDS,NL
408425507,1627 LL,Beverwijk,OVERIJSSEL,NETHERLANDS,NL,0113 279 279,3401 MG,,NOORD-HOLLAND,NETHERLANDS,,Principal,,,1942 LD,IJsselstein UT,NOORD-HOLLAND,NETHERLANDS,NL,1091 GV,IJsselstein UT,NETHERLANDS,,1091 GV,Amsterdam,UTRECHT,NETHERLANDS,NL
491717340,3401 MG,Beverwijk,NOORD-HOLLAND,NETHERLANDS,NL,036 868 8780,1620 AH,IJsselstein UT,NOORD-HOLLAND,NETHERLANDS,NL,,20151231.0,,8444 AR,Beverwijk,NOORD-HOLLAND,NETHERLANDS,NL,1942 LD,Nijmegen,NETHERLANDS,NL,1091 GV,Hoorn NH,ZEELAND,NETHERLANDS,NL
489648847,3401 MG,Goes,NOORD-HOLLAND,NETHERLANDS,NL,0229 266 744,8440 AM,Beverwijk,GELDERLAND,NETHERLANDS,NL,Principal,20151231.0,,1942 LD,Beverwijk,FRIESLAND,NETHERLANDS,NL,1091 GV,Amsterdam,NETHERLANDS,NL,3401 MG,IJsselstein UT,FRIESLAND,NETHERLANDS,NL
415971279,3401 MG,IJsselstein UT,NOORD-HOLLAND,NETHERLANDS,NL,030 688 0181,4460 AA,Bergen op Zoom,NOORD-HOLLAND,NETHERLANDS,NL,Principal,,,1091 GV,Unknown,NOORD-HOLLAND,NETHERLANDS,NL,1091 GV,Unknown,NETHERLANDS,NL,1091 GV,Beverwijk,ZEELAND,NETHERLANDS,
489120969,1627 LJ,Apeldoorn,UTRECHT,NETHERLANDS,NL,0513 638 703,3401 MG,Hoorn NH,GELDERLAND,NETHERLANDS,NL,General Manager,20151231.0,,1019 GM,Amsterdam,FRIESLAND,NETHERLANDS,NL,6537 TL,Unknown,NETHERLANDS,NL,4462 GL,Goes,NOORD-HOLLAND,NETHERLANDS,NL
419388459,1091 GV,Amsterdam,NOORD-HOLLAND,NETHERLANDS,NL,020 693 9663,1620 AH,Beverwijk,NOORD-HOLLAND,NETHERLANDS,NL,General Manager,20161231.0,,3401 MG,Amsterdam,NOORD-HOLLAND,NETHERLANDS,NL,1942 LD,Beverwijk,NETHERLANDS,NL,4462 GL,Amsterdam,CO,NETHERLANDS,NL
406374603,1017 HL,Amsterdam,UTRECHT,NETHERLANDS,NL,0513 638 703,1940 AP,Hoorn NH,NOORD-HOLLAND,NETHERLANDS,NL,Principal,20161231.0,,1091 GV,Amsterdam,NOORD-HOLLAND,NETHERLANDS,,1942 LD,Beverwijk,NETHERLANDS,NL,3401 MG,Goes,NOORD-HOLLAND,NETHERLANDS,NL
489859325,1017 HL,Beverwijk,NOORD-HOLLAND,NETHERLANDS,NL,,,Nijmegen,,NETHERLANDS,NL,Principal,,,3401 MG,Heerenveen,NOORD-HOLLAND,NETHERLANDS,NL,1942 LD,Amsterdam,NETHERLANDS,NL,1091 GV,Hoorn NH,NOORD-HOLLAND,,NL
417020237,1105 AJ,Steenbergen NB,FRIESLAND,NETHERLANDS,NL,036 868 8888,1940 AP,,,,,Principal,20161231.0,,1091 GV,Amsterdam,,NETHERLANDS,NL,8444 AR,Beverwijk,NETHERLANDS,NL,1091 GV,Beverwijk,FRIESLAND,NETHERLANDS,NL
410167100,1688 JG,Heerenveen,UTRECHT,NETHERLANDS,NL,,,Hoorn NH,NOORD-HOLLAND,NETHERLANDS,NL,Principal,20151231.0,,1091 GV,Nijmegen,NOORD-HOLLAND,NETHERLANDS,NL,1019 GM,Beverwijk,NETHERLANDS,NL,8444 AR,Apeldoorn,CO DUBLIN,NETHERLANDS,NL
491997812,1019 GM,IJsselstein UT,NOORD-HOLLAND,NETHERLANDS,NL,0186 613 686,,Hoorn NH,UTRECHT,,NL,General Manager,,,1942 LD,Unknown,NOORD-HOLLAND,NETHERLANDS,NL,64117-2521,Amsterdam,NETHERLANDS,NL,1121 NN,Amsterdam,UTRECHT,NETHERLANDS,NL
407212562,1942 LD,Amsterdam,,NETHERLANDS,NL,,,Heerenveen,,NETHERLANDS,NL,General Manager,,,1942 LD,Beverwijk,UTRECHT,NETHERLANDS,NL,0000AA,Unknown,UNITED STATES,NL,1942 LD,Amsterdam,NOORD-HOLLAND,NETHERLANDS,
418546354,3401 MG,Landsmeer,UTRECHT,NETHERLANDS,NL,030 688 0181,1620 AH,,ZEELAND,NETHERLANDS,NL,Sales Manager,20161231.0,,1091 GV,Heerenveen,NOORD-HOLLAND,NETHERLANDS,NL,1091 GV,Beverwijk,NETHERLANDS,NL,1019 GM,Dublin,UTRECHT,NETHERLANDS,NL
402297654,1091 GV,Amsterdam,GELDERLAND,NETHERLANDS,NL,0251 262 727,3584 CX,Amsterdam,,,NL,General Manager,20151231.0,,8444 AR,IJsselstein UT,NOORD-HOLLAND,NETHERLANDS,NL,3401 MG,Amsterdam,NETHERLANDS,,4462 GL,Amsterdam,ZEELAND,NETHERLANDS,NL
402198410,3401 MG,IJsselstein UT,NOORD-HOLLAND,NETHERLANDS,NL,030 688 0181,1620 AH,Goes,NOORD-HOLLAND,NETHERLANDS,,General Manager,20151231.0,,8444 AR,Amsterdam,NOORD-HOLLAND,,NL,1091 GV,Heerenveen,NETHERLANDS,NL,8444 AR,Amsterdam,NOORD-HOLLAND,NETHERLANDS,NL
418136289,1315 RA,Amsterdam,UTRECHT,NETHERLANDS,NL,0229 241 144,1940 AP,,UTRECHT,,NL,General Manager,20151231.0,,1091 GV,IJsselstein UT,NOORD-HOLLAND,,NL,1091 GV,Alkmaar,NETHERLANDS,NL,6537 TL,Beverwijk,NOORD-HOLLAND,NETHERLANDS,NL
386721315,1033 MP,IJsselstein UT,NOORD-HOLLAND,NETHERLANDS,NL,0229 259 911,1620 AH,,UTRECHT,NETHERLANDS,NL,Principal,,,1091 GV,Beverwijk,NOORD-HOLLAND,NETHERLANDS,NL,,Amsterdam,NETHERLANDS,NL,1121 NN,IJsselstein UT,NOORD-HOLLAND,NETHERLANDS,NL
403318830,3401 MG,Almere,NOORD-HOLLAND,NETHERLANDS,NL,0229 241 144,1940 AP,,NOORD-HOLLAND,,NL,Principal,20151231.0,68269000.0,1091 GV,Amsterdam,NOORD-HOLLAND,NETHERLANDS,NL,1091 GV,IJsselstein UT,NETHERLANDS,NL,1019 GM,Beverwijk,NOORD-HOLLAND,NETHERLANDS,NL
410331219,1017 HL,Amsterdam,ZEELAND,NETHERLANDS,NL,,,Hoorn NH,UTRECHT,NETHERLANDS,NL,Sales Manager,20161231.0,48603000.0,1091 GV,Amsterdam,,NETHERLANDS,NL,1942 LD,Amsterdam,NETHERLANDS,NL,1105 AJ,Nijmegen,NOORD-HOLLAND,NETHERLANDS,NL
386701226,1019 GM,Utrecht,NOORD-HOLLAND,NETHERLANDS,NL,0229 571 011,1620 AH,,NOORD-HOLLAND,,NL,Finance Manager,,,1091 GV,Beverwijk,UTRECHT,NETHERLANDS,NL,80021-8254,Beverwijk,NETHERLANDS,NL,1105 AJ,Amsterdam,NOORD-HOLLAND,NETHERLANDS,NL
411909823,3401 MG,Apeldoorn,NOORD-HOLLAND,NETHERLANDS,NL,0251 262 727,,,,NETHERLANDS,NL,,20131231.0,,0000AA,Amsterdam,,NETHERLANDS,NL,1091 GV,Beverwijk,NETHERLANDS,NL,,Goes,NOORD-HOLLAND,NETHERLANDS,NL
406257089,1942 LD,Vuren,GELDERLAND,NETHERLANDS,NL,030 688 0181,,Amsterdam,,NETHERLANDS,NL,Principal,20131231.0,,0000AA,Nijmegen,NOORD-HOLLAND,NETHERLANDS,NL,1942 LD,Beverwijk,NETHERLANDS,NL,1091 GV,Amsterdam,NOORD-HOLLAND,NETHERLANDS,NL
409909454,1105 AJ,Beverwijk,NOORD-HOLLAND,NETHERLANDS,NL,030 688 0181,,Goes,UTRECHT,NETHERLANDS,,,20161231.0,,1091 GV,Beverwijk,,NETHERLANDS,NL,8444 AR,Unknown,NETHERLANDS,NL,1942 LD,Beverwijk,ZEELAND,NETHERLANDS,NL
411482649,3401 MG,Amsterdam,NOORD-HOLLAND,NETHERLANDS,NL,0229 241 144,1940 AM,IJsselstein UT,NOORD-HOLLAND,NETHERLANDS,NL,General Manager,20151231.0,28734000.0,1105 AJ,IJsselstein UT,NOORD-HOLLAND,NETHERLANDS,NL,8444 AR,Amsterdam,NETHERLANDS,NL,1019 GM,Amsterdam,ZEELAND,NETHERLANDS,NL
491686300,1627 LL,Amsterdam,NOORD-HOLLAND,NETHERLANDS,NL,,1300 EG,Goes,ZUID-HOLLAND,NETHERLANDS,,General Manager,20151231.0,,8444 AR,Amsterdam,UTRECHT,NETHERLANDS,NL,3401 MG,Heerenveen,NETHERLANDS,NL,1091 GV,Amsterdam,NOORD-HOLLAND,NETHERLANDS,NL
489128055,1627 LL,Oud Beijerland,NOORD-HOLLAND,NETHERLANDS,NL,0251 262 727,8440 AK,Amsterdam,NOORD-HOLLAND,NETHERLANDS,,General Manager,20161231.0,,1105 AJ,Heerenveen,GELDERLAND,NETHERLANDS,NL,1091 GV,Heerenveen,NETHERLANDS,NL,1815 BB,IJsselstein UT,NOORD-HOLLAND,NETHERLANDS,NL
415687243,1105 AJ,Beverwijk,NOORD-HOLLAND,NETHERLANDS,NL,030 688 0181,,,,NETHERLANDS,NL,,20151231.0,,1942 LD,Amsterdam,FRIESLAND,NETHERLANDS,NL,8444 AR,Nijmegen,NETHERLANDS,NL,1019 GM,Amsterdam,UTRECHT,NETHERLANDS,
410020528,1017 HL,Amsterdam,NOORD-HOLLAND,NETHERLANDS,NL,0313 419 101,,Amsterdam,NOORD-HOLLAND,NETHERLANDS,,General Manager,20151231.0,,1091 GV,IJsselstein UT,NOORD-HOLLAND,NETHERLANDS,NL,1121 NN,Amsterdam,NETHERLANDS,NL,1942 LD,Amsterdam,UTRECHT,NETHERLANDS,NL
415633106,3401 MG,Nijmegen,NOORD-HOLLAND,NETHERLANDS,NL,,1940 AP,Heerenveen,ZEELAND,NETHERLANDS,NL,,20061231.0,,1091 GV,Amsterdam,NOORD-HOLLAND,NETHERLANDS,NL,8444 AR,Amsterdam,UNITED STATES,US,1942 LD,IJsselstein UT,NOORD-HOLLAND,NETHERLANDS,NL
386574289,3261 LD,IJsselstein UT,NOORD-HOLLAND,NETHERLANDS,NL,010 426 6655,1940 AP,Beverwijk,ZEELAND,NETHERLANDS,NL,,20161231.0,,3401 MG,Alkmaar,NOORD-HOLLAND,NETHERLANDS,NL,6537 TL,IJsselstein UT,NETHERLANDS,NL,1091 GV,Amsterdam,ZEELAND,NETHERLANDS,NL
408839269,1017 HL,Assen,NOORD-HOLLAND,NETHERLANDS,NL,020 470 6121,4460 AA,Hoorn NH,ZEELAND,NETHERLANDS,NL,Principal,20131231.0,,1019 GM,IJsselstein UT,,NETHERLANDS,NL,1942 LD,IJsselstein UT,,NL,4462 GL,Amsterdam,NOORD-HOLLAND,NETHERLANDS,NL
489053825,4462 GL,'s-Hertogenbosch,NOORD-HOLLAND,NETHERLANDS,NL,,1620 AH,Amsterdam,FLEVOLAND,NETHERLANDS,NL,General Manager,20161231.0,,1942 LD,Heerenveen,NOORD-HOLLAND,NETHERLANDS,NL,1091 GV,Heerenveen,NETHERLANDS,NL,1627 LL,Beverwijk,NOORD-HOLLAND,NETHERLANDS,NL
406715227,1017 HL,Hoorn NH,NOORD-HOLLAND,NETHERLANDS,NL,,1940 AP,Amsterdam,UTRECHT,,NL,,20151231.0,,1942 LD,Amsterdam,GELDERLAND,NETHERLANDS,NL,,Amsterdam,NETHERLANDS,NL,1942 LD,BROOMFIELD,NOORD-HOLLAND,NETHERLANDS,NL
404739943,1091 GV,Amsterdam,ZEELAND,NETHERLANDS,NL,0115 642 500,,Hoorn NH,GELDERLAND,,NL,General Manager,20151231.0,,1091 GV,Beverwijk,UTRECHT,NETHERLANDS,NL,1815 BB,Heerenveen,NETHERLANDS,NL,80021-8254,Beverwijk,NOORD-HOLLAND,NETHERLANDS,NL
489657940,6537 TL,Amsterdam,DRENTHE,NETHERLANDS,NL,0251 262 767,,Beverwijk,NOORD-HOLLAND,NETHERLANDS,NL,General Manager,20161231.0,,3401 MG,Amsterdam,UTRECHT,NETHERLANDS,NL,1091 GV,Heerenveen,NETHERLANDS,NL,8444 AR,Amsterdam,,NETHERLANDS,NL
491177396,1017 HL,Amsterdam,NOORD-BRABANT,NETHERLANDS,NL,,1940 AP,Hoorn NH,,NETHERLANDS,NL,Principal,20161231.0,,6537 TL,Amsterdam,UTRECHT,NETHERLANDS,NL,1091 GV,Amsterdam,NETHERLANDS,,3401 MG,IJsselstein UT,UTRECHT,NETHERLANDS,NL
408362445,3401 MG,Amsterdam,NOORD-HOLLAND,NETHERLANDS,NL,024 641 3135,3401 MG,Beverwijk,ZEELAND,NETHERLANDS,,Principal,20151231.0,,3401 MG,Amsterdam,NOORD-HOLLAND,NETHERLANDS,NL,0000AA,IJsselstein UT,NETHERLANDS,NL,6537 TL,Beverwijk,UTRECHT,NETHERLANDS,NL
416122760,4214 LB,Amsterdam,FLEVOLAND,NETHERLANDS,NL,,,Nijmegen,NOORD-HOLLAND,NETHERLANDS,NL,General Manager,20151231.0,,8444 AR,,GELDERLAND,NETHERLANDS,NL,3401 MG,Amsterdam,NETHERLANDS,NL,1942 LD,,NOORD-HOLLAND,NETHERLANDS,NL
406813949,6537 TL,Amsterdam,NOORD-HOLLAND,NETHERLANDS,NL,0251 262 727,1940 AM,Apeldoorn,,NETHERLANDS,NL,General Manager,,,6537 TL,Unknown,,NETHERLANDS,,0000AA,,NETHERLANDS,NL,1017 HL,Heerenveen,NOORD-HOLLAND,NETHERLANDS,NL
406625061,1105 AJ,'s-Gravenhage,UTRECHT,NETHERLANDS,NL,0255 533 104,1620 AH,Hoorn NH,NOORD-HOLLAND,NETHERLANDS,NL,Finance Manager,20061231.0,,1942 LD,Nijmegen,NOORD-HOLLAND,NETHERLANDS,NL,3401 MG,Amsterdam,NETHERLANDS,NL,1017 HL,IJsselstein UT,NOORD-HOLLAND,NETHERLANDS,NL
414422126,1019 GM,IJsselstein UT,NOORD-HOLLAND,NETHERLANDS,NL,030 688 0181,3401 MG,Goes,NOORD-HOLLAND,NETHERLANDS,NL,General Manager,20141231.0,,3401 MG,Unknown,UTRECHT,NETHERLANDS,NL,80021-8254,Amsterdam,NETHERLANDS,NL,1019 GM,Beverwijk,,NETHERLANDS,NL
408425507,1942 LD,Beverwijk,NOORD-HOLLAND,NETHERLANDS,NL,076 522 4944,1940 AP,IJsselstein UT,FRIESLAND,NETHERLANDS,NL,,20151231.0,,1942 LD,Nijmegen,NOORD-HOLLAND,NETHERLANDS,NL,1942 LD,Beverwijk,NETHERLANDS,NL,3401 MG,Beverwijk,UTRECHT,NETHERLANDS,NL
489960779,3401 MG,Amsterdam,NOORD-HOLLAND,NETHERLANDS,NL,030 688 0181,1940 AM,,UTRECHT,NETHERLANDS,NL,Principal,20151231.0,,1942 LD,Beverwijk,NOORD-HOLLAND,NETHERLANDS,NL,3401 MG,Heerenveen,NETHERLANDS,US,1019 GM,Goes,ZEELAND,NETHERLANDS,NL
489243427,5348 KC,IJsselstein UT,NOORD-HOLLAND,NETHERLANDS,NL,020 693 9663,4600 AD,Hoorn NH,ZUID-HOLLAND,NETHERLANDS,NL,Director,20161231.0,,0000AA,Amsterdam,NOORD-HOLLAND,NETHERLANDS,NL,0000AA,Unknown,NETHERLANDS,NL,1942 LD,IJsselstein UT,FRIESLAND,NETHERLANDS,NL
418137352,8444 AR,Nijmegen,NOORD-HOLLAND,NETHERLANDS,NL,0251 262 726,,,NOORD-HOLLAND,NETHERLANDS,,Authorised Signing Officer,20151231.0,176512000.0,1091 GV,IJsselstein UT,NOORD-HOLLAND,NETHERLANDS,NL,1091 GV,Beverwijk,NETHERLANDS,NL,3401 MG,Beverwijk,GELDERLAND,NETHERLANDS,NL
387278179,3401 MG,,NOORD-HOLLAND,NETHERLANDS,NL,010 501 5400,8440 AK,Goes,,,,,20151231.0,,1942 LD,Amsterdam,UTRECHT,NETHERLANDS,NL,1942 LD,Beverwijk,NETHERLANDS,NL,8444 AR,IJsselstein UT,ZEELAND,NETHERLANDS,NL
405893608,4571 RV,Beverwijk,FRIESLAND,NETHERLANDS,NL,,1300 EG,Amsterdam,,NETHERLANDS,,Principal,,,3401 MG,Beverwijk,NOORD-HOLLAND,NETHERLANDS,NL,1091 GV,Beverwijk,NETHERLANDS,NL,3401 MG,Hoorn NH,ZEELAND,NETHERLANDS,NL
417964608,1627 LL,Hoorn NH,FRIESLAND,NETHERLANDS,NL,0251 262 728,1620 AH,Nijmegen,,NETHERLANDS,,Principal,20131231.0,,8444 AR,Beverwijk,NOORD-HOLLAND,NETHERLANDS,,1091 GV,Nijmegen,NETHERLANDS,NL,1942 LD,Goes,ZEELAND,NETHERLANDS,NL
491830966,1091 GV,Almere,NOORD-HOLLAND,NETHERLANDS,NL,0251 262 727,6503 AB,Amsterdam,,,NL,Principal,20151231.0,,0000AA,Amsterdam,NOORD-HOLLAND,NETHERLANDS,NL,1942 LD,,NETHERLANDS,NL,80021-8254,Hoorn NH,,NETHERLANDS,NL
403318798,6537 TL,Beverwijk,NOORD-BRABANT,NETHERLANDS,NL,030 688 0181,1033 MP,Amsterdam,NOORD-HOLLAND,NETHERLANDS,NL,,20151231.0,28151000.0,1942 LD,Beverwijk,FRIESLAND,NETHERLANDS,NL,3401 MG,Unknown,NETHERLANDS,NL,1091 GV,Amsterdam,NOORD-HOLLAND,NETHERLANDS,NL
416620722,3401 MG,IJsselstein UT,NOORD-HOLLAND,NETHERLANDS,NL,0229 245 554,1017 HL,,NOORD-HOLLAND,NETHERLANDS,NL,Principal,20141231.0,,1091 GV,Amsterdam,NOORD-HOLLAND,NETHERLANDS,NL,1091 GV,IJsselstein UT,NETHERLANDS,NL,17,IJsselstein UT,NOORD-HOLLAND,NETHERLANDS,NL
386934702,1017 HL,IJsselstein UT,ZEELAND,NETHERLANDS,NL,024 641 3135,1620 AH,Hoorn NH,GELDERLAND,NETHERLANDS,NL,Principal,20061231.0,,1942 LD,IJsselstein UT,,NETHERLANDS,NL,80021-8254,,NETHERLANDS,NL,1627 LL,,,NETHERLANDS,NL
491834207,8444 AR,Goes,NOORD-HOLLAND,NETHERLANDS,NL,030 688 0181,1620 AH,IJsselstein UT,NOORD-HOLLAND,NETHERLANDS,,General Manager,20151231.0,,1942 LD,Unknown,NOORD-HOLLAND,NETHERLANDS,NL,1942 LD,Beverwijk,UNITED STATES,NL,1942 LD,Landsmeer,NOORD-HOLLAND,NETHERLANDS,NL
410116404,1627 LL,Breda,NOORD-HOLLAND,NETHERLANDS,NL,0251 262 726,1620 AH,Almere,UTRECHT,,NL,General Manager,20151231.0,,1091 GV,Amsterdam,NOORD-HOLLAND,NETHERLANDS,NL,80021-8254,Amsterdam,NETHERLANDS,NL,3401 MG,Hoorn NH,FRIESLAND,,NL
418136107,1621 JH,IJsselstein UT,UTRECHT,NETHERLANDS,NL,024 641 3135,1940 AM,Eemnes,UTRECHT,NETHERLANDS,NL,General Manager,,,1942 LD,Amsterdam,NOORD-HOLLAND,NETHERLANDS,NL,1091 GV,Unknown,NETHERLANDS,NL,4462 GL,Amsterdam,NOORD-HOLLAND,,NL
490293613,6537 TL,Hoorn NH,NOORD-HOLLAND,NETHERLANDS,NL,036 868 8888,,Beverwijk,,NETHERLANDS,NL,Principal,20151231.0,,0000AA,IJsselstein UT,NOORD-HOLLAND,NETHERLANDS,NL,3401 MG,IJsselstein UT,NETHERLANDS,NL,1627 LL,Hoorn NH,NOORD-HOLLAND,NETHERLANDS,NL
406374603,1627 LL,IJsselstein UT,NOORD-HOLLAND,NETHERLANDS,NL,,,Hoorn NH,NOORD-HOLLAND,NETHERLANDS,NL,General Manager,20121231.0,,1091 GV,Amsterdam,NOORD-HOLLAND,,NL,1091 GV,Amsterdam,NETHERLANDS,US,1091 GV,Beverwijk,NOORD-HOLLAND,NETHERLANDS,NL
490490691,1627 LL,Goes,ZEELAND,NETHERLANDS,NL,024 641 3135,3401 MG,,,NETHERLANDS,NL,Principal,20151231.0,,3401 MG,Beverwijk,NOORD-HOLLAND,NETHERLANDS,NL,1942 LD,Beverwijk,NETHERLANDS,US,1627 LL,Amsterdam,UTRECHT,NETHERLANDS,NL
411421159,4214 LB,Hoorn NH,NOORD-HOLLAND,NETHERLANDS,NL,0229 241 144,,,NOORD-HOLLAND,NETHERLANDS,,,20061231.0,,6537 TL,Heerenveen,NOORD-HOLLAND,NETHERLANDS,NL,1019 GM,Amsterdam,NETHERLANDS,NL,80021-8254,Beverwijk,UTRECHT,NETHERLANDS,NL
419365838,4612 PS,Beverwijk,UTRECHT,NETHERLANDS,NL,,1620 AH,,NOORD-HOLLAND,NETHERLANDS,,General Manager,20151231.0,,1091 GV,Amsterdam,UTRECHT,NETHERLANDS,NL,1091 GV,Beverwijk,NETHERLANDS,NL,1942 LD,Heerenveen,NOORD-HOLLAND,NETHERLANDS,NL
409199341,4612 PS,Nijmegen,NOORD-HOLLAND,NETHERLANDS,NL,,3401 MG,,ZEELAND,NETHERLANDS,NL,General Manager,20151231.0,,1942 LD,Amsterdam,UTRECHT,NETHERLANDS,NL,1091 GV,IJsselstein UT,NETHERLANDS,NL,1627 LL,Heerenveen,NOORD-HOLLAND,NETHERLANDS,NL
490830025,1943 AG,Beverwijk,UTRECHT,NETHERLANDS,NL,030 688 0181,,Terneuzen,,,NL,General Manager,20151231.0,,,IJsselstein UT,NOORD-HOLLAND,NETHERLANDS,NL,1942 LD,Unknown,NETHERLANDS,NL,1942 LD,BROOMFIELD,NOORD-HOLLAND,NETHERLANDS,NL
386499362,1091 GV,Beverwijk,NOORD-HOLLAND,NETHERLANDS,NL,0229 241 144,1090 GN,,NOORD-HOLLAND,NETHERLANDS,NL,General Manager,,1622044000.0,1942 LD,IJsselstein UT,NOORD-HOLLAND,NETHERLANDS,NL,1091 GV,Amsterdam,NETHERLANDS,NL,1091 GV,Amsterdam,NOORD-HOLLAND,NETHERLANDS,NL
406400325,1017 HL,Amsterdam,NOORD-HOLLAND,NETHERLANDS,NL,,1620 AH,IJsselstein UT,,NETHERLANDS,NL,Principal,20161231.0,28734000.0,1105 AJ,Amsterdam,UTRECHT,NETHERLANDS,NL,1091 GV,Amsterdam,NETHERLANDS,NL,6537 TL,Amsterdam,GELDERLAND,NETHERLANDS,NL
418136040,1942 LD,Amsterdam,NOORD-HOLLAND,NETHERLANDS,NL,,1620 AH,,,NETHERLANDS,NL,"IT Manager,Manager Finance",20161231.0,,8444 AR,Unknown,NOORD-HOLLAND,NETHERLANDS,NL,1942 LD,Amsterdam,NETHERLANDS,NL,1091 GV,Heerenveen,UTRECHT,NETHERLANDS,NL
491969142,1627 LL,Amsterdam,NOORD-HOLLAND,NETHERLANDS,NL,0418 573 333,1620 AH,,FLEVOLAND,NETHERLANDS,NL,Principal,20151231.0,,1091 GV,Beverwijk,UTRECHT,NETHERLANDS,NL,1019 GM,Amsterdam,NETHERLANDS,NL,1091 GV,Goes,FRIESLAND,NETHERLANDS,NL
386721190,8444 AR,Heerenveen,NOORD-BRABANT,NETHERLANDS,NL,2299241144,7327 AC,,NOORD-HOLLAND,NETHERLANDS,NL,General Manager,20151231.0,,1091 GV,Beverwijk,GELDERLAND,NETHERLANDS,NL,3401 MG,Amsterdam,NETHERLANDS,NL,1942 LD,Unknown,UTRECHT,NETHERLANDS,NL
412104676,1121 NN,Beverwijk,UTRECHT,NETHERLANDS,NL,,1940 AM,Beverwijk,,NETHERLANDS,NL,Principal,20151231.0,,6537 TL,IJsselstein UT,NOORD-HOLLAND,NETHERLANDS,NL,1091 GV,Nijmegen,NETHERLANDS,NL,1105 AJ,IJsselstein UT,ZEELAND,NETHERLANDS,NL
407930999,3401 MG,Hoorn NH,GELDERLAND,NETHERLANDS,NL,0229 241 144,1620 AH,Beverwijk,NOORD-HOLLAND,NETHERLANDS,NL,,20151231.0,,1091 GV,Amsterdam,GELDERLAND,NETHERLANDS,NL,1942 LD,Unknown,NETHERLANDS,NL,3401 MG,IJsselstein UT,NOORD-HOLLAND,,NL
402935477,3401 MG,Beverwijk,ZEELAND,NETHERLANDS,NL,,1940 AP,,NOORD-HOLLAND,NETHERLANDS,NL,Principal,20151231.0,,8444 AR,Amsterdam,NOORD-HOLLAND,NETHERLANDS,NL,3401 MG,Heerenveen,NETHERLANDS,NL,1942 LD,Beverwijk,NOORD-HOLLAND,NETHERLANDS,NL
419591052,1951 JZ,IJsselstein UT,FRIESLAND,NETHERLANDS,NL,0251 262 727,1620 AH,Hoorn NH,NOORD-HOLLAND,NETHERLANDS,NL,Principal,20131231.0,,1091 GV,,,,NL,,Heerenveen,NETHERLANDS,NL,1017 HL,Amsterdam,UTRECHT,NETHERLANDS,NL
402260764,1942 LD,Amsterdam,NOORD-HOLLAND,NETHERLANDS,NL,,1620 AH,Rhoon,NOORD-HOLLAND,NETHERLANDS,NL,,20151231.0,,8444 AR,Amsterdam,NOORD-HOLLAND,NETHERLANDS,NL,1091 GV,IJsselstein UT,NETHERLANDS,US,1091 GV,Beverwijk,CO,NETHERLANDS,NL
386721190,1091 GV,Amsterdam,NOORD-HOLLAND,NETHERLANDS,NL,0229 241 144,,,GELDERLAND,,NL,Principal,20151231.0,742000.0,1121 NN,Beverwijk,NOORD-HOLLAND,NETHERLANDS,NL,80021-8254,Beverwijk,NETHERLANDS,NL,1943 AG,Goes,UTRECHT,NETHERLANDS,NL
403331452,1091 GV,Beverwijk,NOORD-HOLLAND,NETHERLANDS,NL,0251 262 767,,Beverwijk,UTRECHT,NETHERLANDS,NL,Principal,20161231.0,,1091 GV,IJsselstein UT,UTRECHT,NETHERLANDS,NL,6537 TL,Unknown,NETHERLANDS,NL,8444 AR,Goes,NOORD-HOLLAND,NETHERLANDS,
416620730,1942 LD,Alkmaar,NOORD-HOLLAND,NETHERLANDS,NL,,,IJsselstein UT,NOORD-HOLLAND,NETHERLANDS,NL,General Manager,20131231.0,,1091 GV,IJsselstein UT,NOORD-HOLLAND,NETHERLANDS,NL,1091 GV,Unknown,NETHERLANDS,NL,3401 MG,Amsterdam,NOORD-HOLLAND,NETHERLANDS,NL
419308408,1019 GM,Amsterdam,NOORD-HOLLAND,NETHERLANDS,NL,030 688 0181,1620 AH,Beverwijk,NOORD-BRABANT,,NL,,20151231.0,,1942 LD,IJsselstein UT,NOORD-HOLLAND,NETHERLANDS,NL,0000AA,Amsterdam,NETHERLANDS,NL,,Heerenveen,NOORD-HOLLAND,NETHERLANDS,NL
405875738,7327 AC,Heerenveen,GELDERLAND,NETHERLANDS,NL,,,Heerenveen,NOORD-HOLLAND,NETHERLANDS,NL,,,,1091 GV,Unknown,NOORD-HOLLAND,NETHERLANDS,NL,8444 AR,Amsterdam,NETHERLANDS,NL,1942 LD,Amsterdam,NOORD-HOLLAND,NETHERLANDS,NL
413716122,1019 GM,Heerenveen,GELDERLAND,NETHERLANDS,NL,0113 279 379,1300 EG,Beverwijk,,NETHERLANDS,,,20151231.0,28151000.0,3401 MG,Amsterdam,NOORD-HOLLAND,NETHERLANDS,NL,1942 LD,Beverwijk,NETHERLANDS,NL,1105 AJ,Amsterdam,FRIESLAND,UNITED STATES,NL
407647697,1105 AJ,Hoorn NH,UTRECHT,NETHERLANDS,NL,,1017 HL,Hoorn NH,NOORD-HOLLAND,NETHERLANDS,NL,General Manager,19961231.0,,1091 GV,Amsterdam,NOORD-HOLLAND,NETHERLANDS,NL,80021-8254,Nijmegen,,NL,4462 GL,Goes,NOORD-HOLLAND,NETHERLANDS,NL
490437155,2082 LA,Amsterdam,UTRECHT,NETHERLANDS,NL,0229 241 144,1940 AM,Beverwijk,,NETHERLANDS,NL,Principal,20151231.0,,1091 GV,Amsterdam,NOORD-HOLLAND,NETHERLANDS,NL,6537 TL,Amsterdam,NETHERLANDS,,1942 LD,Beverwijk,NOORD-HOLLAND,NETHERLANDS,NL
419044714,6537 TL,Beverwijk,NOORD-HOLLAND,NETHERLANDS,NL,030 688 0181,,Beverwijk,,,NL,,,,1091 GV,Amsterdam,NOORD-HOLLAND,NETHERLANDS,NL,0000AA,Beverwijk,NETHERLANDS,NL,1017 HL,IJsselstein UT,NOORD-HOLLAND,NETHERLANDS,NL
386721190,1315 RA,Hoorn NH,NOORD-HOLLAND,NETHERLANDS,NL,0513 638 703,8440 AK,Rhoon,UTRECHT,NETHERLANDS,,Principal,20151231.0,,1091 GV,Beverwijk,NOORD-HOLLAND,NETHERLANDS,NL,3401 MG,IJsselstein UT,UNITED STATES,NL,1627 LL,Beverwijk,NOORD-HOLLAND,NETHERLANDS,NL
489857902,4462 GL,Goes,NOORD-HOLLAND,NETHERLANDS,NL,,1940 AP,,NOORD-HOLLAND,NETHERLANDS,,Authorised Signing Officer,20151231.0,,1091 GV,Beverwijk,,NETHERLANDS,NL,1091 GV,Beverwijk,NETHERLANDS,NL,3401 MG,Unknown,NOORD-HOLLAND,NETHERLANDS,NL
491686285,1017 HL,IJsselstein UT,UTRECHT,NETHERLANDS,NL,0251 262 727,4460 AA,Beverwijk,NOORD-HOLLAND,NETHERLANDS,NL,General Manager,20031231.0,28151000.0,8444 AR,Landsmeer,NOORD-HOLLAND,NETHERLANDS,NL,3401 MG,Beverwijk,NETHERLANDS,NL,1942 LD,Amsterdam,NOORD-HOLLAND,NETHERLANDS,US
491074976,4815 HT,Amsterdam,NOORD-HOLLAND,NETHERLANDS,NL,0229 241 144,1105 AJ,Hoorn NH,,NETHERLANDS,NL,Principal,20161231.0,,1121 NN,Amsterdam,,NETHERLANDS,NL,0000AA,Amsterdam,NETHERLANDS,NL,,IJsselstein UT,NOORD-HOLLAND,NETHERLANDS,
408425507,3113 AR,IJsselstein UT,ZUID-HOLLAND,NETHERLANDS,NL,,1620 AH,,FRIESLAND,NETHERLANDS,NL,Authorised Signing Officer,20151231.0,,1942 LD,Beverwijk,NOORD-HOLLAND,NETHERLANDS,NL,1942 LD,Unknown,NETHERLANDS,US,4462 GL,IJsselstein UT,UTRECHT,NETHERLANDS,NL
402297654,1942 LD,Heerenveen,NOORD-HOLLAND,NETHERLANDS,NL,0251 262 727,1940 AL,IJsselstein UT,FRIESLAND,,NL,General Manager,20151231.0,,1942 LD,Beverwijk,GELDERLAND,NETHERLANDS,NL,3401 MG,IJsselstein UT,NETHERLANDS,NL,7327 AC,IJsselstein UT,ZEELAND,NETHERLANDS,NL
402297662,1627 LL,Hengelo OV,NOORD-HOLLAND,NETHERLANDS,NL,024 641 3135,,IJsselstein UT,,NETHERLANDS,NL,,20160102.0,,3401 MG,Nijmegen,UTRECHT,NETHERLANDS,NL,3401 MG,IJsselstein UT,UNITED STATES,NL,3401 MG,Nijmegen,UTRECHT,NETHERLANDS,NL
418136222,1627 LL,IJsselstein UT,NOORD-HOLLAND,NETHERLANDS,NL,0251 262 767,1940 AP,Beverwijk,ZUID-HOLLAND,,NL,Finance Manager,20031231.0,,1942 LD,Amsterdam,,NETHERLANDS,NL,1942 LD,,NETHERLANDS,US,1105 AJ,Amsterdam,GELDERLAND,NETHERLANDS,NL
418450151,3401 MG,Beverwijk,NOORD-HOLLAND,NETHERLANDS,NL,,3401 MG,,,NETHERLANDS,NL,General Manager,20151231.0,,3401 MG,Amsterdam,,NETHERLANDS,NL,1091 GV,Beverwijk,NETHERLANDS,NL,4462 GL,Amsterdam,GELDERLAND,NETHERLANDS,NL
415325380,1017 HL,Bergen op Zoom,NOORD-BRABANT,NETHERLANDS,NL,024 641 3135,1942 LD,Heerenveen,NOORD-HOLLAND,,NL,,20151231.0,276000.0,1942 LD,Heerenveen,NOORD-HOLLAND,NETHERLANDS,NL,1091 GV,Amsterdam,NETHERLANDS,NL,1019 GM,Goes,NOORD-HOLLAND,NETHERLANDS,NL
490584069,1521 NH,Apeldoorn,NOORD-HOLLAND,NETHERLANDS,NL,0229 212 829,1940 AP,Hoorn NH,ZEELAND,NETHERLANDS,,Principal,20121231.0,,3401 MG,Beverwijk,NOORD-HOLLAND,NETHERLANDS,NL,1091 GV,Nijmegen,NETHERLANDS,US,4462 GL,Landsmeer,NOORD-HOLLAND,NETHERLANDS,NL
491415541,1942 LD,Beverwijk,UTRECHT,NETHERLANDS,NL,,,Hoorn NH,NOORD-HOLLAND,NETHERLANDS,,Authorised Signing Officer,,28151000.0,1942 LD,IJsselstein UT,NOORD-HOLLAND,NETHERLANDS,NL,1942 LD,IJsselstein UT,NETHERLANDS,NL,1091 GV,IJsselstein UT,UTRECHT,NETHERLANDS,NL
415793363,3245 MD,Hoorn NH,NOORD-HOLLAND,NETHERLANDS,NL,0251 262 767,1940 AM,Goes,,,NL,General Manager,20161231.0,,1091 GV,Amsterdam,NOORD-HOLLAND,NETHERLANDS,NL,1091 GV,IJsselstein UT,NETHERLANDS,NL,1942 LD,Goes,NOORD-HOLLAND,NETHERLANDS,NL
386934710,4538 AN,Amsterdam,ZUID-HOLLAND,NETHERLANDS,NL,023 537 6206,8440 AK,Hoorn NH,,NETHERLANDS,,,20151231.0,,1091 GV,Amsterdam,FRIESLAND,NETHERLANDS,NL,1091 GV,IJsselstein UT,NETHERLANDS,NL,1942 LD,Nijmegen,GELDERLAND,NETHERLANDS,NL
386934686,1948 NM,Amsterdam,FLEVOLAND,NETHERLANDS,NL,0164 238 181,1090 GN,Hoorn NH,NOORD-HOLLAND,,,General Manager,20151231.0,,1942 LD,Amsterdam,NOORD-HOLLAND,NETHERLANDS,NL,6537 TL,Amsterdam,NETHERLANDS,NL,8444 AR,Nijmegen,NOORD-HOLLAND,NETHERLANDS,NL
413136565,7327 AD,Hoorn NH,UTRECHT,NETHERLANDS,NL,036 868 8729,,Hoorn NH,FRIESLAND,NETHERLANDS,NL,Principal,20151231.0,,3401 MG,Amsterdam,GELDERLAND,NETHERLANDS,NL,3401 MG,Unknown,UNITED STATES,NL,3401 MG,Amsterdam,NOORD-HOLLAND,NETHERLANDS,NL
414855700,7327 AC,Goes,ZUID-HOLLAND,NETHERLANDS,NL,0229 241 144,,Beverwijk,,NETHERLANDS,NL,Principal,,,1091 GV,Beverwijk,FRIESLAND,NETHERLANDS,NL,,Amsterdam,NETHERLANDS,NL,4462 GL,Amsterdam,NOORD-HOLLAND,NETHERLANDS,NL
491129398,1942 LD,Hoorn NH,GELDERLAND,NETHERLANDS,NL,,2595 AR,Amsterdam,,NETHERLANDS,,Principal,,,1019 GM,IJsselstein UT,ZUID-HOLLAND,NETHERLANDS,NL,3401 MG,BROOMFIELD,NETHERLANDS,NL,1017 HL,Beverwijk,NOORD-HOLLAND,NETHERLANDS,NL
406564489,6537 TL,Axel,ZEELAND,NETHERLANDS,NL,0251 262 727,,,NOORD-HOLLAND,,NL,Authorised Signing Officer,20151231.0,52524000.0,1019 GM,Beverwijk,NOORD-HOLLAND,NETHERLANDS,NL,0000AA,IJsselstein UT,NETHERLANDS,NL,1942 LD,Amsterdam,NOORD-HOLLAND,NETHERLANDS,NL
411365971,1627 LL,Amsterdam,ZUID-HOLLAND,NETHERLANDS,NL,030 688 0181,4460 AA,,UTRECHT,NETHERLANDS,NL,Principal,20151231.0,,3401 MG,Heerenveen,,,NL,1942 LD,BROOMFIELD,NETHERLANDS,NL,1091 GV,Goes,GELDERLAND,NETHERLANDS,NL
490017383,1627 LL,Nijmegen,NOORD-HOLLAND,NETHERLANDS,NL,070 710 0610,3401 MG,Beverwijk,NOORD-HOLLAND,,NL,Principal,20131231.0,,1105 AJ,Amsterdam,UTRECHT,NETHERLANDS,NL,3401 MG,Heerenveen,UNITED STATES,NL,1091 GV,Amsterdam,NOORD-HOLLAND,NETHERLANDS,NL
419037973,4338 PL,IJsselstein UT,NOORD-HOLLAND,NETHERLANDS,NL,0418 573 333,3240 AA,,ZEELAND,,NL,General Manager,20151231.0,,0000AA,Unknown,NOORD-HOLLAND,NETHERLANDS,NL,1091 GV,Heerenveen,NETHERLANDS,NL,1942 LD,Beverwijk,,NETHERLANDS,NL
402297654,1942 LD,IJsselstein UT,NOORD-HOLLAND,NETHERLANDS,NL,030 688 0181,3401 MG,,NOORD-HOLLAND,,NL,Principal,,776000.0,1091 GV,Amsterdam,NOORD-HOLLAND,NETHERLANDS,NL,6537 TL,Beverwijk,NETHERLANDS,US,3401 MG,Heerenveen,NOORD-HOLLAND,NETHERLANDS,NL
490974812,1942 LD,Hoorn NH,ZUID-HOLLAND,NETHERLANDS,NL,024 641 3135,1090 GN,Heerenveen,NOORD-HOLLAND,NETHERLANDS,NL,Principal,20151231.0,,1815 BB,Amsterdam,FRIESLAND,NETHERLANDS,NL,80021-8254,Amsterdam,NETHERLANDS,NL,1942 LD,IJsselstein UT,NOORD-HOLLAND,NETHERLANDS,NL
386721315,4501 PB,Amsterdam,NOORD-BRABANT,NETHERLANDS,NL,,1620 AH,Amsterdam,NOORD-HOLLAND,NETHERLANDS,NL,,20131231.0,15747000.0,3401 MG,Amsterdam,NOORD-HOLLAND,NETHERLANDS,NL,3401 MG,Beverwijk,NETHERLANDS,NL,1091 GV,Amsterdam,NOORD-HOLLAND,NETHERLANDS,NL
386110191,1627 LL,Almere,NOORD-HOLLAND,NETHERLANDS,NL,0229 241 144,4460 AA,IJsselstein UT,NOORD-HOLLAND,,,General Manager,20061231.0,,2595 AR,Beverwijk,NOORD-HOLLAND,NETHERLANDS,,1942 LD,Amsterdam,NETHERLANDS,NL,3401 MG,Amsterdam,NOORD-HOLLAND,NETHERLANDS,NL
490931999,1942 LD,Santpoort Zuid,GELDERLAND,NETHERLANDS,NL,030 688 0181,,Goes,NOORD-HOLLAND,NETHERLANDS,NL,Authorised Signing Officer,20101231.0,,1091 GV,Amsterdam,UTRECHT,NETHERLANDS,NL,3401 MG,Amsterdam,NETHERLANDS,NL,3401 MG,Amsterdam,FRIESLAND,NETHERLANDS,NL
402179675,1942 LD,Beverwijk,FLEVOLAND,NETHERLANDS,NL,0251 262 730,4460 AA,Beverwijk,,,NL,Principal,,,1091 GV,Amsterdam,GELDERLAND,NETHERLANDS,NL,8444 AR,Beverwijk,NETHERLANDS,NL,1942 LD,Hoorn NH,ZEELAND,NETHERLANDS,NL
407717081,1942 LD,IJsselstein UT,NOORD-HOLLAND,NETHERLANDS,NL,0313 419 101,1105 AJ,Hoorn NH,UTRECHT,NETHERLANDS,NL,,20120331.0,,1942 LD,Beverwijk,NOORD-HOLLAND,NETHERLANDS,NL,1942 LD,Amsterdam,,NL,4462 GL,,UTRECHT,NETHERLANDS,NL
409390957,7556 PH,Heerenveen,GELDERLAND,NETHERLANDS,NL,0251 262 767,8440 AK,Almere,,NETHERLANDS,NL,,,,8444 AR,Unknown,NOORD-HOLLAND,NETHERLANDS,NL,1942 LD,Amsterdam,NETHERLANDS,NL,8444 AR,Goes,,NETHERLANDS,US
490226803,1942 LD,Bergen op Zoom,NOORD-HOLLAND,NETHERLANDS,NL,055 599 4100,1940 AM,IJsselstein UT,NOORD-HOLLAND,NETHERLANDS,NL,Principal,20151231.0,,1091 GV,Beverwijk,NOORD-HOLLAND,NETHERLANDS,NL,1942 LD,Amsterdam,NETHERLANDS,NL,3401 MG,Beverwijk,NOORD-HOLLAND,NETHERLANDS,NL
415365782,3401 MG,Beverwijk,GELDERLAND,NETHERLANDS,NL,,1620 AH,,NOORD-HOLLAND,NETHERLANDS,NL,General Manager,20161231.0,,,Unknown,NOORD-HOLLAND,NETHERLANDS,NL,1091 GV,Amsterdam,NETHERLANDS,NL,1017 HL,Alkmaar,NOORD-HOLLAND,NETHERLANDS,NL
418543013,6537 TL,IJsselstein UT,FRIESLAND,NETHERLANDS,NL,0113 279 279,1620 AH,Hoorn NH,NOORD-HOLLAND,,NL,General Manager,20161231.0,,3401 MG,,UTRECHT,NETHERLANDS,NL,1019 GM,Amsterdam,NETHERLANDS,NL,,Amsterdam,FRIESLAND,NETHERLANDS,NL
550009559,4731 CZ,Amsterdam,FLEVOLAND,NETHERLANDS,NL,0187 484 000,1620 AH,IJsselstein UT,,NETHERLANDS,,Director,20151231.0,,1019 GM,Nijmegen,NOORD-HOLLAND,NETHERLANDS,NL,1019 GM,IJsselstein UT,NETHERLANDS,NL,1019 GM,Beverwijk,NOORD-HOLLAND,NETHERLANDS,NL
