unknown,unknown,house_number,postcode,city,country,country,unknown,house_number,postcode,city,country,country,telephone_nr,telephone_nr,unknown,country
9186001,10245,93,3381 AG,ROERMOND,NEDERLAND,NL,"27146966,03372",8,1165 MK,VEENWOUDEN,NL,Netherlands,,,yes,NL
6144001,4277,70,4611 NM,VOORSCHOTEN,NEDERLAND,NL,"102698475,03372",67,8251 KD,HALFWEG,NL,Netherlands,,033 4340383,yes,NL
1034004,10327,29,1277 ES,ALPHEN AAN DEN RIJN,NEDERLAND,NL,"70124635,03372",8,1741 EA,APELDOORN,NL,Netherlands,,,yes,NL
8132004,6680,28,1741 EJ,NOORDWIJK AAN ZEE,NEDERLAND,NL,"98025094,03372",95,1165 MK,VINKEVEEN,NL,Netherlands,,,yes,NL
10833001,8740,57,8102 CD,HAARLEM,NEDERLAND,NL,"19553605,03372",33,2011 WH,LEEUWARDEN,NL,Netherlands,06 51386869,,yes,NL
8336002,7845,14,1823 XL,GROOTEBROEK,NEDERLAND,NL,"109230327,03372",95,3544 NK,HALFWEG,NL,Netherlands,0174 626425,,yes,NL
4147001,9877,15,3921 DN,HULST,NEDERLAND,NL,"37596405,03372",114,1825 SV,GOES,NL,Netherlands,,,yes,NL
1034000,9256,25,3901 AT,BARENDRECHT,NEDERLAND,NL,"33708033,03372",14,3911 LB,GRONINGEN,NL,Netherlands,,,yes,NL
7663001,1086,95,3958 EB,BERGEIJK,NEDERLAND,NL,"103111093,03372",3,1094 EE,HEERLEN,NL,Netherlands,0314 621206,,yes,NL
7235001,10605,24,5751 BH,LAREN,NEDERLAND,NL,"59222649,03372",57,1611 AN,ELBURG,NL,Netherlands,,,yes,NL
449005,9770,8,1251 LA,HALFWEG,NEDERLAND,NL,"41435725,03372",96,8011 LN,HEERLEN,NL,Netherlands,06 50208932,,yes,NL
8056001,9862,29,2272 AR,GIESSENBURG,NEDERLAND,NL,"83747860,03372",14,1161EW,RAALTE,NL,Netherlands,,0416 382920,yes,NL
2920001,10045,4,6613 AN,LEEUWARDEN,NEDERLAND,NL,"79442730,03372",17,1911 TP,LEIDEN,NL,Netherlands,,,yes,NL
10207001,8874,30,6161 EG,KOMMERZIJL,NEDERLAND,NL,"78833257,03372",28,3135 BK,WATERINGEN,NL,Netherlands,0342 472426,0294 457106,yes,NL
100001,10817,336,2211 SP,BORCULO,NEDERLAND,NL,"109221510,03372",95,7642 AK,ARCEN,NL,Netherlands,,,yes,NL
6782001,2316,127,7001 BW,NIEUWERKERK AAN DEN IJSSEL,NEDERLAND,NL,"586547,03372",24,8011 LR,BERGEN OP ZOOM,NL,Netherlands,,,yes,NL
4538001,527,168,6881 TC,GROESBEEK,NEDERLAND,NL,"38897244,03372",16,1165 MK,MADE,NL,Netherlands,,,yes,NL
10139001,9887,11,1098 AC,WINSCHOTEN,NEDERLAND,NL,"47254404,03372",34,6711 ND,NIEUWLEUSEN,NL,Netherlands,,0168 404603,yes,NL
10439001,7541,4,1521 DS,HARDERWIJK,NEDERLAND,NL,"71535368,03372",26,1165 MK,EERBEEK,NL,Netherlands,,,yes,NL
10835,9798,38,4524 DA,WIERINGERWERF,NEDERLAND,NL,"78832529,03372",15,1985 BA,HALFWEG,NL,Netherlands,,,yes,NL
4219005,7617,32,1165 MK,LEIDEN,NEDERLAND,NL,"28748165,03372",11,9801 DA,HALFWEG,NL,Netherlands,,,yes,NL
4431001,11098,33,1165 MK,RODEN,NEDERLAND,NL,"82668989,03372",6,3818 CS,HALFWEG,NL,Netherlands,,,yes,NL
8132002,8783,53,1161 CP,WAALWIJK,NEDERLAND,NL,"112051272,03372",24,8011 TH,PRINSENBEEK,NL,Netherlands,651686132,,yes,NL
7845004,10097,13,1718 MK,DRACHTEN,NEDERLAND,NL,"101760969,03372",15,2941 BS,GORINCHEM,NL,Netherlands,,,yes,NL
9853001,9880,21,2051 ED,BEVERWIJK,NEDERLAND,NL,"105306651,03372",6,3401 CW,HALFWEG,NL,Netherlands,,,yes,NL
4542005,10247,41,9861 CR,HAARLEM,NEDERLAND,NL,"41260787,03372",95,1165 MK,DEN BOSCH,NL,Netherlands,(026) 370 99 50,,yes,NL
6600001,4219,136,7462 AP,DE WIJK,NEDERLAND,NL,"110982396,03372",69,1901 EE,GOES,NL,Netherlands,,,yes,NL
1380001,10193,3,2151 GD,RIJSSEN,NEDERLAND,NL,"2611757,03372",10,2161 JB,UTRECHT,NL,Netherlands,035 5389177,,yes,NL
1012001,10881,53,7772 AE,HALFWEG,NEDERLAND,NL,"108461017,03372",11,1852 CG,EDAM,NL,Netherlands,015 2145479,,yes,NL
10201,9313,10,1562 WD,RAVENSTEIN,NEDERLAND,NL,"52833210,03372",21,3054 SE,DEURNE,NL,Netherlands,0412 453333,,yes,NL
5196001,8014,145,7891 AH,HALFWEG,NEDERLAND,NL,"368864,03372",9,6231 LH,DEN HAAG,NL,Netherlands,06 27627289,,yes,NL
449004,10247,45,1775 PV,ALPHEN AAN DEN RIJN,NEDERLAND,NL,"69709956,03372",41,1165 MK,ETTEN LEUR,NL,Netherlands,,,yes,NL
10191002,10882,50,1621 JH,HAARLEM,NEDERLAND,NL,"14994767,03372",168,2681 CE,MAASTRICHT,NL,Netherlands,0180 428334,,yes,NL
99903,10604,26,2251 BG,ZWANENBURG,NEDERLAND,NL,"372782,03372",17,1621 JH,WORMERVEER,NL,Netherlands,0525 684729,,yes,NL
9862,8021,16,1852 CG,OSS,NEDERLAND,NL,"374300,03372",1,2071 RC,NAALDWIJK,NL,Netherlands,0521 514879,,yes,NL
10050001,9717,23,7391 HH,WIJK BIJ DUURSTEDE,NEDERLAND,NL,"77594615,03372",2,1165 MK,MUIDERBERG,NL,Netherlands,0346 252994,,yes,NL
8749001,3736,59,2912 BC,ZWANENBURG,NEDERLAND,NL,"376910,03372",32,6901 GR,WIJK AAN ZEE,NL,Netherlands,,,yes,NL
8067,9607,50,7311 LZ,AMSTERDAM,NEDERLAND,NL,"84618555,03372",95,6291 EL,DRACHTEN,NL,Netherlands,,,yes,NL
8751001,9203,34,1851 LN,ROTTERDAM,NEDERLAND,NL,"117942914,03372",40,1432 NG,HEILOO,NL,Netherlands,0341 261920,,yes,NL
1585001,8066,1,4351 AG,WADDINXVEEN,NEDERLAND,NL,"5500472,03372",95,2211EK,HALFWEG,NL,Netherlands,050 5281539,,yes,NL
10605,10001B,44,2565 CW,HATTEM,NEDERLAND,NL,"59126592,03372",141,2202 EV,JOURE,NL,Netherlands,020 6202104,,yes,NL
1457001,10213,59,7711 AA,VOORBURG,NEDERLAND,NL,"50566428,03372",4,6711 AB,PATERSWOLDE,NL,Netherlands,0317 410880,,yes,NL
8080,9998,37,2011 JP,HUIZEN,NEDERLAND,NL,"70171118,03372",20,6721 JH,ZANDVOORT,NL,Netherlands,,,yes,NL
7867001,6176,96,8081 EB,HUIZEN,NEDERLAND,NL,"59222721,03372",50,3067 AK,ZWANENBURG,NL,Netherlands,,,yes,NL
1179,4156,95,2042 AD,DRACHTEN,NEDERLAND,NL,"26697663,03372",95,2023 EK,AMSTELVEEN,NL,Netherlands,,,yes,NL
10886001,6563,24,6431 HG,OOSTERBEEK,NEDERLAND,NL,"84994447,03372",2,3751 AS,BREDA,NL,Netherlands,0541 222222,,yes,NL
632001,10275,12,3054 GG,APELDOORN,NEDERLAND,NL,"376822,03372",86,6814 HZ,STAPHORST,NL,Netherlands,,,yes,NL
2355001,8740,67,6101 EK,GOUDA,NEDERLAND,NL,"1511829,03372",95,2408 LM,ROTTERDAM,NL,Netherlands,040 3686048,,yes,NL
3908001,8785,21,4101 CE,CULEMBORG,NEDERLAND,NL,"36789582,03372",1,1165 MK,OVERVEEN,NL,Netherlands,,,yes,NL
10204,8740,29,9671 PH,HEILOO,NEDERLAND,NL,"23166397,03372",2,4707 LB,WINTERSWIJK,NL,Netherlands,,,yes,NL
4037001,9799,14,1161 DE,WATERINGEN,NEDERLAND,NL,"38530610,03372",7,1165 MK,AMSTERDAM,NL,Netherlands,,,yes,NL
7676001,8066,122,6419 BD,MIDDELHARNIS,NEDERLAND,NL,"73938116,03372",95,7251 EA,AMSTERDAM,NL,Netherlands,,,yes,NL
3085004,4144,24,6291 EL,AMSTERDAM,NEDERLAND,NL,"91462334,03372",94,8754 BL,NOORDWIJKERHOUT,NL,Netherlands,,,yes,NL
6667001,7779,50,5616 GW,SCHIERMONNIKOOG,NEDERLAND,NL,"370194,03372",3,9166 LL,WADDINXVEEN,NL,Netherlands,,,yes,NL
2316001,11078,89,2011 JP,HAARLEM,NEDERLAND,NL,"32745108,03372",25,1165 MK,KROMMENIE,NL,Netherlands,038 3336210,,yes,NL
9889001,9191,20,6369 AJ,VORDEN,NEDERLAND,NL,"51862349,03372",181,1165 MK,HALFWEG,NL,Netherlands,020-4978594,,yes,NL
4215001,4558,94,2011 JD,OOTMARSUM,NEDERLAND,NL,"15035995,03372",19,9203 CJ,MIDDELBURG,NL,Netherlands,0228 511227,,yes,NL
11035001,10879,2,1422 WR,ENSCHEDE,NEDERLAND,NL,"108460287,03372",41,8212 EB,ZWANENBURG,NL,Netherlands,0165 301609,,yes,NL
640004,1024,23,1775 PV,AALTEN,NEDERLAND,NL,"96139317,03372",9,7468 DC,OUDDORP,NL,Netherlands,0164 252445,,yes,NL
4303001,3085,51,1094 EE,AMSTERDAM,NEDERLAND,NL,"112052233,03372",5,4835 PS,WORMER,NL,Netherlands,,,yes,NL
9880001,99900,11,1705 TV,RAALTE,NEDERLAND,NL,"9872252,03372",95,6161 EG,NIEUWKUIJK,NL,Netherlands,070 3000555,,yes,NL
1062001,7932,5,2665 BH,HEEMSTEDE,NEDERLAND,NL,"105289623,03372",40,1165 MK,HALFWEG,NL,Netherlands,0251 317356,,yes,NL
10205,6420,31,3067 AK,AMSTELVEEN,NEDERLAND,NL,"55973037,03372",24,1165 MK,TILLIGTE,NL,Netherlands,,,yes,NL
8006,839,12,1315 HS,SIEBENGEWALD,NEDERLAND,NL,"15017680,03372",3,8442 BJ,SCHIJNDEL,NL,Netherlands,,,yes,NL
1795001,10863,7,3764 BH,HALFWEG,NEDERLAND,NL,"15018611,03372",23,2729 AW,TILBURG,NL,Netherlands,,,yes,NL
1330002,9770,4,2729 AW,DEDEMSVAART,NEDERLAND,NL,"95395230,03372",27,2012 EB,SOEST,NL,Netherlands,0252 530331,,yes,NL
9784,8132,14,1964 LW,BLEISWIJK,NEDERLAND,NL,"16474440,03372",2,2981 GB,RIJEN,NL,Netherlands,0497 571347,,yes,NL
528,4147,71,4271 AE,LEEUWARDEN,NEDERLAND,NL,"40447237,03372",1,2042 AD,HOORN,NL,Netherlands,,,yes,NL
1722001,10749,51,1079 RN,HALFWEG,NEDERLAND,NL,"6041773,03372",17,3901 AT,AALSMEER,NL,Netherlands,,,yes,NL
5686001,1457,2,1121 GX,ROOSENDAAL,NEDERLAND,NL,"105217699,03372",61,5975 RR,HARDENBERG,NL,Netherlands,,,yes,NL
10217001,8602,176,5591 HN,APELDOORN,NEDERLAND,NL,"44812855,03372",10,2671 HZ,STADSKANAAL,NL,Netherlands,,,yes,NL
10801001,9784,18,5344 AL,HEEMSTEDE,NEDERLAND,NL,"71991187,03372",95,7311 LP,SINT-OEDENRODE,NL,Netherlands,,,yes,NL
8783001,10092,61,1165 GR,ALMERE,NEDERLAND,NL,"35593080,03372",141,1991 GM,AMSTELVEEN,NL,Netherlands,0345 577708,,yes,NL
8783003,9078,46,8171 BM,ZWANENBURG,NEDERLAND,NL,"370144,03372",68,1961 NW,TWELLO,NL,Netherlands,,,yes,EN
9191006,1034,2,6981 CM,MAASSLUIS,NEDERLAND,NL,"74017708,03372",11,8701 KH,BEST,NL,Netherlands,070 3234892,,yes,NL
9191003,11081,83,4373 AN,KESTEREN,NEDERLAND,NL,"107418475,03372",12,8911 DL,HALFWEG,NL,Netherlands,,,yes,NL
4340001,11157,1,5401 GG,HEINO,NEDERLAND,NL,"15018883,03372",95,6131 BE,WIJHE,NL,Netherlands,,,yes,NL
3085001,10916,32,8171 BM,HAARLEM,NEDERLAND,NL,"55073264,03372",16,1165 MK,HAARLEM,NL,Netherlands,,,yes,NL
100001,10037,35,3971 GP,TWELLO,NEDERLAND,NL,"83291744,03372",5,8401 JC,MIERLOO,NL,Netherlands,06-10653486,,yes,NL
10874,6782,6,1161 JJ,HAARLEM,NEDERLAND,NL,"96375117,03372",4,1165 NK,Zevenbergen,NL,Netherlands,,,yes,NL
99900,9412,91,4201 JP,GOIRLE,NEDERLAND,NL,"107832669,03372",2,5975 BH,DRONTEN,NL,Netherlands,06 53638688,0180 660129,yes,NL
6953001,4037,91,4041 XC,HEDEL,NEDERLAND,NL,"78834947,03372",31,1165 MK,VENLO - BLERICK,NL,Netherlands,06 58908502,0342 408802,yes,NL
8834001,9321,4,1165 MK,TILLIGTE,NEDERLAND,NL,"4191765,03372",63,2051 ED,LANDGRAAF,NL,Netherlands,06-24772130,,yes,NL
10885001,529,3,6562 AH,TIEL,NEDERLAND,NL,"101668422,03372",44,1165 MK,NIEUWERKERK AAN DEN IJSSEL,NL,Netherlands,043 3253114,,yes,NL
9799,10833,31,2011 JD,BOLSWARD,NEDERLAND,NL,"83803674,03372",4,4325 GC,ZWANENBURG,NL,Netherlands,,,yes,NL
3373001,9481,1,7468 CR,ALKMAAR,NEDERLAND,NL,"17829944,03372",19,6411 LA,ALPHEN AAN DEN RIJN,NL,Netherlands,06 48152247,,yes,NL
8828001,10139,4,4524 DA,BERGEN OP ZOOM,NEDERLAND,NL,"74395865,03372",2,3941 HC,EMMEN,NL,Netherlands,06 15893771 (Marcel),,yes,DE
10028001,9194,75,5431 DT,OVERVEEN,NEDERLAND,NL,"105217888,03372",19,2011 JD,HALFWEG,NL,Netherlands,,026 3882089,yes,NL
7245,10035,20,6411 LA,WOUW,NEDERLAND,NL,"37589799,03372",57,8167 PD,SON EN BREUGEL,NL,Netherlands,,,yes,NL
10596,8730,45,6721 JH,SOEST,NEDERLAND,NL,"15046848,03372",18,1165 MK,AALTEN,NL,Netherlands,,,yes,NL
8132003,8422,68,9671 PH,BALGOIJ,NEDERLAND,NL,"100256370,03372",24,1531 LP,OSS,NL,Netherlands,,,yes,NL
10045,1034,25,6039 AE,VEERE,NEDERLAND,NL,"107862250,03372",95,3281 AT,DRONTEN,NL,Netherlands,,,yes,NL
900001,839,5,3261 JS,VAASSEN,NEDERLAND,NL,"103208560,03372",16,1422 WR,VEERE,NL,Netherlands,0492 516655,,yes,NL
10183,2355,2,3841 CP,OUDERKERK AAN DE AMSTEL,NEDERLAND,NL,"63494739,03372",56,5261 EB,OUDENBOSCH,NL,Netherlands,,,yes,NL
6727001,9777,2,1277 ES,DOETINCHEM,NEDERLAND,NL,"69736187,03372",95,1165 MK,LEEUWARDEN,NL,Netherlands,,,yes,NL
7127001,7245,17,4334 HG,BERGSCHENHOEK,NEDERLAND,NL,"99609223,03372",35,1733 AB,KLAZINAVEEN,NL,Netherlands,0545 271238,029 4265418,yes,NL
8603001,10249,45,7722 RV,HUIZEN,NEDERLAND,NL,"6630603,03372",6,6561 CA,HALFWEG,NL,Netherlands,,,yes,NL
10290001,6539,4,4611 TS,OUDENBOSCH,NEDERLAND,NL,"92591100,03372",921,7634 PP,OLDENZAAL,NL,Netherlands,,,yes,NL
8279001,8336,34,3648 HC,HULST,NEDERLAND,NL,"16472246,03372",95,8171 BM,UTRECHT,NL,Netherlands,0598 325535,,yes,NL
10579001,4542,2,8131 BB,APELDOORN,NEDERLAND,NL,"98032798,03372",2,1078 MG,OOSTVOORNE,NL,Netherlands,,,yes,NL
9852001,8957,196,1823 WE,HALFWEG,NEDERLAND,NL,"63493542,03372",22,9765 CK,MIDDENMEER,NL,Netherlands,,,yes,NL
10524001,10278,2,8141 EX,NUNSPEET,NEDERLAND,NL,"15119494,03372",79,7311 LZ,HALFWEG,NL,Netherlands,0570 521253,,yes,NL
9190002,10288,14,5504 MH,TWELLO,NEDERLAND,NL,"108458506,03372",10,3353 HH,ARNHEM,NL,Netherlands,072 7676545,,yes,NL
10604,8078,3,1432 NG,DE MEERN,NEDERLAND,NL,"371170,03372",95,2215 KL,BREUKELEN,NL,Netherlands,,,yes,NL
7779003,9777,362,1191 NZ,ZWANENBURG,NEDERLAND,NL,"16557550,03372",40,3233 LP,HOOGERHEIDE,NL,Netherlands,0517 392275,,yes,NL
839000,5080,2,8561 AP,AMSTERDAM,NEDERLAND,NL,"59222705,03372",166,3764 BH,HALFWEG,NL,Netherlands,0162 318562,,yes,NL
9020001,11188,77,1277 ES,LAREN,NEDERLAND,NL,"96685960,03372",95,1946 BG,HALFWEG,NL,Netherlands,030 6664401,,yes,NL
2316002,8066,935,9671 PH,HATTEM,NEDERLAND,NL,"16995942,03372",26,5051 AB,HALFWEG,NL,Netherlands,,,yes,NL
6877001,10036,6,1103 BK,ELBURG,NEDERLAND,NL,"24521128,03372",16,3811 DB,LISSE,NL,Netherlands,0226 391260,,yes,NL
10193001,99902,123,1759 GN,HAARLEM,NEDERLAND,NL,"96175212,03372",205,7411 LA,BUSSUM,NL,Netherlands,,,yes,NL
1024001,10885,204,3284 AN,BENNEKOM,NEDERLAND,NL,"22115830,03372",14,1181 XW,IJSSELMUIDEN,NL,Netherlands,,,yes,NL
681002,9559,87,9671 PH,ZWANENBURG,NEDERLAND,NL,"118215619,03372",48,3961 AS,BARENDRECHT,NL,Netherlands,(078) 699 01 45,,yes,NL
8740002,8358,4,6411 LA,BAVEL,NEDERLAND,NL,"15013225,03372",77,2011 RA,ALPHEN AAN DEN RIJN,NL,Netherlands,0164 620308,,yes,NL
10001001,5721,8,9321 VW,SANTPOORT NOORD,NEDERLAND,NL,"77916685,03372",28,2011 JP,ROSMALEN,NL,Netherlands,,,yes,NL
9559001,6439,79,1072 NZ,ZWANENBURG,NEDERLAND,NL,"29423327,03372",95,3241 GX,BENNEKOM,NL,Netherlands,0117 382590,,yes,NL
529,839,77,1965 SV,WAGENINGEN,NEDERLAND,NL,"49084950,03372",1,3811 AJ,BALLUM,NL,Netherlands,,,yes,NL
10887001,4414,51,4611 NM,HAARLEM,NEDERLAND,NL,"29430303,03372",21,5253 RE,HEERENVEEN,NL,Netherlands,,,yes,NL
6727001,7036,2,1191 NZ,KAATSHEUVEL,NEDERLAND,NL,"112817197,03372",31,1165 MK,OEGSTGEEST,NL,Netherlands,06 51804335,,yes,NL
7656000,10850,78,3286 VX,GELEEN,NEDERLAND,NL,"35002840,03372",50,2031 BH,GRONINGEN,NL,Netherlands,0497 388021,,yes,NL
7617000,11079,2,2202 EV,GROU,NEDERLAND,NL,"27029889,03372",31,5731 WD,LELYSTAD,NL,Netherlands,,,yes,NL
10840001,10009,25,3762 EC,WILNIS,NEDERLAND,NL,"105225167,03372",95,8442 BL,OOSTKAPELLE,NL,Netherlands,,,yes,NL
4542001,6877,6,3621 AR,WINTERSWIJK,NEDERLAND,NL,"106265298,03372",13,1165 MK,HALFWEG,NL,Netherlands,0597 435440,,yes,NL
8358001,9203,141,2211 SP,MUIDEN,NEDERLAND,NL,"371220,03372",46,1811 NB,BERKEL EN RODENRIJS,NL,Netherlands,,,yes,NL
9862,10874,15,5071 KG,VUGHT,NEDERLAND,NL,"26841574,03372",29,1165 MK,ELST,NL,Netherlands,,,yes,NL
10164001,11035,15,1165 MK,AMERSFOORT,NEDERLAND,NL,"7004574,03372",35,3481 ES,NIEUWLEUSEN,NL,Netherlands,(023) 547 40 00,,yes,NL
10883,974,28,3512 GB,AMSTERDAM,NEDERLAND,NL,"94595492,03372",36,6063 NL,HALFWEG,NL,Netherlands,,,yes,NL
10881000,10045,95,5853 AN,DENEKAMP,NEDERLAND,NL,"372464,03372",130,5241 ED,DEN HAAG,NL,Netherlands,,,yes,NL
4690001,10926,21,6814 HZ,ROTTERDAM,NEDERLAND,NL,"99457286,03372",10,2741 HC,HEEMSKERK,NL,Netherlands,06 28775038,,yes,NL
8790001,3355,122,3648 KR,ALKMAAR,NEDERLAND,NL,"105018342,03372",95,1165 MK,OLST,NL,Netherlands,0599 613716,,yes,NL
11077001,1029,10,2012 LT,WEERT,NEDERLAND,NL,"15147696,03372",95,5655 JE,RIDDERKERK,NL,Netherlands,045 5220082,,yes,NL
9102001,8800,16,1991 GM,SPIJKENISSE,NEDERLAND,NL,"77693166,03372",95,3851 NK,BALK,NL,Netherlands,0344 614544,,yes,NL
10495001,4857,11,6161 EG,GENEMUIDEN,NEDERLAND,NL,"1168274,03372",91,9001 AH,ALMERE,NL,Netherlands,030 2611312,,yes,NL
640005,8006,15,2981 GB,HEYTHUYSEN,NEDERLAND,NL,"86115249,03372",13,1165 MK,TWELLO,NL,Netherlands,,,yes,NL
9283,10049,49,2071 RC,ARNHEM,NEDERLAND,NL,"26828278,03372",18,4461 JP,DEN HAM,NL,Netherlands,0165 534824,045 5691685,yes,NL
10866,10278,3,8212 EB,DE MEERN,NEDERLAND,NL,"66955554,03372",4,2011 SK,BERGEN OP ZOOM,NL,Netherlands,,,yes,NL
8276001,839,15,7311 LZ,NIEUW VENNEP,NEDERLAND,NL,"370376,03372",4,1165 MK,SPAKENBURG,NL,Netherlands,0316 267714,,yes,NL
4219000,9195,207,2014 JA,STADSKANAAL,NEDERLAND,NL,"4640126,03372",95,3371 AM,WIJK BIJ DUURSTEDE,NL,Netherlands,,,yes,NL
8604001,10453,4,2012 KH,HALFWEG,NEDERLAND,NL,"71534828,03372",1,2011 HZ,WOERDEN,NL,Netherlands,,0180 622594,yes,NL
5080001,7845,22,1705 TV,HAARLEM,NEDERLAND,NL,"86029260,03372",95,1078 HM,DOMBURG,NL,Netherlands,026 3514469,,yes,NL
9791,7779,7,2993 EH,HAARLEM,NEDERLAND,NL,"102096040,03372",95,9162 EK,BOVENKARSPEL,NL,Netherlands,06 28775038,,yes,NL
4219006,9608,48,1901 EE,UITHOORN,NEDERLAND,NL,"369126,03372",47,5492 AA,ZOETERMEER,NL,Netherlands,013-5713171,,yes,NL
10062001,8056,8,1991 GM,HAARLEM,NEDERLAND,NL,"20276704,03372",2,1964 LW,"BONAIRE , KRALENDIJK",NL,Netherlands,0314 354498,,yes,NL
1172001,10290,49,2032 KK,HAPERT,NEDERLAND,NL,"36789195,03372",95,8171 BM,HALFWEG,NL,Netherlands,,,yes,NL
1024000,8828,50,6851 BE,VEERE,NEDERLAND,NL,"24833684,03372",16,3011 JG,HALFWEG,NL,Netherlands,,,yes,NL
7617000,6727,26,9203 CJ,BLADEL,NEDERLAND,NL,"109842790,03372",25,7131 DG,HALFWEG,NL,Netherlands,035 5389177,,yes,NL
7826002,6596,145,4661 EH,STEENBERGEN,NEDERLAND,NL,"103111138,03372",49,2665 BH,HAARLEM,NL,Netherlands,,,yes,NL
4219002,10053,34,9162 EK,HALFWEG,NEDERLAND,NL,"31401081,03372",5,1165 MK,MIDDELHARNIS,NL,Netherlands,06 53815859,,yes,NL
10611001,1062,289,3241 GX,LEKKERKERK,NEDERLAND,NL,"50403475,03372",136,1165 MK,HALFWEG,NL,Netherlands,,,yes,NL
4340001,10604,19,2042 AD,GOES,NEDERLAND,NL,"106190180,03372",25,2013 PR,BUSSUM,NL,Netherlands,,,yes,NL
839006,5696,10,2181 JG,NOOTDORP,NEDERLAND,NL,"35491041,03372",50,3161 WG,HALFWEG,NL,Netherlands,,,yes,NL
8118001,9050,72,3861 AD,BERGEN OP ZOOM,NEDERLAND,NL,"15018673,03372",224,1165 MK,WEERT,NL,Netherlands,035 5240285,,yes,NL
10037,10062,2,2631 RJ,SOEST,NEDERLAND,NL,"70170618,03372",39,3253 AN,HEEMSTEDE,NL,Netherlands,,,yes,NL
10245,681,21,8801 LD,BERGEN OP ZOOM,NEDERLAND,NL,"93722504,03372",6,5461 JC,HAARLEM,NL,Netherlands,,,yes,NL
8498001,1585,33,5071 EM,PURMEREND,NEDERLAND,NL,"14994986,03372",1,6411 LA,HALFWEG,NL,Netherlands,,,yes,NL
4857001,10524,28,5011 LP,GORREDIJK,NEDERLAND,NL,"369732,03372",11,1165 MK,HAARLEM,NL,Netherlands,,030 2342222,yes,NL
6001001,1034,9,1181 DA,CASTRICUM,NEDERLAND,NL,"78867095,03372",1,2012 KH,TILBURG,NL,Netherlands,,,yes,NL
10879,9680,196,4631 NC,SIEBENGEWALD,NEDERLAND,NL,"15119249,03372",68,3144 BA,HALFWEG,NL,Netherlands,,,yes,NL
7592001,1405,22,2565 CW,LELYSTAD,NEDERLAND,NL,"36724003,03372",14,6981 CM,NOORDWIJK,NL,Netherlands,0183 631515,038 422 54 94,yes,NL
7826003,10835,16,7251 EA,SCHIJNDEL,NEDERLAND,NL,"4199505,03372",7,2406 LE,APELDOORN,NL,Netherlands,,,yes,NL
7274001,9853,5,3861 AD,DE MEERN,NEDERLAND,NL,"95619502,03372",95,6093 CR,DELFT,NL,Netherlands,,,yes,NL
10881001,9275,1,5271 AB,HALFWEG,NEDERLAND,NL,"106099983,03372",6,8011 LR,HALFWEG,NL,Netherlands,0251 654221,,yes,NL
10573,8248,24,2012 ZC,DRACHTEN,NEDERLAND,NL,"3455756,03372",11,3144 BA,HAARLEM,NL,Netherlands,075 6289499,,yes,NL
8132006,10213,8,4351 BG,SCHAGEN,NEDERLAND,NL,"55298245,03372",45,1421 SB,RIDDERKERK,NL,Netherlands,,,yes,NL
9607001,8006,9,1613 LA,BERKEL EN RODENRIJS,NEDERLAND,NL,"96026912,03372",13,1211 CL,HAARLEM,NL,Netherlands,,,yes,NL
4080001,7559,38,5853 AN,WOLVEGA,NEDERLAND,NL,"38699557,03372",3,2103 VE,BERGSCHENHOEK,NL,Netherlands,020 4973765,,yes,NL
11007001,7110,64,3161 WG,ZWANENBURG,NEDERLAND,NL,"107418444,03372",2,3771 BE,RAVENSTEIN,NL,Netherlands,,,yes,NL
9998,9853,5,4811 WR,BERKEL EN RODENRIJS,NEDERLAND,NL,"12405757,03372",2,6093 EZ,DEN BOSCH,NL,Netherlands,,,yes,NL
10130001,7615,20,1562 WD,AMSTERDAM,NEDERLAND,NL,"375418,03372",2,4001 LT,BREDA,NL,Netherlands,020 2050600,,yes,NL
5092001,1551,61,6093 CR,RENESSE,NEDERLAND,NL,"68929840,03372",8,7951 DS,CUIJK,NL,Netherlands,,020 4974499,yes,NL
7659001,9047,99,5421 KP,HEEMSTEDE,NEDERLAND,NL,"13314951,03372",36,5831 AD,BLOEMENDAAL,NL,Netherlands,,,yes,NL
3927001,7845,32,3648 KR,MIERLO,NEDERLAND,NL,"2481465,03372",21,6862 DJ,VLIELAND,NL,Netherlands,,,yes,NL
9608,9102,69,7683 BD,DRACHTEN,NEDERLAND,NL,"371172,03372",56,1165 MK,DE WIJK,NL,Netherlands,,,yes,NL
10063001,9191,1,4233 EP,VEERE,NEDERLAND,NL,"6237206,03372",95,8043 LR,HALFWEG,NL,Netherlands,,,yes,NL
528,2920,51,2593 AE,NUENEN,NEDERLAND,NL,"84051536,03372",9,1181 ZH,DEN HAAG,NL,Netherlands,033 4622200,,yes,NL
9333001,10573,54,2013 PE,AMSTERDAM,NEDERLAND,NL,"32686759,03372",386,5374 BJ,MAKKUM,NL,Netherlands,0161 431711,,yes,NL
7617001,7592,177,2013 AW,HAARLEM,NEDERLAND,NL,"58503193,03372",86,1165 MK,,NL,Netherlands,,,yes,NL
1551,7615,120,6063 NL,HAARLEM,NEDERLAND,NL,"370908,03372",95,2012 ZC,NIEUWKUIJK,NL,Netherlands,046 4009069,,yes,NL
9608,9191,22,2012 EB,ZEVENBERGEN,NEDERLAND,NL,"78231878,03372",145,1165 MK,HAARLEM,NL,Netherlands,,,yes,NL
2180001,1034,4,3751 BT,WIJHE,NEDERLAND,NL,"103424050,03372",22,1404 CP,HALFWEG,NL,Netherlands,,,yes,NL
9184001,4340,36,9162 EK,UITHOORN,NEDERLAND,NL,"83248410,03372",196,3235 AG,HUISSEN,NL,Netherlands,06 20524256,,yes,NL
10216,4219,14,3642 BJ,ALPHEN AAN DEN RIJN,NEDERLAND,NL,"61471170,03372",20,2341 CL,SOEST,NL,Netherlands,078 6197729,,yes,NL
2265001,8789,35,4611 TS,DEN BOSCH,NEDERLAND,NL,"96806215,03372",95,1441 AT,GOES,NL,Netherlands,,,yes,NL
7013001,7616,23,7021 AB,GEMERT,NEDERLAND,NL,"98032328,03372",12,1165 MK,DEN HELDER,NL,Netherlands,,,yes,NL
10925,7866,41,7391 DE,OVERVEEN,NEDERLAND,NL,"15018340,03372",95,2032 KK,KLUNDERT,NL,Netherlands,0118 582762,,yes,NL
4144001,1034,136,8212 EB,HAARLEM,NEDERLAND,NL,"82246678,03372",32,1165 MK,HALFWEG,NL,Netherlands,,,yes,NL
3355,10214,11,2011 WH,AALSMEER,NEDERLAND,NL,"11899891,03372",416,4351 BG,PUTTEN,NL,Netherlands,,,yes,NL
5866001,6539,15,7711 AA,MIDDELBURG,NEDERLAND,NL,"97961244,03372",24,1165 MK,SNEEK,NL,Netherlands,,,yes,NL
9887001,9259,24,1277 ES,ARNHEM,NEDERLAND,NL,"2674080,03372",54,3511 PR,EINDHOVEN,NL,Netherlands,0572 767276,,yes,NL
1269001,4538,6,1277 ES,HEEMSTEDE,NEDERLAND,NL,"77073257,03372",29,5421 KP,NIEUW VENNEP,NL,Netherlands,0118 501299,,yes,NL
9683001,8582,24,8102 CD,GELEEN,NEDERLAND,NL,"96277846,03372",246,3751 BA,HILVERSUM,NL,Netherlands,0513 468050,,yes,NL
9044001,7779,3,9051 BE,HAARLEM,NEDERLAND,NL,"60872084,03372",46,4524 CV,HAARLEM,NL,Netherlands,,,yes,NL
7592001,10201,7,2991 CS,ANNA PAULOWNA,NEDERLAND,NL,"35776298,03372",45,8152 CB,HELMOND,NL,Netherlands,010 4180766,,yes,NL
10881003,1024,8,1161 SR,ELST,NEDERLAND,NL,"28330144,03372",2,1165 MK,SOEST,NL,Netherlands,0529 482719,,yes,NL
9693001,6919,32,8302 EC,DRACHTEN,NEDERLAND,NL,"93898702,03372",38,4461 HW,HALFWEG,NL,Netherlands,0118-650490,,yes,NL
449004,8469,9,6161 EG,HAPERT,NEDERLAND,NL,"12084961,03372",21,4701 AN,HALFWEG,NL,Netherlands,,,yes,NL
8749001,640G,17,2951 GB,HOOGERHEIDE,NEDERLAND,NL,"78827877,03372",49,2271 CC,HALFWEG,NL,Netherlands,,,yes,NL
10246,4219,37,9722 AG,HAARLEM,NEDERLAND,NL,"15035915,03372",16,1165 MK,ZWIJNDRECHT,BQ,Netherlands,0343-512219,,yes,NL
7845002,1012,8,2106 DH,GELEEN,NEDERLAND,NL,"107837958,03372",13,1165 MK,HALFWEG,NL,Netherlands,,,yes,NL
1034002,657,35,3921 DN,WEST-TERSCHELLING,NEDERLAND,NL,"73023414,03372",17,8102 CD,NUNSPEET,NL,Netherlands,045 8508600,,yes,NL
7874001,9771,28,2011TJ,HELLEVOETSLUIS,NEDERLAND,NL,"70670857,03372",2,2011 ZG,WOLVEGA,NL,Netherlands,,,yes,NL
10909001,9882,59,3871 JZ,DELFT,NEDERLAND,NL,"75599488,03372",59,3054 GG,AMSTERDAM,NL,Netherlands,020 4976066,,yes,NL
10925,8080,217,2011 ZG,SOEST,NEDERLAND,NL,"108830705,03372",127,8471 JM,GROU,NL,Netherlands,0343 597788,,yes,NL
5870001,1330,14,1398 BL,BARNEVELD,NEDERLAND,NL,"108319150,03372",95,5061 HS,VEENDAM,NL,Netherlands,00599 7173056,,yes,NL
9770,3592,289,4661 EH,HAARLEM,NEDERLAND,NL,"15095323,03372",12,8881 BK,ECHT,NL,Netherlands,,,yes,NL
5696001,449A,62,4904 AV,HOEVELAKEN,NEDERLAND,NL,"86833545,03372",1,4813 BA,HEERLEN,NL,Netherlands,06 22829002,,yes,NL
2015001,8132,80,1094 EE,NIEUWE NIEDORP,NEDERLAND,NL,"12164450,03372",1,3881 BD,HALFWEG,NL,Netherlands,,,yes,NL
8582,449C,572,4325 GC,OSS,NEDERLAND,NL,"79442654,03372",2,1165 MK,HALFWEG,NL,Netherlands,,,yes,NL
10695001,10818,9,1165 MK,OISTERWIJK,NEDERLAND,NL,"78529368,03372",18,6711 AD,RAALTE,NL,Netherlands,,,yes,NL
10843001,7127,31,9203 CJ,SANTPOORT NOORD,NEDERLAND,NL,"65154872,03372",32,1161 CP,HEESCH,NL,Netherlands,035 5436160,,yes,NL
10044001,7701,165,2012 LT,LEEUWARDEN,NEDERLAND,NL,"17890414,03372",2,4818 JH,NISTELRODE,NL,Netherlands,0541 532911,,yes,NL
10278,10050,15,8051 GJ,HULST,NEDERLAND,NL,"3316556,03372",49,1165 MK,SIMPELVELD,NL,Netherlands,06 28233473,,yes,NL
10029001,9799,17,2011 PB,HULST,NEDERLAND,NL,"35925487,03372",2,1103 BK,HALFWEG,NL,Netherlands,,,yes,NL
10213,9873,89,2013 PR,HALFWEG,NEDERLAND,NL,"38581619,03372",95,8899 AD,MADE,NL,Netherlands,0499 378005,,yes,NL
3014001,7293,37,1561 AK,HEYTHUYSEN,NEDERLAND,NL,"105214700,03372",2,4571 HJ,BALK,NL,Netherlands,073 7113115,,yes,NL
6919001,9078,9,5481 AK,EINDHOVEN,NEDERLAND,NL,"15013394,03372",238,3441 CN,HALFWEG,NL,Netherlands,0522 463993,,yes,NL
10053003,4542,40,2661 DB,BERGSCHENHOEK,NEDERLAND,NL,"58489661,03372",2,1165 MK,GOUDA,NL,Netherlands,,,yes,NL
2102001,8102,29,2011 EH,ZWANENBURG,NEDERLAND,NL,"85050526,03372",39,7475 AX,PURMEREND,NL,Netherlands,,,yes,NL
7770001,8783,9,2931 AE,HEESWIJK-DINTHER,NEDERLAND,NL,"117943011,03372",33,1165 MK,MIERLO,NL,Netherlands,0348 442644,,yes,NL
6727001,9938,9,5554 HN,ZWANENBURG,NEDERLAND,NL,"118515122,03372",33,9603 AE,ZIERIKZEE,NL,Netherlands,,,yes,NL
9321,10915,7,2661 DB,HEILOO,NEDERLAND,NL,"103106525,03372",95,1165 MK,HOENSBROEK,NL,Netherlands,,,yes,NL
6539002,10834,15,5761 BW,LICHTENVOORDE,NEDERLAND,NL,"15018617,03372",91,5211 KE,SINT ANTHONIS,NL,Netherlands,023 5746068,,yes,NL
10862,1300,76,4724 BK,EMMELOORD,NEDERLAND,NL,"54503791,03372",53,1025 EX,BARENDRECHT,NL,Netherlands,0174 625580,,yes,NL
9873001,10819,47,1852 CG,BEUNINGEN,NEDERLAND,NL,"51847898,03372",56,1165 MK,PAPENDRECHT,NL,Netherlands,071 5611475,,yes,NL
10001002,11009,161,9166 LL,GROENLO,NEDERLAND,NL,"102964010,03372",14,5344 AL,ALKMAAR,NL,Netherlands,,,yes,NL
10244,8603,57,6093 CR,WASSENAAR,NEDERLAND,NL,"12079219,03372",93,5427 BB,HAPERT,NL,Netherlands,071 5120011,,yes,NL
9634,1637,2,1315 HS,BREDA,NEDERLAND,NL,"374494,03372",1,4811 ZE,TUITJENHORN,NL,Netherlands,0031 204976066,,yes,NL
5721001,7826,95,2408 LM,UTRECHT,NEDERLAND,NL,"108808168,03372",12,4791 HP,OENE,NL,Netherlands,0566 620268,,yes,NL
10092001,1179,1,2312 JD,BERGEN OP ZOOM,NEDERLAND,NL,"56331912,03372",93,7443 BD,KRIMPEN AAN DE LEK,NL,Netherlands,0187 680380,,yes,NL
10749001,9718,1,2032 KK,BENEDEN LEEUWEN,NEDERLAND,NL,"26364070,03372",69,5253 RE,DEN BOSCH,NL,Netherlands,0180 622594,,yes,NL
11098,5156,35,2023 EK,ALKMAAR,NEDERLAND,NL,"29470762,03372",6,7005AR,ROSMALEN,NL,Netherlands,023 8224000,,yes,NL
7780001,3487,1,3233 AS,DONGEN,NEDERLAND,NL,"3995056,03372",15,8331 JG,BARENDRECHT,NL,Netherlands,06 42149838,,yes,NL
9791,1063,24,2741 EC,HAARLEM,NEDERLAND,NL,"104278501,03372",95,7101 NP,VLEUTEN,NL,Netherlands,,,yes,NL
10213,8582,117,8561 AP,ZWANENBURG,NEDERLAND,NL,"94528312,03372",12,6811 EM,DOETINCHEM,NL,Netherlands,,,yes,NL
10216,9876,76,4921 BE,HEEMSKERK,NEDERLAND,NL,"62312556,03372",9,2492 JR,NUENEN,NL,Netherlands,,,yes,NL
2828001,8056,25,7391 HH,TWELLO,NEDERLAND,NL,"82729397,03372",95,5384 MC,HALFWEG,NL,Netherlands,0519 531649,,yes,NL
2329001,11007,1,5061 HS,AMSTERDAM ZUIDOOST,NEDERLAND,NL,"58943256,03372",9,3562 KH,EMMELOORD,NL,Netherlands,,,yes,NL
10913001,9784,80,9203 CJ,BERGEN OP ZOOM,NEDERLAND,NL,"369266,03372",178,1561 AK,AMERSFOORT,NL,Netherlands,,,yes,NL
3085003,10843,3,3453 TK,NOORDWIJK AAN ZEE,NEDERLAND,NL,"100560568,03372",20,5591 HN,DORDRECHT,NL,Netherlands,0168 371574,,yes,NL
10817001,4219,15,5616 GW,DALFSEN,NEDERLAND,NL,"77952759,03372",15,1165 MK,HAARLEM,NL,Netherlands,,,yes,NL
9191005,8632,28,4524 DA,HAARLEM,NEDERLAND,NL,"41192137,03372",95,7201 KE,OLDENZAAL,NL,Netherlands,,,yes,NL
8422003,7874,2,4791 HP,OUDEWATER,NEDERLAND,NL,"374434,03372",2,2741 NL,GELEEN,NL,Netherlands,,,yes,NL
974001,9852,82,2312 DR,ALKMAAR,NEDERLAND,NL,"86127793,03372",9,5831 JH,HEEMSKERK,NL,Netherlands,,,yes,NL
9777,1025,95,8014 VS,CASTRICUM,NEDERLAND,NL,"107415846,03372",95,1165 MK,BAARN,NL,Netherlands,033 4727214,,yes,NL
1034005,3373,9,8471 JM,HAARLEM,NEDERLAND,NL,"69807388,03372",70,4524 CD,LEMMER,NL,Netherlands,,,yes,NL
1726001,10611,122,4701 AN,HALFWEG,NEDERLAND,NL,"96491101,03372",13,3701 GV,KESTEREN,NL,Netherlands,,,yes,NL
10601,8783,49,4761 CS,HEERHUGOWAARD,NEDERLAND,NL,"77433109,03372",336,3751 BA,AMSTERDAM,NL,Netherlands,033 2454044,,yes,NL
10915001,7579,145,4357 AG,HAARLEM,NEDERLAND,NL,"82097647,03372",95,3774 BM,HAREN,NL,Netherlands,0318 614922,,yes,NL
10029001,10801,123,7131 DG,ZWANENBURG,NEDERLAND,NL,"106189478,03372",95,2251 BG,WEST-TERSCHELLING,NL,Netherlands,0226 410275,,yes,NL
8014001,99901,210,3771 BE,DELFT,NEDERLAND,NL,"368718,03372",17,4854 CT,LEIDEN,NL,Netherlands,,,yes,NL
118001,8834,9,1277 ES,HARMELEN,NEDERLAND,NL,"32256532,03372",22,1705 TV,MEPPEL,NL,Netherlands,013 4562913,,yes,NL
4276001,10863,2,3262 JP,LEMELERVELD,NEDERLAND,NL,"15018317,03372",30,1165 MK,HOUTEN,NL,Netherlands,0416 375792,,yes,NL
5172001,1034,11,9882 PD,PUTTEN,NEDERLAND,NL,"84051350,03372",19,1165 MK,ZELHEM,NL,Netherlands,0118 502105,,yes,NL
1034000,1269,12,2012 EB,KLAZINAVEEN,NEDERLAND,NL,"82217819,03372",419,5981 AM,GROESBEEK,NL,Netherlands,,,yes,NL
7617001,9867,11,4854 CT,NIJVERDAL,NEDERLAND,NL,"82711045,03372",49,2211 SP,WASSENAAR,NL,Netherlands,035 6219467,,yes,NL
11157001,7770,15,1277 ES,HUIZEN,NEDERLAND,NL,"96246627,03372",5,1165 MK,UITGEEST,NL,Netherlands,,,yes,NL
10063001,1086,2,7271 AS,WIERDEN,NEDERLAND,NL,"99300301,03372",49,1165 MK,HAARLEM,NL,Netherlands,,,yes,NL
9876,1034,7,1949 CW,HOENSBROEK,NEDERLAND,NL,"70124630,03372",19,1851 LN,HEDEL,NL,Netherlands,,,yes,NL
7845003,8422,3,3764 BH,SEVENUM,NEDERLAND,NL,"40886820,03372",25,2011 PB,VAASSEN,NL,Netherlands,,,yes,NL
4219004,7274,27,4001 LW,UITHOORN,NEDERLAND,NL,"105217863,03372",93,5481 AK,STRAMPOY,NL,Netherlands,0497 381482,,yes,NL
10596,10881,38,1761 GG,HUIZEN,NEDERLAND,NL,"19464399,03372",20,3861 AD,MUIDEN,NL,Netherlands,06 14442438,,yes,NL
10863,9075,7,2011TJ,SOEST,NEDERLAND,NL,"369164,03372",95,2011TJ,WIJCHEN,NL,Netherlands,,,yes,NL
9256001,6177,572,3222 KA,BALGOIJ,NEDERLAND,NL,"77691524,03372",21,9162 EK,BODEGRAVEN,NL,Netherlands,,,yes,NL
4219001,2355,77,6711 AB,HEEMSTEDE,NEDERLAND,NL,"72160032,03372",11,6411 LA,AMSTERDAM,NL,Netherlands,,,yes,NL
5955001,8936,17,6093 CR,WORMER,NEDERLAND,NL,"106190082,03372",36,1161 DL,WINTERSWIJK,NL,Netherlands,(046) 475 75 78,,yes,NL
839002,9333,49,7131 DG,OLDENZAAL,NEDERLAND,NL,"65684912,03372",20,1165 GT,VEGHEL,NL,Netherlands,,,yes,NL
7293001,839,11,1078 HM,NOORDWIJKERHOUT,NEDERLAND,NL,"103346361,03372",6,6921 BB,DENEKAMP,NL,Netherlands,,,yes,NL
7615,9876,16,1902 GR,WORMER,NEDERLAND,NL,"86198446,03372",15,3053 GN,ASTEN,NL,Netherlands,,,yes,NL
9784,9877,14,3311 CW,ST. MICHIELSGESTEL,NEDERLAND,NL,"96141708,03372",14,7462 AP,CALLANTSOOG,NL,Netherlands,,,yes,NL
670,632,28,6101 EK,SLUIS,NEDERLAND,NL,"72912452,03372",18,1161 DE,HALFWEG,NL,Netherlands,06 28775038,,yes,NL
10604,10246,95,3901 AT,HAARLEM,NEDERLAND,NL,"73112820,03372",32,1181 WS,ARNHEM,NL,Netherlands,,,yes,NL
9102001,6144,15,9162 EK,HALFWEG,NEDERLAND,NL,"34576336,03372",27,8601 BP,HALFWEG,NL,Netherlands,,,yes,NL
6539003,1551,11,1741 EJ,MIDDENMEER,NEDERLAND,NL,"85682475,03372",153,6581 BW,VELP GLD,NL,Netherlands,,,yes,NL
9717001,4144,50,1165 MK,BOXMEER,NEDERLAND,NL,"38624400,03372",108,2951 GB,HALFWEG,NL,Netherlands,,,yes,NL
9110001,10001A,2,2681 CE,MIDDENMEER,NEDERLAND,NL,"57891252,03372",37,4811 ZD,GIESSENBURG,NL,Netherlands,0547 381766,,yes,NL
10218001,8279,1,1823 XL,UDENHOUT,NEDERLAND,NL,"92876919,03372",21,2981 GD,VOORBURG,NL,Netherlands,,,yes,NL
839007,6001,8,1165 MK,BLOEMENDAAL,NEDERLAND,NL,"15013283,03372",23,3262 JP,WAALWIJK,NL,Netherlands,0182 513862,,yes,NL
10218001,3824,2,9203 CJ,HUIZEN,NEDERLAND,NL,"371244,03372",6,1211 ED,VOLENDAM,NL,Netherlands,,,yes,NL
7845002,3334,35,3011 JG,HAARLEM,NEDERLAND,NL,"369924,03372",95,9712 CL,AMEIDE,NL,Netherlands,06 15858511,,yes,NL
8800001,9792,13,6562 AH,HALFWEG,NEDERLAND,NL,"44410747,03372",13,5691 AS,EDE,NL,Netherlands,,,yes,NL
9213001,10525,2,5531 EL,BARENDRECHT,NEDERLAND,NL,"101665757,03372",9,8101 MC,HALFWEG,NL,Netherlands,0180 613665,,yes,NL
449005,2153,23,3161 WG,AMSTERDAM,NEDERLAND,NL,"40389723,03372",95,7001 EW,ZWANENBURG,NL,Netherlands,,,yes,NL
10926001,1172,32,6431 HG,WINSCHOTEN,NEDERLAND,NL,"376860,03372",73,1165 MK,LOSSER,NL,Netherlands,06 53295298,,yes,NL
8754001,4215,25,3818 CS,HALFWEG,NEDERLAND,NL,"58503206,03372",2,8014 VS,HALFWEG,NL,Netherlands,073 5514617,,yes,NL
9634,7779,5,4325 GC,MIJDRECHT,NEDERLAND,NL,"2674076,03372",95,1165 MK,WILNIS,NL,Netherlands,0492 361962,,yes,NL
7676001,10209,95,1531 LP,SON EN BREUGEL,NEDERLAND,NL,"86904917,03372",17,9501 VM,HAARLEM,NL,Netherlands,,,yes,NL
7701001,10871,205,1422 SV,HAARLEM,NEDERLAND,NL,"41561917,03372",31,5801 BE,SLUIS,NL,Netherlands,06 10653486,,yes,NL
8936,7779,20,7581 AA,HUIZEN,NEDERLAND,NL,"86134986,03372",95,6041 EN,VENRAY,NL,Netherlands,0227 601700,,yes,NL
1307001,7250,9,3764 BH,EINDHOVEN,NEDERLAND,NL,"106020358,03372",49,4271 AE,LAREN,NL,Netherlands,,,yes,NL
3355,11007,70,5388 HE,HOORN,NEDERLAND,NL,"107788528,03372",25,5401 GG,HALFWEG,NL,Netherlands,,,yes,NL
4558001,7822,1,2225 CL,WILNIS,NEDERLAND,NL,"77865749,03372",23,2651 CC,LANDSMEER,NL,Netherlands,,,yes,NL
10873001,528,23,6641 CS,HEERLEN,NEDERLAND,NL,"14994997,03372",39,1165 MK,ALMELO,NL,Netherlands,,071 5616609,yes,NL
10062001,6727,15,1964 LW,ALMERE,NEDERLAND,NL,"94938644,03372",45,3891 EB,HEEMSTEDE,NL,Netherlands,045 5600077,,yes,NL
8783001,10001A,24,2061 GC,HALFWEG,NEDERLAND,NL,"15128777,03372",95,6166 CP,HALFWEG,NL,Netherlands,,,yes,NL
10054001,1652,1,2011 PB,SIEBENGEWALD,NEDERLAND,NL,"76558512,03372",1,4461 JK,ZWOLLE,NL,Netherlands,,,yes,NL
1652001,9268,11,2012 LT,UDEN,NEDERLAND,NL,"369610,03372",1,8501 AS,ST. MICHIELSGESTEL,NL,Netherlands,,,yes,NL
449001,9792,67,2103 VE,ROOSENDAAL,NEDERLAND,NL,"73052832,03372",4,5043 RB,NIJKERK,NL,Netherlands,,,yes,EN
9798001,10218,44,1985 BA,AMEIDE,NEDERLAND,NL,"369208,03372",95,1165 MK,BREDA,NL,Netherlands,,,yes,NL
1062002,5866,1,4811 WR,VEERE,NEDERLAND,NL,"77433128,03372",95,5371 CB,UDENHOUT,NL,Netherlands,,,yes,NL
10247,8785,1,8071 CJ,ASTEN,NEDERLAND,NL,"106435688,03372",3,4921 CT,HALFWEG,NL,Netherlands,0488 481353,,yes,NL
1726001,10218,93,1165 MK,BLEISWIJK,NEDERLAND,NL,"15046856,03372",114,2981 GD,MASSLUIS,NL,Netherlands,,,yes,NL
3085002,4069,29,5321 HL,RIDDERKERK,NEDERLAND,NL,"21930657,03372",67,1165 MK,ROTTERDAM,NL,Netherlands,0223 534411,,yes,NL
4886001,8084,23,7591 DJ,HAARLEM,NEDERLAND,NL,"69807722,03372",80,8801 LD,HALFWEG,NL,Netherlands,078 6137244,,yes,NL
8006,1062,68,2651 CC,BALLUM,NEDERLAND,NL,"371682,03372",3,2011 JD,HALFWEG,NL,Netherlands,,,yes,NL
6539007,1029,36,8331 JG,HAARLEM,NEDERLAND,NL,"370312,03372",24,1381 BB,BREDA,NL,Netherlands,0294 230081,,yes,NL
7826002,10881,166,3764 BH,BERGEN OP ZOOM,NEDERLAND,NL,"38704147,03372",109C,5388 HE,HALFWEG,NL,Netherlands,,,yes,NL
10916001,4985,20,7951 DS,MEERSSEN,NEDERLAND,NL,"57891396,03372",7,7721 CH,EINDHOVEN,NL,Netherlands,0181 403585,,yes,NL
10741001,10907,25,2135 PC,BIGGEKERKE,NEDERLAND,NL,"118251262,03372",235,7701 GK,HEERHUGOWAARD,NL,Netherlands,,,yes,NL
10819001,3283,40,5611 AE,BAKEL,NEDERLAND,NL,"99909488,03372",25,2993 EH,ELBURG,NL,Netherlands,,,yes,NL
9184002,1034,196,2011 EH,DEN HELDER,NEDERLAND,NL,"4553688,03372",21,3738 GK,GELEEN,NL,Netherlands,,,yes,NL
9268,8749,16,3053 GN,BALLUM,NEDERLAND,NL,"6237367,03372",95,9641 JA,DRUNEN,NL,Netherlands,,,yes,NL
8834001,7826,1,3751 AS,OOSTKAPELLE,NEDERLAND,NL,"12217862,03372",95,7411 KG,TIEL,NL,Netherlands,078 6411130,,yes,NL
8336001,100,15,1165 GR,AMSTERDAM,NEDERLAND,NL,"15155092,03372",35,1165 MK,SCHIERMONNIKOOG,NL,Netherlands,0515 230306,,yes,NL
10850001,7616,362,4331 LT,SEVENUM,NEDERLAND,NL,"25021881,03372",20,1165 MK,VROUWENPOLDER,NL,Netherlands,,,yes,NL
11081001,7659,1,3452 MJ,HEYTHUYSEN,NEDERLAND,NL,"118229910,03372",16,5271 AB,AMSTERDAM,NL,Netherlands,,,yes,NL
1029,8783,7,1078 MG,STRAMPROY,NEDERLAND,NL,"112171568,03372",59,6988 CC,DEN BOSCH,NL,Netherlands,,,yes,NL
1179,1726,11,5211 ES,HALFWEG,NEDERLAND,NL,"78827872,03372",7,5831 JH,UTRECHT,NL,Netherlands,,,yes,NL
7250001,6144,363,2242 KK,BEEK,NEDERLAND,NL,"77264528,03372",28,1121 GX,UDENHOUT,NL,Netherlands,,,yes,NL
9050001,10191,20,1165 NK,DEN BOSCH,NEDERLAND,NL,"40529979,03372",50,6431 HG,ALKMAAR,NL,Netherlands,,,yes,NL
10126002,7780,6,1964 LW,TIEL,NEDERLAND,NL,"33100520,03372",207,1562 WD,HEERENVEEN,NL,Netherlands,06 53295298,,yes,NL
1062003,10605,7,7391 HH,EINDHOVEN,NEDERLAND,NL,"15206729,03372",95,9101 ML,OOSTERHOUT,NL,Netherlands,,(078) 699 01 46,yes,NL
2913001,9190,6,9203 CJ,SLUIS,NEDERLAND,NL,"86029266,03372",11,3621 AR,HALFWEG,NL,Netherlands,0412 611288,,yes,NL
9853000,10029,23,2981 GD,HATTEM,NEDERLAND,NL,"83975974,03372",20-22,1019 RB,HAARLEM,NL,Netherlands,,,yes,NL
10927001,8783,25,8401 JC,AMSTERDAM,NEDERLAND,NL,"99456471,03372",36,1165 MK,ALKMAAR,NL,Netherlands,,,yes,NL
10875,1034,15,1161EW,DUSSEN,NEDERLAND,NL,"375738,03372",1,2035 RE,HAARLEM,NL,Netherlands,(010) 522 07 00,,yes,NL
7656000,632,6,4611 HB,DRACHTEN,NEDERLAND,NL,"374602,03372",95,1911 CR,HATTEM,NL,Netherlands,06 41291558,,yes,NL
8225001,3290,1,1165 MK,NIEUW VENNEP,NEDERLAND,NL,"56256245,03372",17,3831 ND,DOETINCHEM,NL,Netherlands,0318 65 64 24,,yes,NL
11007002,10495,95,4811 ZE,VOORTHUIZEN,NEDERLAND,NL,"372278,03372",56,6121 LD,UTRECHT,NL,Netherlands,,,yes,NL
10767,3085,78,6001 EH,WINSCHOTEN,NEDERLAND,NL,"820054,03372",24,4001 LW,ST. MICHIELSGESTEL,NL,Netherlands,0514 602093,,yes,NL
10142001,10204,95,7607 CV,RENESSE,NEDERLAND,NL,"63226519,03372",6,6411 LX,PANNINGEN,NL,Netherlands,,,yes,NL
5721001,10817,6,5246 JR,ALKMAAR,NEDERLAND,NL,"112577238,03372",17,1761 BT,HEYTHUYSEN,NL,Netherlands,,,yes,NL
9047001,2316,10,3341 EB,CASTRICUM,NEDERLAND,NL,"47302775,03372",13,2135 PC,LEKKERKERK,NL,Netherlands,0229 249690,,yes,NL
6727001,10245,16,7141 AL,MAKKUM,NEDERLAND,NL,"588294,03372",2,4811 WR,GORREDIJK,NL,Netherlands,06 29110368,,yes,NL
934001,10883,21,2729 AW,SON EN BREUGEL,NEDERLAND,NL,"106435173,03372",101,9301 AE,WOUW,NL,Netherlands,0548 541514,,yes,NL
1795001,8690,61,1152 XE,WOERDEN,NEDERLAND,NL,"55297211,03372",9,5473 KB,HATTEM,NL,Netherlands,,,yes,NL
8066001,9648,14,7121 DN,TWELLO,NEDERLAND,NL,"15018600,03372",4,6562 AH,HEILOO,NL,Netherlands,0115 561553,,yes,NL
8602,9634,11,2071 EG,HAARLEM,NEDERLAND,NL,"82884688,03372",352,8561 AP,CASTRICUM,NL,Netherlands,(035) 601 24 24,,yes,NL
4558001,10048,38,1165 GT,HILLEGOM,NEDERLAND,NL,"369860,03372",3,1165 MK,ZWANENBURG,NL,Netherlands,,,yes,NL
6177001,8783,6,5527 GB,NIEUWLEUSEN,NEDERLAND,NL,"65193017,03372",77,2801 GD,HALFWEG,NL,Netherlands,,,yes,NL
8971001,10126,7,2104 AB,HALFWEG,NEDERLAND,NL,"369320,03372",11,1165 MK,ZWANENBURG,NL,Netherlands,036 5344592,,yes,NL
8936,8607,32,2011 ZG,ELBURG,NEDERLAND,NL,"372790,03372",31,2411 BM,MAASSLUIS,NL,Netherlands,020 4630204,,yes,NL
7932001,10029,148,2061JB,HAARLEM,NEDERLAND,NL,"33000792,03372",406,5704 RC,AMSTERDAM ZUIDOOST,NL,Netherlands,072 5339441,,yes,NL
8582,4263,1,2981 GD,HALFWEG,NEDERLAND,NL,"370924,03372",19,1165 MK,HALFWEG,NL,Netherlands,,,yes,NL
9770,1138,1,1165 MK,AMSTELVEEN,NEDERLAND,NL,"103111099,03372",94,1165 MK,VALKENSWAARD,NL,Netherlands,,,yes,NL
6539006,900,163,5051 AB,MADE,NEDERLAND,NL,"63226783,03372",15,2651 CC,,NL,Netherlands,0111 484038,,yes,NL
9877,10201,95,6811 EX,BALK,NEDERLAND,NL,"63226807,03372",64,9411 KN,EELDE,NL,Netherlands,0162 682386,,yes,NL
7659001,10053,3,1852 CG,HATTEM,NEDERLAND,NL,"372926,03372",4,7711 AA,BOLSWARD,NL,Netherlands,0416 333103,,yes,NL
8783001,9412,89,5691 AS,HEILOO,NEDERLAND,NL,"13116368,03372",2,1165 MK,TILBURG,NL,Netherlands,,,yes,NL
10605,10695,31,3144 BA,WIJK AAN ZEE,NEDERLAND,NL,"96687405,03372",95,6419 BD,WOERDEN,NL,Netherlands,06 22829002,,yes,NL
8422004,839,5,1421 SB,PEIZE,NEDERLAND,NL,"62953464,03372",22,4901 LK,NUENEN,NL,Netherlands,,,yes,NL
10205,10054,1,6411 LA,HAARLEM,NEDERLAND,NL,"20276688,03372",95,7101 NS,SEVENUM,NL,Netherlands,,,yes,NL
9327001,11077,96,2411 BM,WILNIS,NEDERLAND,NL,"548914,03372",25,8302 EC,GRAVE,NL,Netherlands,030 2304949,,yes,NL
10875,10216,2,6191 JK,WIJK AAN ZEE,NEDERLAND,NL,"60872089,03372",95,2611 CL,DE BILT,NL,Netherlands,010 5217505,035 5316338,yes,NL
9799,2102,2,6711 AB,AXEL,NEDERLAND,NL,"66955579,03372",2,1165 MK,ARNHEM,NL,"Bonaire, St Eustatius and Saba",,,yes,NL
10201,1795,61,6161 EG,HAARLEM,NEDERLAND,NL,"77264539,03372",58,3882 LJ,GELEEN,NL,Netherlands,0346 211711,,yes,NL
10048001,9283,95,5071 KG,MIDDENMEER,NEDERLAND,NL,"105210199,03372",77,6369 AJ,DOESBURG,NL,Netherlands,,029 4265418,yes,NL
8785001,8740,1,4614 PM,VAASSEN,NEDERLAND,NL,"15027327,03372",21,8561 AP,ERMELO,NL,Netherlands,,,yes,NL
9289001,10767,2,3764 BH,SOEST,NEDERLAND,NL,"6664892,03372",25,7622 LA,BAVEL,NL,Netherlands,06 43278775,,yes,NL
9078,9359,7,3751 AS,HAARLEM,NEDERLAND,NL,"77864642,03372",4,1165 MK,GELEEN,NL,Netherlands,,,yes,NL
3373001,10213,43,9203 CJ,FRANEKER,NEDERLAND,NL,"67879888,03372",9,4233 EP,BOXMEER,NL,Netherlands,,,yes,NL
10955001,839,57,1181 XW,NISTELRODE,NEDERLAND,NL,"15018872,03372",37,2991 CS,JOURE,NL,Netherlands,,,yes,NL
640005,10063,13,8011 TH,HEERLEN,NEDERLAND,NL,"105441785,03372",68,7721 CH,MAARSSENBROEK,NL,Netherlands,,,yes,NL
839001,8727,95,1165 MK,AALSMEER,NEDERLAND,NL,"15075800,03372",3,1165 MK,HAARLEM,NL,Netherlands,,,yes,NL
8826001,3085,57,4461 JP,DRACHTEN,NEDERLAND,NL,"82098482,03372",23,8302 EA,ROCKANJE,NL,Netherlands,0313 651226,,yes,NL
5080001,1025,1,1053 KZ,HALFWEG,NEDERLAND,NL,"82098392,03372",211,3811 KH,WIERDEN,NL,Netherlands,,,yes,NL
7274001,4690,166,9203 CJ,DRIEBERGEN-RIJSENBURG,NEDERLAND,NL,"112908579,03372",61,2012 LT,BERGEN OP ZOOM,NL,Netherlands,,,yes,NL
5245001,10743,2,1161 CW,AMSTELVEEN,NEDERLAND,NL,"46378153,03372",61,1185 EL,ALPHEN AAN DEN RIJN,NL,Netherlands,,,yes,NL
9050001,9213,37,3891 EB,SPIJKENISSE,NEDERLAND,NL,"105217828,03372",78,1161 SG,GOIRLE,NL,Netherlands,0186 652036,,yes,NL
10045,10050,95,1771 AC,BARENDRECHT,NEDERLAND,NL,"101094611,03372",362,2912 BC,NIEUWE NIEDORP,NL,Netherlands,0475 496465,,yes,NL
10246,5559,4,4841 AA,LICHTENVOORDE,NEDERLAND,NL,"30203298,03372",61,6161 EG,BARNEVELD,NL,Netherlands,,(026) 325 37 51,yes,NL
4147001,1817,26,7622 LA,ALMERE,NEDERLAND,NL,"15013357,03372",21,2104 AB,VORDEN,NL,Netherlands,,,yes,NL
3334001,6919,11,3453 TK,HEEMSKERK,NEDERLAND,NL,"4199517,03372",23,1431 EE,ZUID-BEIJERLAND,NL,Netherlands,,,yes,NL
8102001,7845,5,6711 AB,STEENWIJK,NEDERLAND,NL,"103346308,03372",5,7001 BC,OOTMARSUM,NL,Netherlands,,,yes,NL
640004,8874,56,2101 JK,ZWANENBURG,NEDERLAND,NL,"56722709,03372",15,2242 KK,GROOTEGAST,NL,Netherlands,0318 501909,,yes,NL
4263001,839,40,1152 XE,RIDDERKERK,NEDERLAND,NL,"22051631,03372",37,4201 JP,AALSMEER,NL,Netherlands,,,yes,NL
1405001,3014,20,2011 BG,DRACHTEN,NEDERLAND,NL,"374322,03372",12,8162 AB,ARNHEM,NL,Netherlands,,,yes,NL
839000,670,1,2011 HZ,TWELLO,NEDERLAND,NL,"43032701,03372",36,1077 ES,AMSTELVEEN,NL,Netherlands,074 2666273,,yes,NL
3824001,1034,28,3901 AT,VEENENDAAL,NEDERLAND,NL,"59152355,03372",68,1315 HS,ZWOLLE,NL,Netherlands,,,yes,NL
10009,1722,15,9321 VW,HAARLEM,NEDERLAND,NL,"83803604,03372",2,3332 EH,IJSSELSTEIN,NL,Netherlands,077 3985545,,yes,NL
670,10579,41,1131 ZD,LEMMER,NEDERLAND,NL,"73614437,03372",105,8531 HT,HALFWEG,NL,Netherlands,,,yes,NL
5186,10866,26,5071 CC,EDE,NEDERLAND,NL,"20505313,03372",91,5615 HD,HALFWEG,NL,Netherlands,0571 261755,,yes,NL
1034000,7676,61-63,5975 BH,ALBLASSERDAM,NEDERLAND,NL,"47302885,03372",30,1771 HC,ROOSENDAAL,NL,Netherlands,,,yes,NL
7779005,11176,31,2181 JG,HAARLEM,NEDERLAND,NL,"9959961,03372",137,1165 MK,HALFWEG,NL,Netherlands,,,yes,NL
10874,9791,6,9641 JA,UITGEEST,NEDERLAND,NL,"107266421,03372",23,5344 AL,DOORN,NL,Netherlands,,,yes,NL
1034001,10835,67,8881 BK,AMSTERDAM,NEDERLAND,NL,"15157413,03372",95,5531 EL,HALFWEG,NL,Netherlands,,,yes,NL
8874001,8132,36,1961 NW,OSS,NEDERLAND,NL,"6368446,03372",76,1171 GP,EMMELOORD,NL,Netherlands,621401904,,yes,NL
3736001,9640,7,1161 DL,SOEST,NEDERLAND,NL,"94938769,03372",141,6662 DK,HALFWEG,NL,Netherlands,,,yes,NL
10275,6176,73,2611 CL,BRUINISSE,NEDERLAND,NL,"369016,03372",6,4761 CS,VUGHT,NL,Netherlands,,,yes,NL
6596001,9079,3,4706 LB,HUIZEN,NEDERLAND,NL,"82669205,03372",13,3751 BT,DRIEHUIS,NL,Netherlands,,,yes,NL
10557001,10601,15,6093 EZ,UITHOORN,NEDERLAND,NL,"94596647,03372",207,5071 KG,ZEIST,NL,Netherlands,,,yes,NL
10834,2913,211,2035 RE,OEGSTGEEST,NEDERLAND,NL,"17957352,03372",144,8081 EB,WEESP,NL,Netherlands,,,yes,NL
1138001,10596,51,4651 BM,DEURNE,NEDERLAND,NL,"372684,03372",202,2013 PE,HARDINXVELD-GIESSENDAM,NL,Netherlands,013 5369313,,yes,NL
10599001,4147,64,5801 BE,OEGSTGEEST,NEDERLAND,NL,"99456488,03372",9,4921 BE,DEDEMSVAART,NL,Netherlands,,,yes,NL
1795001,7867,6,5721 HB,KROMMENIE,NEDERLAND,NL,"8816614,03372",32,1165 MK,ALKMAAR,NL,Netherlands,,,yes,NL
10767,6953,95,8281 BG,EERBEEK,NEDERLAND,NL,"20314957,03372",73,3361 BJ,ANNA PAULOWNA,NL,Netherlands,,,yes,NL
3478001,5851,6,7411 KG,OOSTERHOUT,NEDERLAND,NL,"58943480,03372",95,6701 DE,HALFWEG,NL,Netherlands,06 819 12 822,,yes,NL
8797001,3085,16,7642 AK,VELSERBROEK,NEDERLAND,NL,"101665265,03372",34,4611 PD,BRUINISSE,NL,Netherlands,,,yes,NL
10288001,10906,6,8701 KB,BERGEN OP ZOOM,NEDERLAND,NL,"15017063,03372",15,1811 NB,ZWOLLE,NL,Netherlands,,,yes,NL
9195001,5196,36,1165 MK,HUIZEN,NEDERLAND,NL,"19818729,03372",95,2023 TT,AMSTERDAM,NL,Netherlands,,,yes,NL
10690001,10599,2,2012 ZC,KLAASWAAL,NEDERLAND,NL,"60898698,03372",23,6881 TC,HEERLEN,NL,Netherlands,0525 684729,,yes,NL
8607001,9420,31,4571 LB,SCHAIJK,NEDERLAND,NL,"51861874,03372",30,5361 EX,UDEN,NL,Netherlands,,,yes,NL
7819001,7838,95,5961 LL,HALFWEG,NEDERLAND,NL,"371948,03372",2,1613 LA,ASSEN,NL,Netherlands,,,yes,NL
11176,1441,56,7391 HH,GRONINGEN,NEDERLAND,NL,"34442267,03372",15,5145 NS,MEERSSEN,NL,Netherlands,,,yes,NL
10001003,1034,1,5211 ES,ECHT,NEDERLAND,NL,"65143711,03372",95,2861 AN,BORNE,NL,Netherlands,,,yes,NL
1897001,10130,24,4904 AV,JOURE,NEDERLAND,NL,"37522825,03372",33,4651 BM,NUMANSDORP,NL,Netherlands,,,yes,NL
10214,9589,130,7101 NS,HALFWEG,NEDERLAND,NL,"8077324,03372",25,1965 SV,ALKMAAR,NL,Netherlands,,,yes,NL
9853000,8783,19,5151 JH,VAALS,NEDERLAND,NL,"27650933,03372",16,7891 AH,OOSTERHOUT,NL,Netherlands,,,yes,NL
10866,7656,9,2104 AB,MIJDRECHT,NEDERLAND,NL,"35593055,03372",95,1165 MK,HALFWEG,NL,Netherlands,,,yes,NL
7845003,10909,29,3738 GK,HEEMSTEDE,NEDERLAND,NL,"4466792,03372",2,6811 EX,HALFWEG,NL,Netherlands,034 1552617,,yes,NL
9640001,10031,14,2912 BC,DRIEHUIS,NEDERLAND,NL,"375924,03372",,5571CB,TERNEUZEN,NL,Netherlands,,,yes,NL
4219003,10206,1,1823 WE,ZOETERMEER,NEDERLAND,NL,"374466,03372",23,1165 MK,DALFSEN,NL,Netherlands,,,yes,NL
1034004,8523,22,5344 AL,ZWOLLE,NEDERLAND,NL,"96174365,03372",95,3441 BN,LEEUWARDEN,NL,Netherlands,,,yes,NL
1441001,8797,207,2023 EK,ZELHEM,NEDERLAND,NL,"34449994,03372",147,4511 AP,BOEKEL,NL,Netherlands,0172 533546,,yes,NL
7125001,10558,27,7634 PP,SANTPOORT NOORD,NEDERLAND,NL,"15018894,03372",54,9408 MH,OEGSTGEEST,NL,Netherlands,,0118 502106,yes,NL
10247,10050,12,6921 BB,SIMPELVELD,NEDERLAND,NL,"59222742,03372",123,1016 GH,VAASSEN,NL,Netherlands,0575 551381,,yes,NL
7559001,5721,12,1161 CW,HALFWEG,NEDERLAND,NL,"47805698,03372",20,1404 EM,SCHIERMONNIKOOG,NL,Netherlands,023 5845158,,yes,NL
8740003,9102,2,6658 CW,ELST,NEDERLAND,NL,"112678314,03372",1,1165 MK,HALFWEG,NL,Netherlands,0515 414873,,yes,NL
10213,4276,49,5615 HD,LOSSER,NEDERLAND,NL,"372988,03372",43,1165 MK,HALFWEG,NL,Netherlands,06 52321115,,yes,NL
8468001,1795,406,3361 BJ,DEN HAAG,NEDERLAND,NL,"373396,03372",2,6161 EG,BERKEL EN RODENRIJS,NL,Netherlands,0475 311920,,yes,NL
7250001,10028,95,8911 DL,VEENDAM,NEDERLAND,NL,"41048870,03372",54,1191 NZ,DOKKUM,NL,Netherlands,0571 280506,,yes,NL
8783002,4303,36,2035 RE,AMSTERDAM,NEDERLAND,NL,"103111145,03372",14,7571 BC,HILLEGOM,NL,Netherlands,06 13184311,,yes,NL
10245,8135,24,2013 PE,ETTEN LEUR,NEDERLAND,NL,"73813672,03372",2,4904 AV,LEMELERVELD,NL,Netherlands,071 5174078,,yes,NL
4786001,7592,93,3511 PR,OUD BEIJERLAND,NEDERLAND,NL,"50491958,03372",28,7607 CV,STEENBERGEN,NL,Netherlands,06 13185058,,yes,NL
8039001,8014,96,1315 HS,ST. MICHIELSGESTEL,NEDERLAND,NL,"104548844,03372",15,7141 AL,DELFT,NL,Netherlands,076 5205708,,yes,NL
9259001,11040,54,1165 MK,AMSTERDAM,NEDERLAND,NL,"96679028,03372",10,1741 EJ,HEILOO,NL,Netherlands,0572 391290,,yes,NL
10053001,10048,5,7571 EJ,DEN HAAG,NEDERLAND,NL,"73081183,03372",65,4461 JP,BALLUM,NL,Netherlands,,,yes,NL
10191001,8790,1,3642 BJ,KATWIJK,NEDERLAND,NL,"105209717,03372",38,7271 AS,ROTTERDAM,NL,Netherlands,,,yes,NL
3892001,4690,36,4614 PM,EINDHOVEN,NEDERLAND,NL,"107361102,03372",95,3841 CP,BUNSCHOTEN-SPAKENBURG,NL,Netherlands,,,yes,NL
5721002,10010,211,5374 BJ,HEERHUGOWAARD,NEDERLAND,NL,"32507381,03372",95,8121 BK,AMSTERDAM,NL,Netherlands,,,yes,NL
4219000,8067,21,8167 PD,HAARLEM,NEDERLAND,NL,"85892187,03372",95,5616 GW,HELMOND,NL,Netherlands,,0488 482827,yes,NL
6465001,7676,25,5261 EB,NOORDWIJK,NEDERLAND,NL,"77073207,03372",41,6101 EK,RODEN,NL,Netherlands,06-40140600,,yes,NL
10879,8225,2,7443 BD,APELDOORN,NEDERLAND,NL,"2874113,03372",136,1165 MK,CULEMBORG,NL,Netherlands,035 526 66 51,,yes,NL
6439001,10812,6,3141 AA,AMSTERDAM,NEDERLAND,NL,"15734183,03372",120,2151 GD,BUSSUM,NL,Netherlands,,,yes,NL
9938,1392,82,8531 HT,ROTTERDAM,NEDERLAND,NL,"15013294,03372",34,3311 CW,HEESWIJK-DINTHER,NL,Netherlands,,,yes,NL
10204,1726,20,2014 HL,BLOEMENDAAL,NEDERLAND,NL,"41457316,03372",7,8442 BL,RENESSE,NL,Netherlands,,,yes,NL
1025,10246,11,1165 MK,AMSTELVEEN,NEDERLAND,NL,"677831,03372",163,6961 DR,VEENENDAAL,NL,Netherlands,,,yes,NL
10027001,11098,31,8152 CB,DORDRECHT,NEDERLAND,NL,"80020298,03372",2,3731 JH,HUIZEN,NL,Netherlands,045 8508600,,yes,NL
10818001,8723,7,1315 HS,PRINSENBEEK,NEDERLAND,NL,"47300930,03372",95,1791 AD,HALFWEG,NL,Netherlands,045 5314029,,yes,NL
8690001,9110,11,1985 BA,LICHTENVOORDE,NEDERLAND,NL,"71534796,03372",86,4614 PM,EDE,NL,Netherlands,,,yes,NL
7592002,10205,8,1825 SV,BEST,NEDERLAND,NL,"46349865,03372",59,1398 BL,WAALRE,NL,Netherlands,034 2421400,,yes,NL
1024000,10183,33,5691 AS,ZOETERMEER,NEDERLAND,NL,"14994759,03372",1,1051 JB,DEN HAAG,NL,Netherlands,0114-313946,,yes,NL
9190001,449B,33,7475 AX,WAALRE,NEDERLAND,NL,"1511834,03372",6,4351 AA,VOORTHUIZEN,NL,Netherlands,,,yes,NL
11076001,11176,13,1611 AN,HAARLEM,NEDERLAND,NL,"20977357,03372",41,1211 CL,ROOSENDAAL,NL,Netherlands,013 5220016,,yes,NL
7592001,8698,32,2011 WH,HAARLEM,NEDERLAND,NL,"58694865,03372",33,8071 CJ,HALFWEG,NL,Netherlands,,,yes,EN
10501002,4886,9,6419 BD,RIDDERKERK,NEDERLAND,NL,"369944,03372",28,9861 AD,BERGSCHENHOEK,NL,Netherlands,0578 641226,,yes,NL
9589001,10031,77,2014 HL,OOSTERHOUT,NEDERLAND,NL,"53847213,03372",26,1165 MK,DALFSEN,NL,Netherlands,06 57886442,,yes,NL
8783004,8118,363,1058 EC,LANDSMEER,NEDERLAND,NL,"78284548,03372",63,1165 MK,SANTPOORT NOORD,NL,Netherlands,,,yes,NL
9648001,7656,2,1181 WS,HEEMSTEDE,NEDERLAND,NL,"77952752,03372",328,8442 BL,DRACHTEN,NL,Netherlands,,,yes,NL
8832001,839,9,1911 TP,HALFWEG,NEDERLAND,NL,"70957996,03372",36,5211 HR,VLAARDINGEN,NL,Netherlands,,,yes,NL
9876,4080,37,5684 VL,HALFWEG,NEDERLAND,NL,"107023436,03372",80,4325 AB,BOXMEER,NL,Netherlands,0348 416601,,yes,NL
10877001,1034,35,2661 DB,EPE,NEDERLAND,NL,"2674078,03372",1197,2181 JG,HAARLEM,NL,Netherlands,,,yes,NL
10035001,10204,9,5271 AB,HAARLEM,NEDERLAND,NL,"103346236,03372",4,1165 MK,HEEZE,NL,Netherlands,06-53482813,,yes,NL
7110001,7110,45,8051 GJ,VALKENSWAARD,NEDERLAND,NL,"101665251,03372",51,2341 GE,ZWOLLE,NL,Netherlands,,,yes,NL
7616000,6600,4,6961 DR,OUDDORP,NEDERLAND,NL,"67879011,03372",86,4191 BC,DONGEN,NL,Netherlands,0592 316773,,yes,NL
10010,10217,1,3131 CM,HAARLEM,NEDERLAND,NL,"29461557,03372",17,9761 LR,EINDHOVEN,NL,Netherlands,0174 212426,,yes,NL
10249001,7659,11,1185 EL,BODEGRAVEN,NEDERLAND,NL,"56997893,03372",43,1152 XE,OUD-BEIJERLAND,NL,Netherlands,038 4669277,,yes,NL
7245,2265,99,1823 WE,HEEZE,NEDERLAND,NL,"45407254,03372",14,1161 CP,GOUDA,NL,Netherlands,0182 358110,,yes,NL
7617000,10690,59,1103 BK,GROOTEGAST,NEDERLAND,NL,"44375346,03372",8,3605 KA,BRESKENS,NL,Netherlands,020 4976066,,yes,NL
10054001,10925,24,2651 CC,AMSTERDAM ZUIDOOST,NEDERLAND,NL,"28872834,03372",57,1161 SR,HEERENVEEN,NL,Netherlands,0294 430637,,yes,NL
10275,4219,58,5853 AN,SPIJKENISSE,NEDERLAND,NL,"2874112,03372",95,2225 CL,STIENS,NL,Netherlands,,,yes,NL
9333001,7245,8,1441 AT,BERGSCHENHOEK,NEDERLAND,NL,"104279908,03372",24,3284 AN,UITHOORN,NL,Netherlands,,,yes,NL
10048001,8498,144,2991 CS,HEYTHUYSEN,NEDERLAND,NL,"15018362,03372",42,1072 NZ,VOORSCHOTEN,NL,Netherlands,RAFENMARGOT@UPCMAIL.NL,,yes,NL
11188001,640G,3,6231 LH,SOEST,NEDERLAND,NL,"733023,03372",29,2671 GC,NOOTDORP,NL,Netherlands,0180 664252,0118 502106,yes,NL
7615,3373,9,8245 GE,KROMMENIE,NEDERLAND,NL,"92262690,03372",126,3161 KA,NIEUWKUIJK,NL,Netherlands,033 4229111,0348 407789,yes,NL
1300001,8832,141,7201 KE,MIDDELBURG,NEDERLAND,NL,"106117115,03372",17,2011 HR,HALFWEG,NL,Netherlands,,,yes,NL
5113001,9889,28,3764 BH,WINTERSWIJK,NEDERLAND,NL,"18339811,03372",79,5571 CA,HALFWEG,NL,Netherlands,,,yes,NL
1585001,10875,90,6093 CR,OUD BEIJERLAND,NEDERLAND,NL,"74017702,03372",8,8043 LR,HEEMSTEDE,NL,Netherlands,,,yes,NL
10050001,7592,2,7957 AW,HAARLEM,NEDERLAND,NL,"468032,03372",19,1161 JJ,HALFWEG,NL,Netherlands,0164 234800,,yes,NL
7110001,10877,11,3453 NT,APELDOORN,NEDERLAND,NL,"47094261,03372",17,9269 VB,HALFWEG,NL,Netherlands,,,yes,NL
8351002,1179,7,3831 ND,RHOON,NEDERLAND,NL,"15012919,03372",76,3512 GB,BERGAMBACHT,NL,Netherlands,,,yes,NL
7866001,8336,2,1161 DL,EDAM,NEDERLAND,NL,"17557766,03372",49,5504 BD,HORST,NL,Netherlands,,,yes,NL
7838001,6877,2,1165 MK,LELYSTAD,NEDERLAND,NL,"35593402,03372",32,1161 CW,BALLUM,NL,Netherlands,,,yes,NL
7616000,10207,25,2013 AW,ROSMALEN,NEDERLAND,NL,"60899845,03372",210,1165 MK,GOES,NL,Netherlands,,(010) 522 05 86,yes,NL
403001,10050,2,1078 MG,ZWANENBURG,NEDERLAND,NL,"54196859,03372",95,1135 AT,HALFWEG,NL,Netherlands,06 54710798,,yes,NL
4757001,8749,165,2492 JR,HALFWEG,NEDERLAND,NL,"96491198,03372",95,1165 MK,GROESBEEK,NL,Netherlands,0593 525030,,yes,NL
10558,8132,2,5344 AL,TWELLO,NEDERLAND,NL,"26841046,03372",2,3067 TR,HALFWEG,NL,Netherlands,,,yes,NL
1637001,8783,46,3958 EB,AMSTERDAM,NEDERLAND,NL,"108455915,03372",24,2014 HL,HENDRIK IDO AMBACHT,NL,Netherlands,,,yes,NL
10779001,10925,29,5527 GB,CUIJK,NEDERLAND,NL,"65693174,03372",51,3452 MJ,DRIEBERGEN-RIJSENBURG,NL,Netherlands,,,yes,NL
839000,5870,23,2341 GE,BERGAMBACHT,NEDERLAND,NL,"108350789,03372",95,3771 BE,MIDDENMEER,NL,Netherlands,,,yes,NL
8826001,10044,49,2106 DH,DEN BOSCH,NEDERLAND,NL,"106117058,03372",32,1315 TS,HALFWEG,NL,Netherlands,,,yes,NL
10743001,1795,38,1733 AB,HATTEM,NEDERLAND,NL,"103475608,03372",50,7391 HH,HALFWEG,NL,Netherlands,038 4445549,,yes,NL
1817001,8132,17,6291 EL,BREUKELEN,NEDERLAND,NL,"86833550,03372",6,4351 BG,MALDEN,NL,Netherlands,,,yes,NL
10871,9589,1,1161 DE,DE MEERN,NEDERLAND,NL,"101120271,03372",99,,SLUIS,NL,Netherlands,0486 411490,010 5117675,yes,NL
10053002,4431,15,4854 LG,HELDEN,NEDERLAND,NL,"371472,03372",10,3761 CD,SANTPOORT NOORD,NL,Netherlands,,,yes,NL
1034003,9191,95,5611 JV,KRIMPEN AAN DE LEK,NEDERLAND,NL,"15016389,03372",7,3381 AG,HALFWEG,NL,Netherlands,,,yes,NL
10982001,10001A,79,1422 SV,ZWANENBURG,NEDERLAND,NL,"59222673,03372",23,2991 CC,BEUNINGEN,NL,Netherlands,023 5326900,,yes,NL
9191004,8493,2,2861 AN,OLDENZAAL,NEDERLAND,NL,"49456834,03372",15,6602 AL,DEVENTER,NL,Netherlands,020 4976066,,yes,NL
9792002,9050,44,2013 PR,KROMMENIE,NEDERLAND,NL,"55973005,03372",9,8081 CX,HEYTHUYSEN,NL,Netherlands,0544 465374,,yes,NL
9421001,449B,1,2554 GG,UITGEEST,NEDERLAND,NL,"102606133,03372",23,4381 GD,STEENWIJK,NL,Netherlands,06-33962848,,yes,NL
1724001,1034,224,7631 EW,HUIZEN,NEDERLAND,NL,"106265309,03372",3,5171 DE,LATHUM,NL,Netherlands,06-24164240,,yes,NL
5851001,7659,18,1277 ES,AMSTELVEEN,NEDERLAND,NL,"482295,03372",8,8051 GJ,ENSCHEDE,NL,Netherlands,06 50208933,,yes,NL
10928001,9425,409,1051 JB,DE MEERN,NEDERLAND,NL,"35593446,03372",63,6301 DW,BUNSCHOTEN-SPAKENBURG,NL,Netherlands,,,yes,NL
2153001,10244,11,6166 CP,NIJKERK,NEDERLAND,NL,"99457168,03372",9,1165 MK,BORN,NL,Netherlands,,,yes,NL
9420001,9634,1,2801 GD,BEILEN,NEDERLAND,NL,"58694870,03372",10,5961 GD,ENTER,NL,Netherlands,0529 200200,,yes,NL
10883,11076,96,5975 BH,LEIDEN,NEDERLAND,NL,"69734197,03372",161,5673 PJ,KERKRADE,NL,Netherlands,,,yes,NL
3592001,9880,41,9751 AS,TWELLO,NEDERLAND,NL,"41435758,03372",8,7131 DG,HAARLEM,NL,Netherlands,,,yes,NL
9191001,10871,1,6041 HB,OUDERKERK AAN DE AMSTEL,NEDERLAND,NL,"92591159,03372",89,5554 HN,AMSTERDAM,NL,Netherlands,,,yes,NL
4985001,7235,12,5944 AH,STIENS,NEDERLAND,NL,"108068259,03372",32,8043 LR,HALFWEG,NL,Netherlands,0499 32 38 92,,yes,NL
6439001,11080,91,1965 SV,BREDA,NEDERLAND,NL,"96902242,03372",1,2565 CW,HALFWEG,NL,Netherlands,0571 261755,,yes,NL
10001001,839,8,5427 BB,HALFWEG,NEDERLAND,NL,"377104,03372",95,6658 CW,UITGEEST,NL,Netherlands,,,yes,NL
9075001,8828,4,3781 GA,BRESKENS,NEDERLAND,NL,"15026948,03372",16,6291 EL,HALFWEG,NL,Netherlands,0115 697323,,yes,DE
632001,6539,25,1165 NK,TILBURG,NEDERLAND,NL,"80027340,03372",120,2061JB,ALMERE,NL,Netherlands,026 3179901,,yes,NL
7779004,6596,20,8911 DL,VELDHOVEN,NEDERLAND,NL,"40886790,03372",196,6811 EM,VEERE,NL,Netherlands,036 5222667,,yes,NL
8135001,10840,178,5461 JC,OENE,NEDERLAND,NL,"8895538,03372",11,4611 HB,EINDHOVEN,NL,Netherlands,,,yes,NL
11009001,8276,95,1432 NG,VLEUTEN,NEDERLAND,NL,"15018348,03372",2,7121 DN,BREUKELEN,NL,Netherlands,033 4946560,,yes,NL
9998,10982,37,2665 BH,DOMBURG,NEDERLAND,NL,"16139273,03372",58,2584 BL,Putten,NL,Netherlands,,,yes,NL
6420001,10927,10,1181 WS,BALK,NEDERLAND,NL,"105137853,03372",5,2201AW,RIJSSEN,NL,Netherlands,0570 200300,,yes,NL
10563001,10275,69,7571 BC,ZWANENBURG,NEDERLAND,NL,"15095792,03372",3,6581 BW,EPE,NL,Netherlands,,,yes,NL
8248001,8039,32,1165 MK,VEGHEL,NEDERLAND,NL,"78172238,03372",62,1775 PV,HALFWEG,NL,Netherlands,020 2050661,,yes,NL
10053002,2180,4,5211 ES,WORMERVEER,NEDERLAND,NL,"85865786,03372",2,1165 MK,GELEEN,NL,Netherlands,053 5360543,,yes,NL
8493001,8754,17,3401 CW,VLAARDINGEN,NEDERLAND,NL,"468607,03372",95,2631 RJ,HALFWEG,NL,Netherlands,,,yes,NL
8783001,7617,32,4524 DA,ARCEN,NEDERLAND,NL,"15017705,03372",17,5015 BE,RHOON,NL,Netherlands,020 4976066,0165 527338,yes,NL
9680001,8838,18,8051 GJ,DEN HAAG,NEDERLAND,NL,"372214,03372",2,4351 AA,ROTTERDAM,NL,Netherlands,072 562 08 58,,yes,NL
1034000,8336,59,2211EK,DRIEHUIS,NEDERLAND,NL,"15018659,03372",122,6211 GM,HEERLEN,NL,Netherlands,070 3554780,,yes,NL
8945001,10027,67,1161 CP,HOOFDDORP,NEDERLAND,NL,"27885730,03372",1,1053 GM,HILVERSUM,NL,Netherlands,,,yes,NL
8084001,10884,174,1165 MK,EINDHOVEN,NEDERLAND,NL,"38449749,03372",95,8251 KD,BARNEVELD,NL,Netherlands,070 3477445,,yes,NL
10834,9634,12,8271 BK,HUIZEN,NEDERLAND,NL,"82036877,03372",95,1165 MK,DOETINCHEM,NL,Netherlands,,,yes,NL
9268,9791,61-63,1161 CP,HALFWEG,NEDERLAND,NL,"376348,03372",29,3648 KR,Zwolle,NL,Netherlands,040 2221252,,yes,NL
6176001,9321,7,6971 BP,BERGEN OP ZOOM,NEDERLAND,NL,"24428174,03372",35,5845 BD,GEMERT,NL,Netherlands,0180 613665,,yes,NL
7779002,11028,17,1161 JJ,RAALTE,NEDERLAND,NL,"82097642,03372",86,2182 DJ,MALDEN,NL,Netherlands,0591 649985,,yes,NL
8290001,2316,25,2031 BH,HEYTHUYSEN,NEDERLAND,NL,"107423140,03372",95,5704 RC,HAARLEM,NL,Netherlands,0251-244346,,yes,NL
9880000,10844,10,2671 HZ,ZWANENBURG,NEDERLAND,NL,"76739583,03372",16,9722 AG,BEVERWIJK,NL,Netherlands,,,yes,NL
9203001,2015,3,3453 TK,DRONTEN,NEDERLAND,NL,"17844788,03372",174,5011 LP,HAARLEM,NL,Netherlands,,,yes,NL
6680001,8290,1,7391 HH,TWELLO,NEDERLAND,NL,"46970617,03372",3,2807 GZ,HALFWEG,NL,Netherlands,,,yes,NL
8727001,8604,120,2202 EV,DEN HAAG,NEDERLAND,NL,"99181130,03372",16,7391 DE,HALFWEG,NL,Netherlands,,,yes,NL
10206001,7617,10,2011 JD,VINKEVEEN,NEDERLAND,NL,"83747782,03372",2,6001 EH,DEN HAAG,NL,Netherlands,,,yes,NL
839004,1627,50,8152 CB,AMERONGEN,NEDERLAND,NL,"65155781,03372",82,3762 EC,HALFWEG,NL,Netherlands,,,yes,NL
9194,839,77,1781 GD,EDE,NEDERLAND,NL,"15075835,03372",1,8011 TD,OUDEWATER,NL,Netherlands,06 53638688,,yes,NL
99901,10741,27,4351 BG,BUNSCHOTEN-SPAKENBURG,NEDERLAND,NL,"15012823,03372",31,1165 MK,HALFWEG,NL,Netherlands,0252 221404,(035) 603 71 45,yes,NL
1062001,900,2,2023 TT,HALFWEG,NEDERLAND,NL,"50492664,03372",32,5721 HB,HALFWEG,NL,Netherlands,,,yes,NL
1034000,7617,45,1949 CW,ZEEWOLDE,NEDERLAND,NL,"660266,03372",25,3743 EX,HELLEVOETSLUIS,NL,Netherlands,,,yes,NL
4414001,10573,2,1165 MK,STAPHORST,NEDERLAND,NL,"20276720,03372",2,2101 JK,HAARLEM,NL,Netherlands,,,yes,NL
1726001,6727,15,5473 KB,VLAARDINGEN,NEDERLAND,NL,"82036860,03372",24,3648 HC,DUIVEN,NL,Netherlands,,,yes,NL
10906001,2259,17,9203 CJ,HULST,NEDERLAND,NL,"105771873,03372",33,7957 AW,ZWANENBURG,NL,Netherlands,0294 26 43 44,,yes,NL
9275001,99903,28,1791 AD,BEVERWIJK,NEDERLAND,NL,"35593406,03372",6,4311 AN,HAARLEM,NL,Netherlands,076 5310080,,yes,NL
5870001,8281,6,1277 ES,VAALS,NEDERLAND,NL,"6630636,03372",3,4731 JA,HARDERWIJK,NL,Netherlands,,,yes,NL
8740002,10913,49,7311 LZ,ALMELO,NEDERLAND,NL,"377170,03372",9,9671 PH,AMERSFOORT,NL,Netherlands,,,yes,NL
9890001,9289,9,1161 CP,GROESBEEK,NEDERLAND,NL,"375776,03372",95,4611 TS,"TEXEL , DEN BURG",NL,Netherlands,0162 466631,015 2130827,yes,NL
11078001,9075,1,2014 JA,EINDHOVEN,NEDERLAND,NL,"96363293,03372",95,1949 CW,BERGEN OP ZOOM,NL,Netherlands,033 4229111,,yes,NL
9634,7125,235,3453 TK,LANDGRAAF,NEDERLAND,NL,"103476256,03372",203,4873 BJ,LAREN,NL,Netherlands,0543 51 21 85,,yes,NL
8874001,7250,2,4356 AH,HAARLEM,NEDERLAND,NL,"36789564,03372",15,1251 LA,HILVERSUM,NL,Netherlands,,,yes,NL
9412,10883,19,1165 MK,SIEBENGEWALD,NEDERLAND,NL,"15018373,03372",29,3512 GS,RHENEN,NL,Netherlands,0222 321673,,yes,NL
1029,10037,7,4873 AC,GORINCHEM,NEDERLAND,NL,"12731563,03372",95,7683 BD,MIDDELBURG,NL,Netherlands,,,yes,NL
6596001,6539,11,5853 AN,MAASSLUIS,NEDERLAND,NL,"373800,03372",12,1098 AC,SOEST,NL,Netherlands,0180 620991,,yes,NL
9555001,10244,8,7722 RV,GELEEN,NEDERLAND,NL,"67878997,03372",96,9751 AS,SLUIS,NL,Netherlands,0299 713001,,yes,NL
10501001,10063,3,3235 AG,BALLUM,NEDERLAND,NL,"68929845,03372",72,2312 DR,MIJDRECHT,NL,Netherlands,0113 227618,,yes,NL
10126001,9186,69,6411 LA,BUNSCHOTEN-SPAKENBURG,NEDERLAND,NL,"41435774,03372",59,1165 MK,NIJVERDAL,NL,Netherlands,088 8811132,,yes,NL
8785001,8945,24,2986 AB,HORST,NEDERLAND,NL,"67879882,03372",2,5611 JV,ZEEWOLDE,NL,Netherlands,010 4215228,,yes,NL
10208001,10596,22,6701 DE,AMSTELVEEN,NEDERLAND,NL,"78284580,03372",33,7581 AA,ROERMOND,NL,Netherlands,,,yes,NL
3039001,1380,96,3421 AM,NOORDWIJKERHOUT,NEDERLAND,NL,"14994751,03372",95,1165 MK,HAARLEM,NL,Netherlands,,,yes,NL
8336002,9044,67,1277 ES,RHOON,NEDERLAND,NL,"15018670,03372",9,5246 JR,HEERENVEEN,NL,Netherlands,010 4701669,,yes,NL
657001,10191,32,6161 EG,HILLEGOM,NEDERLAND,NL,"66905009,03372",67,4041 XC,HALFWEG,NL,Netherlands,,,yes,NL
2259001,7845,15,8501 AS,BOXMEER,NEDERLAND,NL,"73607969,03372",95,4631 NC,CASTRICUM,NL,Netherlands,,,yes,NL
9877,10563,15,1077 ES,HALFWEG,NEDERLAND,NL,"75953470,03372",59,4101 CE,HALFWEG,NL,Netherlands,072 5127893,0164 254761,yes,NL
7616001,10862,80,3141 AA,HAARLEM,NEDERLAND,NL,"103326224,03372",35,2611 HM,AMSTERDAM,NL,Netherlands,,0186 630360,yes,NL
8066001,681,51,5671 GD,DOKKUM,NEDERLAND,NL,"73554400,03372",2,1771 AC,TIEL,NL,Netherlands,,,yes,NL
5156001,9268,130,1902 GR,SCHIERMONNIKOOG,NEDERLAND,NL,"70997382,03372",59,,BERGEIJK,NL,Netherlands,,,yes,NL
10049001,4340,69,9501 VM,VLODROP,NEDERLAND,NL,"95627507,03372",11,1165 GR,ZWOLLE,NL,Netherlands,020 6404555,,yes,NL
3487002,9184,70,3135 BK,BREUKELEN,NEDERLAND,NL,"93099463,03372",3,4334 HG,AMERSFOORT,NL,Netherlands,026 3621945,,yes,NL
8469001,3908,102,6862 DJ,GELEEN,NEDERLAND,NL,"110990483,03372",409,6461 AM,DEEST,NL,Netherlands,0341 472558,,yes,NL
9792001,10183,58,1161 SR,VEENENDAAL,NEDERLAND,NL,"8039101,03372",45,6641 CS,OISTERWIJK,NL,Netherlands,,,yes,NL
11176,934,18,1165 MK,GELEEN,NEDERLAND,NL,"63226508,03372",25,7534 AH,HAARLEM,NL,Netherlands,,,yes,NL
10027001,8751,95,4351 AG,BOEKEL,NEDERLAND,NL,"107475935,03372",79,8503 AD,BLEISWIJK,NL,Netherlands,0172-897502,,yes,NL
10863,9608,3,1852 CG,SOEST,NEDERLAND,NL,"40391495,03372",95,2011 BG,HALFWEG,NL,Netherlands,013 5713171,,yes,NL
10881002,10197,9,2941 BS,HAARLEM,NEDERLAND,NL,"69736182,03372",29,3642 BJ,HAARLEM,NL,Netherlands,,,yes,NL
1627001,8740,406,2011 BG,HOOGWOUD,NEDERLAND,NL,"2088634,03372",9,7571 EE,EINDHOVEN,NL,Netherlands,,,yes,NL
10037,1537,49,3880 AD,BAVEL,NEDERLAND,NL,"15102630,03372",48,8911 DL,LEUSDEN,NL,Netherlands,,,yes,NL
8828001,5721,95,7391 HH,MAARTENSDIJK,NEDERLAND,NL,"11085773,03372",24,7591 DJ,HAARLEM,NL,Netherlands,,,yes,NL
11080001,10053,41,8051 GJ,ENTER,NEDERLAND,NL,"44358396,03372",95,1165 MK,NAALDWIJK,NL,Netherlands,06 50926738,0525 684742,yes,NL
1086,4219,19,4334 HG,AMSTERDAM,NEDERLAND,NL,"85222476,03372",66,7941 AJ,HALFWEG,NL,Netherlands,,,yes,NL
1011001,4558,4,1747 HB,DEN HAAG,NEDERLAND,NL,"58590985,03372",95,9166 LW,HALFWEG,NL,Netherlands,,,yes,NL
9203001,10010,4,5831 AD,HEYTHUYSEN,NEDERLAND,NL,"35667028,03372",2,4357 BC,HEERENVEEN,NL,Netherlands,,,yes,NL
8132000,974,11,2408 LM,HAREN,NEDERLAND,NL,"83751847,03372",5,1747 HB,AMERSFOORT,NL,Netherlands,06 53890474,,yes,NL
1034000,10767,29,6161 EG,GELEEN,NEDERLAND,NL,"76971745,03372",54,5921 GX,ZWANENBURG,NL,Netherlands,,,yes,NL
8067,10054,15,6411 LA,VLIELAND,NEDERLAND,NL,"22516610,03372",26,1852 CG,ROTTERDAM,NL,Netherlands,06-43796104,,yes,NL
3290001,10214,1,3961 AS,BLOEMENDAAL,NEDERLAND,NL,"101007508,03372",41,8281 BG,HAARLEM,NL,Netherlands,,,yes,NL
11079001,8783,141,1165 MK,ZANDVOORT,NEDERLAND,NL,"15126872,03372",2,3222 KA,DUSSEN,NL,Netherlands,,,yes,NL
2355001,9194,79,1025 EX,CALLANTSOOG,NEDERLAND,NL,"17376583,03372",34,1053 KZ,VELDHOVEN,NL,Netherlands,0316 221516,,yes,NL
99902,5186,174,5853 AN,HEERLEN,NEDERLAND,NL,"106668866,03372",176,1131 ZD,WINSCHOTEN,NL,Netherlands,0492 66 12 62,,yes,NL
10871,4757,56,2011 PB,BUNSCHOTEN-SPAKENBURG,NEDERLAND,NL,"26828240,03372",99,7631 EW,GROOTEBROEK,NL,Netherlands,023 5426788,0174 628329,yes,NL
11098,449A,32,1431 EE,ARNHEM,NEDERLAND,NL,"78867070,03372",37,4524 DA,BLOEMENDAAL,NL,Netherlands,,,yes,NL
1551,5686,2,6811 EX,NIJKERK,NEDERLAND,NL,"103018553,03372",11,1165 MK,MIDDENMEER,NL,Netherlands,06 16824961,,yes,NL
9425,9853,13,8251 NM,ZWANENBURG,NEDERLAND,NL,"58943263,03372",11,1775 PV,HEINO,NL,Netherlands,058 2998777,,yes,NL
10197001,6539,95,1771 AC,GELDERMALSEN,NEDERLAND,NL,"15145266,03372",23,7772 AE,HALFWEG,NL,Netherlands,,,yes,NL
10812001,10928,5,1077 ES,HAARLEM,NEDERLAND,NL,"3110725,03372",5,8442 BL,HALFWEG,NL,Netherlands,,,yes,NL
10558,839,2,8081 EB,KLUNDERT,NEDERLAND,NL,"108463740,03372",138,5611 AE,NOORDWIJK AAN ZEE,NL,Netherlands,06 53530111,,yes,NL
8783004,1034,2,8503 AD,EPE,NEDERLAND,NL,"32164517,03372",24,1852 CG,HALFWEG,NL,Netherlands,,0161 433800,yes,NL
9589001,10879,16,5384 PN,TUITJENHORN,NEDERLAND,NL,"47805694,03372",2,5625 AE,ZWOLLE,NL,Netherlands,,,yes,NL
8014001,5955,48,1613 LA,WEESP,NEDERLAND,NL,"82884330,03372",11,6371 LJ,MAASSLUIS,NL,Netherlands,0570 613293,,yes,NL
9256001,640B,2,3761 CD,HENDRIK IDO AMBACHT,NEDERLAND,NL,"82225849,03372",15,,BRUMMEN,NL,Netherlands,,,yes,NL
3283001,8936,58,4001 LW,DALFSEN,NEDERLAND,NL,"62199697,03372",37,4301 JB,KAATSHEUVEL,NL,Netherlands,06-14516968,,yes,NL
9718001,4735,32,1165 MK,ECHT,NEDERLAND,NL,"376346,03372",6,5671 GD,OOSTVOORNE,NL,Netherlands,0575 561465,,yes,NL
1392001,4219,49,5171 DE,HEILOO,NEDERLAND,NL,"85050520,03372",24,2011 EH,ZUIDHORN,NL,Netherlands,0227 745021,,yes,NL
10214,9683,21,7001 EW,WIERINGERWERF,NEDERLAND,NL,"39776970,03372",33,5104 GL,LICHTENVOORDE,NL,Netherlands,,,yes,NL
11028001,8826,30,1181 XW,RIDDERKERK,NEDERLAND,NL,"369182,03372",8,6041 GR,UITHOORN,NL,Netherlands,0183 600272,,yes,NL
2316002,10501,35,7311 LZ,NIEUWERKERK AAN DEN IJSSEL,NEDERLAND,NL,"377178,03372",1,1165 MK,NIEUWKUIJK,NL,Netherlands,,,yes,NL
6539006,5870,13,1135 AT,HEEMSKERK,NEDERLAND,NL,"31316345,03372",11,3621 AR,HALFWEG,NL,Netherlands,,,yes,NL
9799,6539,88,5731 JJ,LEMELERVELD,NEDERLAND,NL,"38450586,03372",9,2291 BB,VALKENBURG AAN DE GEUL,NL,Netherlands,,,yes,NL
8740001,10062,58,5582 JZ,BAVEL,NEDERLAND,NL,"15092041,03372",70,7811 EG,EINDHOVEN,NL,Netherlands,06 30110602,,yes,NL
9425,7779,24,9722 AG,ZUID BEIJERLAND,NEDERLAND,NL,"69142095,03372",197,9051 BE,BEILEN,NL,Netherlands,,,yes,NL
6420001,1724,1,3205 BV,BLOEMENDAAL,NEDERLAND,NL,"108020921,03372",90,4761 RW,GELDERMALSEN,NL,Netherlands,0416 530120,,yes,NL
10512001,6727,11,2582 CB,IJSSELMUIDEN,NEDERLAND,NL,"15035926,03372",2,2554 GG,ROERMOND,NL,Netherlands,,,yes,NL
10862,10862,207,7131 DG,WINSCHOTEN,NEDERLAND,NL,"108842145,03372",6,3341 EB,VAALS,NL,Netherlands,0543 474108,,yes,NL
7779001,10875,141,4311 AN,DEN BOSCH,NEDERLAND,NL,"6664895,03372",59,6161 EG,HAARLEM,NL,Netherlands,0168 402565,,yes,NL
10453001,9890,9,1946 BG,VOLENDAM,NEDERLAND,NL,"56722932,03372",9,1781 GD,VLISSINGEN,NL,Netherlands,,,yes,NL
9412,10876,20,1381 BB,BERGSCHENHOEK,NEDERLAND,NL,"369026,03372",50,1165 MK,MILHEEZE,NL,Netherlands,,,yes,NL
8441002,8602,31,7534 AH,HEEMSKERK,NEDERLAND,NL,"108462957,03372",23,3233 AS,VEERE,NL,Netherlands,,,yes,NL
6539007,2275,11,2013 AW,HAARLEM,NEDERLAND,NL,"69709938,03372",15,1775 PV,ALBLASSERDAM,NL,Netherlands,,,yes,NL
10835,4219,7,5141 JS,DEVENTER,NEDERLAND,NL,"39743878,03372",29,5527 GB,VEERE,NL,Netherlands,,0182 523164,yes,NL
10573,9880,46,3645BA,JOURE,NEDERLAND,NL,"82388610,03372",88,2408 LM,UITHOORN,NL,Netherlands,,,yes,NL
10209001,5186,7,5571 CA,OOSTVOORNE,NEDERLAND,NL,"98032664,03372",95,1165 MK,GROENLO,NL,Netherlands,0111 468331,,yes,NL
8056001,9421,27,5211 ES,GROOTEBROEK,NEDERLAND,NL,"104213718,03372",37,3811 AM,KATWIJK,NL,Netherlands,06 46261854,,yes,NL
10876001,9191,48,5616 GW,AMSTELVEEN,NEDERLAND,NL,"81607597,03372",41,2593 AN,FRANEKER,NL,Netherlands,0118 502105,,yes,NL
9777,9333,23,4813 BA,HEERLEN,NEDERLAND,NL,"82709393,03372",24,2013 AW,HALFWEG,NL,Netherlands,058 2153929,,yes,NL
1063001,2828,7,8911 DL,SLUIS,NEDERLAND,NL,"28523245,03372",48,2661 DB,SCHAIJK,NL,Netherlands,,,yes,NL
8740003,10873,95,1161EW,TWELLO,NEDERLAND,NL,"78231872,03372",145,8911 DL,HOOGEZAND,NL,Netherlands,06 48045601,,yes,NL
839005,9283,69,4854 KG,ZANDVOORT,NEDERLAND,NL,"588282,03372",53,1165 MK,VLAARDINGEN,NL,Netherlands,,,yes,NL
10817001,1585,27,1051 JB,VEENENDAAL,NEDERLAND,NL,"15013316,03372",95,1165 MK,HALFWEG,NL,Netherlands,06 48152247,,yes,NL
9882001,9799,3,1946 BG,"TEXEL , DEN BURG",NEDERLAND,NL,"4199511,03372",5,4331 LT,HALFWEG,NL,Netherlands,0541 513570,,yes,NL
4277001,10866,25,6613 AN,PEIZE,NEDERLAND,NL,"53847205,03372",17,8051 GJ,EINDHOVEN,NL,Netherlands,,,yes,NL
1795001,10881,50,3253 AN,NIEUWLEUSEN,NEDERLAND,NL,"72462132,03372",289,6191 JK,APELDOORN,NL,Netherlands,077 3075055,,yes,NL
10244,10512,73,8899 AD,VAALS,NEDERLAND,NL,"6237094,03372",20,5253 RE,VAALS,NL,Netherlands,035 5431946,,yes,NL
10036001,3039,95,1165 MK,DRACHTEN,NEDERLAND,NL,"78529334,03372",31,6851 BE,BLADEL,NL,Netherlands,,,yes,NL
8783005,188,38,3645BA,VENRAY,NEDERLAND,NL,"30152577,03372",87,5582 JZ,BERGEN OP ZOOM,NL,Netherlands,,,yes,NL
10031001,9190,1,4461 JP,GRONINGEN,NEDERLAND,NL,"2681343,03372",95,5141 JS,HALFWEG,NL,Netherlands,,,yes,NL
9803,640B,15,4661 EH,HALFWEG,NEDERLAND,NL,"25022167,03372",8,7384 AE,HALFWEG,NL,Netherlands,06-24772130,,yes,NL
10327001,8351,110,1165 MK,HEEMSTEDE,NEDERLAND,NL,"377250,03372",28,5944 AH,UTRECHT,NL,Netherlands,077 4672929,,yes,NL
974001,9425,9,1161 SG,BREDA,NEDERLAND,NL,"118569454,03372",1,1399 EL,WAGENINGEN,NL,Netherlands,070 5141608,,yes,NL
8422001,10142,15,4731 JA,AALSMEER,NEDERLAND,NL,"108830723,03372",35,3131 CM,VOORHOUT,NL,Netherlands,,,yes,NL
10050001,10205,59,2291 BB,HEESCH,NEDERLAND,NL,"37522822,03372",38,2661 DB,GOES,NL,Netherlands,522441259,,yes,NL
10884001,6420,48,2611 HM,HUIZEN,NEDERLAND,NL,"79442687,03372",8,5763 BT,WIERINGERWERF,NL,Netherlands,,,yes,NL
9880001,9693,13,1277 ES,UDENHOUT,NEDERLAND,NL,"50566450,03372",32,1165 MK,OOSTERBEEK,NL,Netherlands,,,yes,NL
4144001,1024,23,7391 HH,WILNIS,NEDERLAND,NL,"98590730,03372",,5684 VL,ZWOLLE,NL,Netherlands,,,yes,NL
10744001,1062,36,1422 WR,HEILOO,NEDERLAND,NL,"86799645,03372",70,1165 MK,OSS,NL,Netherlands,050 5020000,,yes,NL
3275001,3927,49,7391 HH,DEN HAAG,NEDERLAND,NL,"371164,03372",105,1251 LA,HUIZEN,NL,Netherlands,0412 632937,,yes,NL
8698001,7274,9,2151 GD,LICHTENVOORDE,NEDERLAND,NL,"73111825,03372",10,4461 JK,HEILOO,NL,Netherlands,0118 581302,,yes,NL
7541001,5172,95,3621 AR,LICHTENVOORDE,NEDERLAND,NL,"19735397,03372",48,7021 AB,RIDDERKERK,NL,Netherlands,06 88007332,,yes,NL
5186,7616,210,7722 RV,MARKELO,NEDERLAND,NL,"14994036,03372",95,8131 BB,SITTARD,NL,Netherlands,088 8811131,,yes,NL
4735001,8834,16,3751 AS,UDENHOUT,NEDERLAND,NL,"370222,03372",58,5616 GW,ENSCHEDE,NL,Netherlands,,,yes,NL
10501002,10009,1,5104 GL,EDE,NEDERLAND,NL,"39028843,03372",95,1165 MK,HALFWEG,NL,Netherlands,0512 515115,,yes,NL
9321,8422,12,4661 EH,NAALDWIJK,NEDERLAND,NL,"44186290,03372",21,3971 GP,KOOTWIJKERBROEK,NL,Netherlands,,,yes,NL
10278,8067,2,1165 MK,NAALDWIJK,NEDERLAND,NL,"102742189,03372",36,4561 EH,ZEVENAAR,NL,Netherlands,,,yes,NL
8021001,6667,48,1053 GM,DOETINCHEM,NEDERLAND,NL,"12233739,03372",4,1811 NB,AMSTERDAM,NL,Netherlands,040 2449077,,yes,NL
10183,9555,21,2671 HZ,HAARLEM,NEDERLAND,NL,"29497372,03372",95,4531 GG,WAALWIJK,NL,Netherlands,06 24772130,,yes,NL
839000,10955,101,2671 GC,SLUIS,NEDERLAND,NL,"15119486,03372",7,2061 GC,AMSTERDAM,NL,Netherlands,,,yes,NL
6144002,118,2,6093 CR,HARDENBERG,NEDERLAND,NL,"369286,03372",19,2014 JA,NOORDWIJKERHOUT,NL,Netherlands,030 6883653,,yes,NL
9078,1897,105,9101 ML,HEERLEN,NEDERLAND,NL,"29200405,03372",95,9401 DZ,MIDDELBURG,NL,Netherlands,0162-456732,,yes,NL
1086,5092,76,5988 AE,DUIVEN,NEDERLAND,NL,"103802230,03372",30,3811 AJ,HALFWEG,NL,Netherlands,040 2410372,,yes,NL
9191002,6465,2,6161 EG,ZUTPHEN,NEDERLAND,NL,"108464830,03372",4,7001 BW,HALFWEG,NL,Netherlands,,,yes,NL
10097001,10501,66,2011 HZ,IJSSELSTEIN,NEDERLAND,NL,"373706,03372",32,7711 AA,HARMELEN,NL,Netherlands,,,yes,NL
2275001,2329,21,4661 EH,AMSTERDAM,NEDERLAND,NL,"99553258,03372",57,4524 CH,MARKELO,NL,Netherlands,040 293 1470,,yes,NL
9079001,1011,352,3921 DN,HOENSBROEK,NEDERLAND,NL,"112520143,03372",95,4524 CK,DOETINCHEM,NL,Netherlands,024 3970898,,yes,NL
449001,9862,12,9203 CJ,HAARLEM,NEDERLAND,NL,"373154,03372",117,5071 EM,HALFWEG,NL,Netherlands,033 2980165,,yes,NL
8834001,528,70,7701 GK,BOVENKARSPEL,NEDERLAND,NL,"20276696,03372",21,5211 KE,MONSTER,NL,Netherlands,023 5517356,,yes,NL
8730001,10557,16,2661 DB,LEUSDEN,NEDERLAND,NL,"104433554,03372",136,4611 NM,BERGEYK,NL,Netherlands,,,yes,NL
4069001,1062,4,4511 AP,HAARLEM,NEDERLAND,NL,"81645792,03372",89,3995 ED,LICHTENVOORDE,NL,Netherlands,0575 512635,,yes,NL
4156001,1726,3,1775 PV,HUISSEN,NEDERLAND,NL,"72461274,03372",95,1271 RS,AMSTERDAM,NL,Netherlands,,,yes,NL
2033001,670,33,4611 NM,BRUMMEN,NEDERLAND,NL,"91616807,03372",95,4331 AJ,HALFWEG,NL,Netherlands,020 2050632,,yes,NL
7659001,9256,34,4921 BE,SIEBENGEWALD,NEDERLAND,NL,"103018547,03372",37,6039 GH,GENEMUIDEN,NL,Netherlands,040 2836441,,yes,NL
1537001,3275,6,2106 DH,HAARLEM,NEDERLAND,NL,"117941397,03372",37,1165 MK,HAARLEM,NL,Netherlands,,,yes,NL
8957001,10208,15,3772 MT,DALFSEN,NEDERLAND,NL,"63512620,03372",17,5731 JJ,SPAKENBURG,NL,Netherlands,0541 351478,,yes,NL
7579001,9998,386,9001 NX,BUNSCHOTEN-SPAKENBURG,NEDERLAND,NL,"15018656,03372",23,1165 MK,WIERINGERWERF,NL,Netherlands,,,yes,NL
681001,10834,57,3205 BV,UDENHOUT,NEDERLAND,NL,"26854451,03372",25,5121 ES,HULST,NL,Netherlands,040 2012316,,yes,NL
10050002,5113,5,2012 KH,GOES,NEDERLAND,NL,"15078204,03372",65,1165 MK,BREDA,NL,Netherlands,,,yes,NL
1034002,9803,19,2011 JD,HEEMSKERK,NEDERLAND,NL,"106405693,03372",55-1,5151 JH,DEN HAAG,NL,Netherlands,0180 311090,,yes,NL
7036001,9327,14,7326 XL,MONSTER,NEDERLAND,NL,"79442711,03372",102,3781 GA,ZWANENBURG,NL,Netherlands,0314 391782,,yes,NL
9194,10881,7,6374 AC,ZWANENBURG,NEDERLAND,NL,"375768,03372",95,2312 JD,ZWOLLE,NL,Netherlands,,,yes,NL
10882001,5080,77,3772 MT,LELYSTAD,NEDERLAND,NL,"78834966,03372",16,4841 AA,BERGSCHENHOEK,NL,Netherlands,,,yes,NL
6539002,1795,8,3481 ES,ROCKANJE,NEDERLAND,NL,"11331103,03372",36,1759 GN,ASSEN,NL,Netherlands,,,yes,NL
8723001,9191,95,1277 ES,DOESBURG,NEDERLAND,NL,"85682896,03372",1004,1277 ES,ZUTPHEN,NL,Netherlands,,,yes,NL
10525001,6636,1,5371 CB,ALMERE,NEDERLAND,NL,"15102648,03372",13,1823 XL,ZWANENBURG,NL,Netherlands,,,yes,NL
6919001,10216,1,5831 AD,MAASSLUIS,NEDERLAND,NL,"52245070,03372",9,9162 EK,WADDINXVEEN,NL,Netherlands,,,yes,NL
6176001,403,56,1911 TP,HEERLEN,NEDERLAND,NL,"370394,03372",5,5038 CP,OUDERKERK AAN DE AMSTEL,NL,Netherlands,,0593 541161,yes,NL
8789001,9020,95,6291 EL,MADE,NEDERLAND,NL,"29431222,03372",46,1902 GR,BOXMEER,NL,Netherlands,,,yes,NL
10907001,8441,5,3761 CD,HAARLEM,NEDERLAND,NL,"35555909,03372",44,5431 DT,AXEL,NL,Netherlands,0111 468331,,yes,NL
8066001,10053,2,2061 GC,UITHOORN,NEDERLAND,NL,"375486,03372",1,1521 DS,HOOFDDORP,NL,Netherlands,0164-239307,,yes,NL
1025,8468,9,1531 LP,AMSTERDAM,NEDERLAND,NL,"107852645,03372",96,8051 GJ,RHOON,NL,Netherlands,,,yes,NL
6563001,10126,57,2991 CS,MIDDELBURG,NEDERLAND,NL,"33246728,03372",4,8271 BV,BENEDEN-LEEUWEN,NL,Netherlands,,,yes,NL
10031001,1307,35,2103 VE,BORNE,NEDERLAND,NL,"369792,03372",95,2582 ER,HALFWEG,NL,Netherlands,,,yes,NL
1034000,6439,1197,4661 EH,WADDINXVEEN,NEDERLAND,NL,"92206117,03372",1,1165 MK,HILLEGOM,NL,Netherlands,073 5514617,,yes,NL
839008,5245,7,1165 MK,DEN HAM,NEDERLAND,NL,"41260796,03372",95,2931 AE,VELSERBROEK,NL,Netherlands,06 20806878,,yes,NL
1795002,8971,50,9411 KN,MEPPEL,NEDERLAND,NL,"12655924,03372",145,1165 MK,WILNIS,NL,Netherlands,,,yes,NL
9075001,7013,2,7131 DG,NAALDWIJK,NEDERLAND,NL,"369752,03372",16,9203 CJ,HOENSBROEK,NL,Netherlands,,,yes,NL
8281001,3355,59,3205 BV,ELST,NEDERLAND,NL,"51862354,03372",95,6653 BN,HATTEM,NL,Netherlands,,0314 361142,yes,NL
6877001,10164,572,6662 DK,NOORDWIJKERHOUT,NEDERLAND,NL,"85902804,03372",27,1165 MK,DEVENTER,NL,Netherlands,010 5110726,,yes,DE
527,449C,24,2341 CL,GELEEN,NEDERLAND,NL,"41435801,03372",1,3882 ME,AMERSFOORT,NL,Netherlands,,,yes,NL
9867001,3478,29,4524 DA,ALKMAAR,NEDERLAND,NL,"23291443,03372",1,1422 SV,BREDA,NL,Netherlands,,,yes,NL
9481001,10439,28,7101 NS,BREDA,NEDERLAND,NL,"96686892,03372",363,7329 DN,BADHOEVEDORP,NL,Netherlands,020 2050634,,yes,NL
900001,3892,11,1161 SG,HALFWEG,NEDERLAND,NL,"55068291,03372",7,5253 RE,ZEVENBERGEN,NL,Netherlands,,0180 428334,yes,NL
9359001,10874,3,2061JB,ELST,NEDERLAND,NL,"370744,03372",4,3141 AA,SCHAGEN,NL,Netherlands,,,yes,NL
6636001,10779,15,1165 GT,ZWOLLE,NEDERLAND,NL,"15102672,03372",6,3421 AM,KROMMENIE,NL,Netherlands,,,yes,NL
7779004,10887,2,4191 BC,RIJEN,NEDERLAND,NL,"15075946,03372",95,1165 MK,EDE,NL,Netherlands,,,yes,NL
4690001,7592,11,7131 DG,VINKEVEEN,NEDERLAND,NL,"69142100,03372",935,5211 ES,SCHAGEN,NL,Netherlands,,,yes,NL
10844001,7617,1,9301 AE,HEEMSTEDE,NEDERLAND,NL,"19747212,03372",4,4724 BK,RENESSE,NL,Netherlands,,,yes,NL
10009,7663,176,2101 JK,VELP GLD,NEDERLAND,NL,"56997926,03372",95,5751 BH,BEEK,NL,Netherlands,,,yes,NL
7822001,100,2,5121 ES,AMERONGEN,NEDERLAND,NL,"83802629,03372",95,3645BA,SEVENUM,NL,Netherlands,,0492 66 29 11,yes,NL
9771001,1795,13,2741 EC,BUNSCHOTEN-SPAKENBURG,NEDERLAND,NL,"93077370,03372",27,1404 EM,SLUIS,NL,Netherlands,,,yes,NL
8523001,9184,77,8051 GJ,HEEMSKERK,NEDERLAND,NL,"69735885,03372",110,5321 HL,AMSTELVEEN,NL,Netherlands,0224 754750,,yes,NL
8078001,10501,19,9166 LW,ROTTERDAM,NEDERLAND,NL,"15083622,03372",15,6971 BP,AMERSFOORT,NL,Netherlands,,,yes,NL
9283,4786,41,3751 AS,BARENDRECHT,NEDERLAND,NL,"95824609,03372",82,1165 MK,BORCULO,NL,Netherlands,,,yes,NL
9313001,8834,59,3648 HC,SCHAGEN,NEDERLAND,NL,"370822,03372",95,2661 DB,TILBURG,NL,Netherlands,,,yes,NL
188001,2033,6,7941 AJ,VELSERBROEK,NEDERLAND,NL,"38699560,03372",12,4354 AD,HEEMSKERK,NL,Netherlands,,,yes,NL
839009,10886,11,8754 BL,HULST,NEDERLAND,NL,"101665784,03372",66,4356 AH,VLODROP,NL,Netherlands,,,yes,NL
10881004,8826,61,1185 EL,UTRECHT,NEDERLAND,NL,"98032855,03372",40,7511 NJ,SLIEDRECHT,NL,Netherlands,038 4220401,,yes,NL
8838001,7819,9,1251 LA,SLUIS,NEDERLAND,NL,"67309834,03372",95,5271 VP,PUTTEN,NL,Netherlands,,,yes,NL
11040001,6539,17,2071 RC,SLIEDRECHT,NEDERLAND,NL,"50396247,03372",26,3761 CD,SLUIS,NL,Netherlands,023 5378527,,yes,NL
8632001,7826,36,2051 ED,DRUNEN,NEDERLAND,NL,"60872095,03372",71,6431 HG,MAARTENSDIJK,NL,Netherlands,,,yes,NL
8602,10744,15,3441 N,SOEST,NEDERLAND,NL,"15017162,03372",67,2071 EG,HALFWEG,NL,Netherlands,046 4748200,,yes,NL
5559001,10558,21,2201 TN,HALFWEG,NEDERLAND,NL,"71535352,03372",48,1165 MK,WILP,NL,Netherlands,,,yes,NL
10010,10027,163,2408 LM,HEERLEN,NEDERLAND,NL,"100017140,03372",95,8141 EX,ROTTERDAM,NL,Netherlands,,,yes,NL
