unknown,unknown,unknown,house_number,city,postcode,country,legal_type,unknown,unknown
636902609.0,NL802587276B01,,7,VEENENDAAL,5600AT,NL,Publiekrechtelijke rechtspersoon,no,
636998061.0,NL802886486B01,,6,HUIZEN,4460AB,NL,Publiekrechtelijke rechtspersoon,no,724500PX4DE9YRLUCS08
636947491.0,NL805329535    ,,44,WAALWIJK,6000AZ,NL,Vereniging met volledige rechtsbevoegdheid,no,724500E12FOQZY0GAA06
,               ,,80,UDEN,E14 4AD,NL,Stichting,no,
,NL001831112B01,,6,MIDDELBURG,1900BH,NL,Stichting,no,724500L6Q8JKEJWOB426
636953882.0,               ,,                                   ,ROSMALEN,2509AE,NL,Stichting,,
636908259.0,NL817715952B01,,252,ZUTPHEN,2509LM,NL,Stichting,,
223751502.0,               ,,102,NIJVERDAL,3100EA,LU,Publiekrechtelijke rechtspersoon,no,
636902811.0,NL811589882B01,724500TM94XWWE4CE110,2,LONDON,4330GC,NL,Publiekrechtelijke rechtspersoon,no,
636902412.0,,7245005FLP0536HIJO24,2,SASSENHEIM,1040HG,NL,PLC,no,
636933466.0,NL802542815B01,,2,ROTTERDAM,,NL,Naamloze Vennootschap met gewone structuur,no,
636939626.0,               ,,1,VEENENDAAL,2961AT,IT,,no,O4QK7KMMK83ITNTHUG69
636916448.0,               ,,1,ANNA PAULOWNA,4930AC,NL,Stichting,,
636913651.0,NL001936189B01,,1,LEIDEN,6201BB,DE,Besloten Vennootschap met gewone structuur,no,
636785637.0,               ,724500LYT7PM9EYKCH91,4,EMMELOORD,8901BR,NL,,no,724500A1FNICHSDF2I11
636946177.0,NL002591029B01,,6,MAASBRACHT,7900PA,NL,Stichting,no,724500LSISMG93G5CR27
636948536.0,               ,724500CTIFLVPOE1QH25,8,BRIELLE,2553RJ,NL,,no,
636916901.0,NL802139097B012,529900GGYMNGRQTDOO93,                                   ,UTRECHT                            ,4260AA,NL,Publiekrechtelijke rechtspersoon,no,724500LCWOKYPSQJLU07
636908682.0,               ,,                                   ,ZALTBOMMEL,3341LL,NL,,yes,
636948552.0,               ,,9,BEVERWIJK,57072,NL,Stichting,,
636901343.0,               ,724500YBAC4YYKG0NJ56,2,HILVERSUM,3140AB,NL,,no,
636909697.0,NL803235409B01,,5,LELYSTAD,8320AB,NL,Publiekrechtelijke rechtspersoon,no,
636949583.0,NL001708971B01,724500CSPR2O9VJ4K639,40,DRACHTEN,3990DB,NL,Vereniging met volledige rechtsbevoegdheid,no,
636958248.0,NL001202649B01,,15,UDENHOUT,8001,NL,Stichting,no,
636914399.0,NL812566762B01,724500VTLCD4V3XP6645,31,VIANEN,7400AW,NL,Stichting,no,7245002YDUUDVTACJU95
636914445.0,               ,,10,AMSTERDAM,92120,NL,Publiekrechtelijke rechtspersoon,,724500SCJKY3JGCW5E50
636953939.0,               ,,283,TERNEUZEN                          ,5420 DA   ,DE,Besloten Vennootschap met gewone structuur,no,
636902544.0,               ,,15,VALKENSWAARD,5953ZK,NL,Stichting,no,724500QWM2ADW0XB7Z65
636957004.0,NL001997634    ,,3,NAALDWIJK,4200AN,NL,,no,
636956393.0,               ,,75,HORST,2504LK,NL,,no,724500W92LX9JP45QB43
636902218.0,NL007797679B01,,15,OUD-BEIJERLAND,2865XW,NL,Publiekrechtelijke rechtspersoon,no,
636949303.0,,,1,LEIDERDORP,6120AA,NL,Stichting,,724500KPIQZXF3KIW433
,NL813854556B01,724500RONYH4MQ1YOC67,35,Kiel,3360AC,NL,Stichting,no,724500AI9L68DF5HEC85
636754022.0,NL001028418B01,,1,ZÃœRICH,1272RR,NL,Publiekrechtelijke rechtspersoon,no,
636954110.0,               ,,                                   ,HELMOND,4760AA,NL,Publiekrechtelijke rechtspersoon,no,724500CP9U9PORGZBG31
636964914.0,NL008353529B01,,1,AMERSFOORT,2935BA,NL,Publiekrechtelijke rechtspersoon,no,
636958280.0,NL853156268B01,,11,HEERHUGOWAARD,3981AZ,NL,Publiekrechtelijke rechtspersoon,no,
636953726.0,NL006032849B01,,1,BEVERWIJK,5980AB,DE,Stichting,,7245003K5PZEGFXMBA77
636756599.0,NL002689248B01,724500AI9L68DF5HEC85,1,'S-GRAVENHAGE,24937,NL,Stichting,no,
636945782.0,NL802605722B01,,14,HENDRIK-IDO-AMBACHT,5902RK,NL,Publiekrechtelijke rechtspersoon,no,
636960129.0,NL001915794B01,,5,'S-GRAVENHAGE,4800DM,DE,Stichting,no,724500CS54TEU4XX6Y26
636785335.0,NL005605301    ,,19,ALKMAAR,4380AA,NL,Stichting,no,724500BQ0HZIFYZ8UM69
636960285.0,NL807369457B034,R0MUWSFPU8MPRO8K5P83,26,DIDAM,7963RP,NL,Publiekrechtelijke rechtspersoon,no,724500GB5MO2Z4WS0B67
636951863.0,               ,,6,'S-HERTOGENBOSCH,7770AA,NL,Stichting,no,724500OHYNDT9OY6Q215
636910199.0,NL802360828B01,72450062A1O03S7HUW94,46,DEN HAAG                           ,6170AA,NL,Stichting,no,724500SGRNZ4JCP1UM59
636960331.0,NL807361732B01,,1,ULFT,3500AB,NL,,no,
636997812.0,NL852759897B019,724500KCQ6Y82LM9WZ10,1,DORDRECHT,3700AC,NL,Stichting,no,7245005MN5G5IIJTTB55
,NL800600356B01,,1,WOLVEGA,1040AR,NL,Publiekrechtelijke rechtspersoon,,724500TK1Y61XTHI8K18
636785440.0,NL001702580B01,,25,TORINO,1600AA,NL,Publiekrechtelijke rechtspersoon,,
,NL850108275B01,,47,ZWIJNDRECHT,10121,NL,Publiekrechtelijke rechtspersoon,no,
458060100.0,NL003555264B01,,20,DUNKERQUE,97070,NL,Publiekrechtelijke rechtspersoon,no,
636760014.0,               ,,200,Oberhausen,6710HK,NL,Stichting,no,
636917169.0,NL003067841    ,,62,GRONINGEN,2684 XJ   ,NL,Stichting,no,
636953270.0,               ,72450097XLJZ5IE14536,32,ALKMAAR,9752XS,NL,,no,724500NO59RW4B8F7U71
636909670.0,NL814927233B01,,110,KAMPEN,6800GX,NL,Stichting,no,
636910113.0,NL002678536B01,,100,AMSTERDAM,1882,NL,Stichting,no,
636915050.0,               ,7245005CCNMBO510F829,83,BOXTEL,5070AB,NL,Publiekrechtelijke rechtspersoon,no,
636935590.0,NL001172773B01,,1,UDEN,5602BJ,NL,Stichting,,5493003SPEWN841SWG39
636925374.0,NL006890465B01,,1,Namur,1000AZ,NL,Stichting,no,
636945391.0,NL823143910B01,,1,WERKENDAM,9076ZN,NL,Publiekrechtelijke rechtspersoon,no,
,               ,,200,BUNNIK,1000BV,NL,Publiekrechtelijke rechtspersoon,,
636952819.0,NL007037648B01,,7,LICHTENVOORDE,6097ZG,NL,Publiekrechtelijke rechtspersoon,,
636959732.0,NL002701649B01,,1021,WILMINGTON,1130AA,NL,Publiekrechtelijke rechtspersoon,no,724500CTYV09PYAD6135
636957551.0,NL004079851B01,,                                   ,GRONINGEN,24103,NL,Naamloze Vennootschap blijkens statuten structuurvennootschap,no,724500JT1EQT0HUQYQ81
636949451.0,               ,724500CN1SOF8QDYL215,2,THOLEN,1301AB,NL,Publiekrechtelijke rechtspersoon,no,724500CSPR2O9VJ4K639
636901882.0,NL001709069B01,,11,GRONINGEN,9000AB,NL,Stichting,no,
636964574.0,NL002128032B01,,175,TERBORG,1201DA,NL,Stichting,no,
636901262.0,NL803297828B01,,28,HATTEM,1180AH,NL,Publiekrechtelijke rechtspersoon,no,
636753735.0,NL816963228    ,,1,AMSTERDAM,1082PP,NL,,no,
636905748.0,NL004708970    ,,3,LEEUWARDEN,3329KP,NL,Stichting,no,724500O0T0XI8Z6I6T42
636786552.0,               ,,                                   ,NIEUWVEEN,46045,NL,Publiekrechtelijke rechtspersoon,no,
636944158.0,NL001932962B01,724500PT7Y81XKSMR808,3,TERHEIJDEN,5120AB,NL,Publiekrechtelijke rechtspersoon,no,
636954692.0,NL001797840B01,,69,GROOT-AMMERS,4535 PA   ,NL,,no,
636952312.0,NL818886390B01,,20,DOORWERTH,3990DA,NL,PLC,yes,7245000Y9ONR5FORD657
636952908.0,               ,,141,NIEUWENDIJK,2601DB,NL,Stichting,no,
636908364.0,               ,,1,MAASSLUIS,3330AE,DE,Publiekrechtelijke rechtspersoon,no,
636936821.0,               ,,50,CUIJK,6500AJ,NL,,no,
636901416.0,NL001569417B010,724500A0I1H2IB0JQ388,1,'S-GRAVENHAGE,1082LD,NL,Stichting,no,
636933555.0,NL805933992B015,,35,LELYSTAD,4530AC,NL,Publiekrechtelijke rechtspersoon,no,
636756017.0,NL002769931B01,,11,APELDOORN,6658ZG,NL,Publiekrechtelijke rechtspersoon,no,
636917339.0,NL808276967B01,7H6GLXDRUGQFU57RNE97,100,BALK,6720AB,NL,Stichting,no,
636948064.0,NL003846039B01,724500VQ7AZQU6LM8K28,10,ALPHEN AAN DEN RIJN,7710AA,DE,,no,
636948471.0,NL802409180B01,724500Z1D693KODL7205,1,AMSTERDAM,6920AA,NL,Stichting,no,
636936880.0,NL002646298B01,,4,KAMERIK,3981TD,NL,Publiekrechtelijke rechtspersoon,,
636953114.0,NL820266279B01,,2,Salzgitter,3230AC,NL,Stichting,no,724500NYQKIOA60FVL37
636997707.0,NL812579446    ,72450083NJ69N7Y0DR18,324,ZOETERMEER,2280AD,NL,Publiekrechtelijke rechtspersoon,no,
636959066.0,NL001737442B072,,                                   ,GRAVE                              ,1200BZ,NL,Publiekrechtelijke rechtspersoon,no,
636903168.0,NL812579446    ,BFM8T61CT2L1QCEMIK50,65,'S-GRAVENHAGE,5076ZG,NL,PLC,no,724500J6LZAXQSBEEG59
636904105.0,NL806444307B01,,14,SPIJKENISSE                        ,1000CP,NL,Stichting,no,549300772D1G8JPIUR96
636901998.0,               ,,39,Herne,60311,NL,Stichting,no,724500XCW9LZGRMUQ157
,               ,,17,'S-GRAVENHAGE,3750GE,NL,Stichting,no,7245005CCNMBO510F829
,               ,,                                   ,EDINBURGH,1270AK,NL,Stichting,yes,
636787532.0,,,1,ROTTERDAM,6710BS,NL,Stichting,no,
636903206.0,NL001726006B01,,47,HENGELO,2200AE,NL,Stichting,,724500DKY8HHPR6A6461
636909042.0,NL001709197    ,,16,VRIES,5051HC,DE,Stichting,no,
3000000006.0,               ,724500RD8GQPTMBJFW55,46,MAASBRACHT,2509AE,NL,Stichting,no,724500LGYCWTRMCUIU50
636965023.0,NL810243428B01,,4,Mainz,3863AX,NL,PLC,,724500PPVB2MMDXBLG29
636805875.0,NL005568687B01,,1,DEVENTER,5700AE,NL,Besloten Vennootschap met gewone structuur,no,724500A02ODNAGA66847
636944115.0,NL821535821B01,,2,Stuttgart,5200GZ,NL,Publiekrechtelijke rechtspersoon,no,724500JORH3PF9299C56
636957233.0,,,1,UTRECHT,7570AA,FR,Naamloze Vennootschap met gewone structuur,no,
636952746.0,               ,724500LCWOKYPSQJLU07,30,ZEIST,5400AS,NL,Stichting,no,724500R0O8MJQB0CFZ45
636951405.0,NL002681304B01,,                                   ,PAPENDRECHT,2800BB,NL,Vereniging met volledige rechtsbevoegdheid,no,
636905489.0,NL002984568B01,,                                   ,BILTHOVEN,8900MA,NL,Stichting,no,724500M5D0AYSP8BKE56
636956989.0,NL001998079B01,,2,Darmstadt,9861BM,NL,Stichting,no,72450094DSB7Y3V96P12
636946606.0,NL810258997B01,,61,BORNE,5420AB,NL,,,
616242549.0,NL002891244B01,724500EU9GWU646QNN17,30,VENLO,3301CA,NL,Publiekrechtelijke rechtspersoon,no,
636906094.0,NL808304380    ,,10,SPIJKENISSE,5660AB,NL,Stichting,no,
,NL002645385B01,,53,ASSEN,6108,NL,Vereniging met volledige rechtsbevoegdheid,no,
636900037.0,               ,,25,MIDDELHARNIS,5150AC,NL,Publiekrechtelijke rechtspersoon,yes,724500VTLCD4V3XP6645
636755592.0,NL005859979B01,724500Q2L2VEYFJCFA83,                                   ,Halle (Saale),7770AK,NL,Stichting,no,549300Q3DX11LN548072
636949966.0,NL003666840B01,,150,PIJNACKER,4701ND,NL,,no,
636788407.0,               ,,24,ZEIST,3000KP,NL,Stichting,no,
636945924.0,NL819319788B01,7245008XI8AJNDGC4923,1,TILBURG,E14 5JP,NL,Stichting,no,7245006RLKPYG35K0550
,NL006462583B115,,888,DELFT,E14 5HQ,NL,Stichting,no,
636909841.0,NL002540216B01,,                                   ,LONDON,5000,NL,Stichting,no,724500DURHYH46YIJB92
636920445.0,NL804781230B01,,                                   ,WOUDRICHEM,3800CE,NL,Stichting,no,
636951456.0,NL003845758B01,,7,HOOGKARSPEL,1082PP,DE,Publiekrechtelijke rechtspersoon,no,
636924750.0,               ,,5,SCHIPLUIDEN,6700AA,NL,ST,,724500Y69JGDVHQ7O263
636948455.0,NL003827197B01,,40,AMSTERDAM,2280AD,NL,Stichting,no,
636904385.0,               ,,1,ARNHEM,7480AC,NL,Publiekrechtelijke rechtspersoon,no,
,NL815205752B01,,6,Kerpen,4255ZH,GB,Stichting,no,
636964698.0,NL001104524B015,,5,UBBERGEN,4801DZ,NL,Vereniging met volledige rechtsbevoegdheid,no,724500A0I1H2IB0JQ388
,               ,,14,LEEK,5248JT,NL,Stichting,yes,
636948927.0,NL806661136B01,,1,HOORN,5201AL,NL,Naamloze Vennootschap met gewone structuur,no,7245008KFR1B60F3XD79
636949052.0,NL001527812B021,,40,'S-GRAVENHAGE,9700AM,NL,Vereniging met volledige rechtsbevoegdheid,no,7245008W76INVVU8V754
636948382.0,NL002522421B01,,2,LISSE,65428,NL,,no,
636916790.0,NL808934508B01,,6,ENSCHEDE,1420AA,NL,,no,
636963314.0,NL820768467B01,,99,RUINEN,3240AD,NL,Publiekrechtelijke rechtspersoon,no,
636756882.0,NL005605301    ,,5,TILBURG,3155ZH,CH,Stichting,no,
,NL002652109B01,,                                   ,WOERDEN,4300JA,GB,Stichting,no,
636916375.0,               ,,2,HEEZE,4715ZG,NL,Publiekrechtelijke rechtspersoon,yes,
636902773.0,               ,724500E12FOQZY0GAA06,3,DÃ¼sseldorf,1000AZ,NL,Stichting,no,
,NL009459005B01,,31,GOUDA,3980CA,NL,Stichting,yes,
636933652.0,               ,,5,DOKKUM,19801,NL,Stichting,no,
636939324.0,NL002614017B01,,1,'S-GRAVENHAGE,3100AA,NL,,no,
636934403.0,               ,,2,HEEMSKERK,6500GS,NL,Publiekrechtelijke rechtspersoon,no,
636954897.0,               ,724500EYVI5KTHI7XO71,50,GRONINGEN,5216 PP   ,NL,,no,7245008HM36HWJAP1N90
636755258.0,NL002704559B01,,1,DELFT,2340BG,NL,,no,
636935353.0,NL001831124B01,,10,ROERMOND,5750AA,NL,Stichting,no,
636907953.0,NL002735301B01,,                                   ,'S-HERTOGENBOSCH,6040AK,NL,Besloten Vennootschap met gewone structuur,no,
636952541.0,               ,XKZZ2JZF41MRHTR1V493,                                   ,Frankfurt am Main,3500 AB   ,NL,,no,
636907988.0,               ,,                                   ,'S-GRAVENHAGE,4700AZ,NL,Stichting,no,
539619221.0,NL007067902B01,,                                   ,BORCULO,2509LP,NL,Publiekrechtelijke rechtspersoon,no,
636960145.0,NL002308836B01,,2,TERNEUZEN,2509JE,NL,Publiekrechtelijke rechtspersoon,no,724500UZULPG7LXXZ839
636954943.0,NL001028728B01,,560,RIJSWIJK,9701JC,NL,Stichting,,
636900258.0,NL003640814B01,,                                   ,NOORDWIJKERHOUT,6916ZG,NL,Besloten Vennootschap met gewone structuur,no,
636950778.0,NL813180417B01,,1,'S-GRAVENHAGE,64283,NL,Publiekrechtelijke rechtspersoon,no,
636943054.0,NL002898925B01,,5,PIJNACKER,6534 AD   ,NL,Stichting,no,
636801721.0,NL002601394B01,,3,HARDINXVELD-GIESSENDAM,8004DA,NL,,no,7245008733FYT2GE8898
636955400.0,NL807369196B020,,1,HEERENVEEN,1670AB,NL,Stichting,,
636952053.0,,,9,AMSTERDAM,1700AG,NL,Publiekrechtelijke rechtspersoon,,
636901459.0,NL001801582B01,7245003K5PZEGFXMBA77,18,AMSTERDAM,282800002,NL,Stichting,no,724500E24KYRBY9SEY46
636954765.0,NL003148348B01,,9,MÃ¼lheim an der Ruhr,3299ZH,DE,,,724500TGYVD4PLPL3402
636753948.0,               ,,                                   ,HUNSEL,3370AD,NL,,no,
636788326.0,NL807089758B01,,93,'S-GRAVENHAGE,9670 AD   ,NL,Publiekrechtelijke rechtspersoon,no,724500EGPDNPXUORT809
,NL814933737B01,,10,ODIJK,2851XM,NL,,no,
636906310.0,NL001801338B01,,1,LUXEMBOURG,2500 EE   ,NL,Naamloze Vennootschap blijkens statuten structuurvennootschap,YES,
636955818.0,NL002313832B033,,78,Dresden,6400AP,NL,Stichting,no,
636946738.0,,,200,ASSEN,3400AA,NL,Naamloze Vennootschap met gewone structuur,,G8ZTNESVNKW4NN761W05
636904075.0,               ,,93050,'S-GRAVENHAGE,7390AA,NL,Publiekrechtelijke rechtspersoon,no,72450097XLJZ5IE14536
636901165.0,,,                                   ,ZEVENBERGEN,7490AC,NL,,yes,549300Q3DX11LN548072
636901653.0,,,4,LELYSTAD,2501 CN   ,NL,INC,,
636948625.0,NL851055618B01,,34,ROZENBURG,3430EM,NL,Vereniging met volledige rechtsbevoegdheid,no,724500P9QIDL9OH9T829
636948889.0,NL002861331B01,724500A02ODNAGA66847,51,ENKHUIZEN,6811CA,NL,AG,no,724500MBLM1OCWYHIK57
636905764.0,NL805013027B01,,22,HARDINXVELD-GIESSENDAM,7000AD,NL,,no,
636951944.0,NL002769980B01,,                                   ,Aachen,7000AC,NL,Stichting,no,
,               ,,102,ENSCHEDE,2504BB,NL,Stichting,no,
3000000001.0,NL002637261B01,RR3QWICWWIPCS8A4S074,15,'S-GRAVENHAGE,3770AB,NL,Publiekrechtelijke rechtspersoon,no,
636955923.0,NL001997233    ,724500MBLM1OCWYHIK57,37,CASTRICUM,3840AB,NL,Stichting,no,
636940225.0,NL804792288B01,,595,DOORN,75013,NL,Stichting,no,
636900169.0,NL812571447B01,724500W92LX9JP45QB43,TORONTO-DOMINION CENTRE,MARGRATEN,1077XX,NL,Vereniging met volledige rechtsbevoegdheid,no,
636953459.0,NL001018267B01,,30,ZEVENBERGEN,3008EA,NL,,no,
,,7245000YZFZXAWRHLA74,                                   ,EDE,7521PP,NL,Stichting,,
636900444.0,NL001436399B01,,                                   ,DOETINCHEM,3500HB,NL,Publiekrechtelijke rechtspersoon,no,
636914720.0,NL002768860B01,,50,GROU,63452,NL,Publiekrechtelijke rechtspersoon,no,724500Z77MA7CFZPL157
636906736.0,NL002008221B01,,13,'S-GRAVENHAGE,9200AP,NL,,no,724500YK457EPQZ5EK93
636954153.0,NL003022614B01,,                                   ,AMSTERDAM,2300PC,NL,Stichting,no,
636909379.0,NL813585983B01,,1,UTRECHT,3130EB,NL,Vereniging met volledige rechtsbevoegdheid,no,724500T5KT9MICMGN986
636957381.0,               ,,1,SCHIEDAM,3340AA,NL,Stichting,no,724500OHYNDT9OY6Q215
636916294.0,               ,724500YXDPFZIWX05A08,32,WAGENINGEN,7730AC,NL,Publiekrechtelijke rechtspersoon,no,
,NL804038740B01,,200,GROOTEGAST,5100AC,NL,Publiekrechtelijke rechtspersoon,no,
636955206.0,NL808304380B01,,41,WORMER,3240AA,NL,Publiekrechtelijke rechtspersoon,no,
,NL817291295B01,,1,MIDDELHARNIS,3840AC,NL,Stichting,no,
636902749.0,,,17,APELDOORN,5654NN,NL,Publiekrechtelijke rechtspersoon,no,
636912388.0,NL002608327B01,,65,ROTTERDAM                          ,1800GD,NL,Stichting,yes,
636957837.0,NL816963216B01,724500QRRAA5MHNP3D18,7,'S-GRAVENHAGE,9750AA,NL,Publiekrechtelijke rechtspersoon,no,
636903354.0,NL002539780B01,,29,ENSCHEDE,2002CB,NL,Vereniging met volledige rechtsbevoegdheid,no,
497082373.0,               ,,60,MARGRATEN,1130 AD   ,NL,,yes,
636948439.0,NL803308759B01,,BUILDING B  21ST FLOOR             ,AMSTERDAM,4130ED,NL,Publiekrechtelijke rechtspersoon,no,
636911306.0,NL811336487B01,,5,WIJK BIJ DUURSTEDE,1970 AJ   ,NL,Stichting,yes,724500V6I5WC4ZEYER92
636917088.0,NL818837408B01,,200,VIANEN,3890AB,NL,Publiekrechtelijke rechtspersoon,,724500RD8GQPTMBJFW55
636787052.0,NL001299992B01,724500L2I289URG9C888,123,TIEL,1531AD,NL,Stichting,no,
636785432.0,NL806349128B01,,381,HAREN GN,3800EA,NL,Stichting,no,
636955109.0,               ,,94,HENGELO,9400RA,NL,Publiekrechtelijke rechtspersoon,no,
636945022.0,NL805307631B01,,5,URK,3151GC,NL,Stichting,no,
636960005.0,NL002790932B01,,1,HILVERSUM,4131NJ,NL,Stichting,no,
636785033.0,NL804242458B01,,20,DEVENTER,1000CK,NL,A.G.,no,
636952991.0,NL805330689B01,,20,RIJEN,1000AZ,NL,Stichting,no,
636789403.0,               ,,1,ENSCHEDE,6040AX,NL,Stichting,no,
636957624.0,               ,,10,NIJKERK,4190CC,NL,Publiekrechtelijke rechtspersoon,no,
636912337.0,NL001600278B01,,1,Siegen,4250DA,NL,Stichting,no,
636951154.0,NL803584490B01,,                                   ,AMSTERDAM,5340AD,NL,,no,
636901335.0,NL812306260B01,,87,CHUO-KU,1077XX,NL,Publiekrechtelijke rechtspersoon,no,724500XQ2R1SXCPHL137
636908097.0,NL007700532B01,,57,AMSTERDAM,6400AA,NL,Stichting,yes,
636949532.0,NL002972190B01,,61,EINDHOVEN,1200BZ,NL,Stichting,yes,
636914011.0,               ,,                                   ,ZETTEN,2980GC,NL,Stichting,no,549300CHB5Q2591H4S21
636751651.0,               ,724500L5RQXGSLDE9205,70,DIDAM,3180AH,NL,,no,
636787613.0,               ,,50,SCHOORL,3990GJ,NL,Stichting,no,
636904180.0,               ,KX1WK48MPD4Y2NCUIZ63,17,LANDSMEER,8000AP,NL,Publiekrechtelijke rechtspersoon,no,
636900878.0,NL852142729B01,,50,SINT-MICHIELSGESTEL,8911AA,NL,Stichting,no,
636952509.0,               ,,32,DORDRECHT,4250DA,NL,Stichting,no,724500REG3MAFA9IZH89
636916812.0,NL808373845B01,,16,BAARN,6960AB,NL,Naamloze Vennootschap met gewone structuur,no,724500AM4MYHCTRLF551
636785130.0,NL002644691B01,,                                   ,TILBURG,6580AZ,NL,,no,
636951472.0,NL002650824B01,,27,Wuppertal,2420AC,NL,Stichting,,
636954439.0,NL008187551B01,,10,AMERSFOORT,53111,NL,,no,724500AIUX0GHEQMMC62
636755797.0,               ,724500DURHYH46YIJB92,40,DOETINCHEM,1200AC,DE,Publiekrechtelijke rechtspersoon,no,7245000YZFZXAWRHLA74
636953327.0,NL003069187B01,,                                   ,Bielefeld,6802EG,NL,Stichting,no,
636788415.0,               ,,                                   ,NIJMEGEN,9350AC,NL,Stichting,no,724500LDSY00LVDSGP57
636935205.0,NL807288111B01,724500QFZ1HKT91AG455,6,HARDERWIJK,4000HH,NL,Stichting,no,
636902617.0,NL802409210B01,,50,ENSCHEDE,5706LR,NL,,no,
636902315.0,NL003566213B01,,630,BOXTEL,3800AP,GB,Naamloze Vennootschap blijkens statuten structuurvennootschap,no,
,NL817427053B01,,51,BUNNIK,7500BH,NL,Publiekrechtelijke rechtspersoon,no,7245008XI8AJNDGC4923
636933202.0,NL810248177B01,,2,WOUBRUGGE,1000AZ,NL,Stichting,no,
636959414.0,NL801382075B01,,                                   ,Hannover,8430AA,NL,Stichting,no,
636900770.0,NL854275319B01,,42,LONDON,8560AA,NL,Stichting,no,
636956202.0,NL002608182B01,724500LOBG9WA981PI12,                                   ,GRONINGEN,2291HN,NL,Publiekrechtelijke rechtspersoon,no,
,NL806300917B01,724500LDSY00LVDSGP57,                                   ,NEW YORK                           ,2215ZJ,NL,Besloten Vennootschap met gewone structuur,no,724500F6WOWA8528KP66
636908321.0,NL002650629B01,E57ODZWZ7FF32TWEFA76,                                   ,'S-GRAVENHAGE,5700AZ,NL,Naamloze Vennootschap blijkens statuten structuurvennootschap,no,724500YXDPFZIWX05A08
636956520.0,               ,,1,WEESP,67059,NL,Stichting,,
636758397.0,NL812296473B01,724500EKPNPWLVSZ0Y91,415,TIEL,5460DA,NL,Stichting,no,724500FMYGN8V96H2F47
636950646.0,NL817009085B01,GGDZP1UYGU9STUHRDP48,143,RIDDERKERK,4920AB,NL,Publiekrechtelijke rechtspersoon,no,724500TM94XWWE4CE110
636960935.0,NL003345063B01,,2,UTRECHT,2545AA,NL,Publiekrechtelijke rechtspersoon,no,
636908240.0,NL813361576B011,724500T96NNTFORH0B27,                                   ,HARDENBERG,4251LP,NL,Publiekrechtelijke rechtspersoon,,724500M073YRU2PJIE27
636956105.0,NL001902805B01,,                                   ,AMERSFOORT,8901BR,NL,Publiekrechtelijke rechtspersoon,,
636903516.0,NL003524905B01,7245008HM36HWJAP1N90,16,Kaiserslautern,9636ZG,NL,Naamloze Vennootschap met gewone structuur,no,
636916693.0,               ,,2,FARMSUM,90403,DE,Besloten Vennootschap met gewone structuur,no,
636912280.0,NL002613463B01,,5,AMSTERDAM,3421CT,NL,Stichting,no,
636949427.0,NL002489247B01,,4,ENSCHEDE,4870GA,NL,,no,724500NMESK66LA07M16
636920941.0,NL803785483B01,72450073KUHZI5AX2V94,6,'S-GRAVENHAGE,4870AC,NL,Stichting,no,
636951278.0,NL008019538B01,,1,HAARLEM,3300BL,NL,Publiekrechtelijke rechtspersoon,no,
636934675.0,NL812535303B01,,8,ZÃœRICH,2800AC,NL,Stichting,no,
636937135.0,NL002882632B01,,                                   ,KINDERDIJK,6201BZ,NL,Stichting,no,724500SMK4C7TBEDRM50
636787834.0,NL002691401    ,,6,DOETINCHEM,7500AA,NL,,no,
636935299.0,NL813847114B01,,888,LEIDEN,8160AP,NL,Stichting,no,
636906035.0,NL818816351B01,7245007V2S3C5GCIER28,50,Bochum,9100AA,NL,Publiekrechtelijke rechtspersoon,no,
636934381.0,               ,,                                   ,SPIJKENISSE,2160AC,NL,Stichting,no,
636913341.0,               ,,3,DORDRECHT,5041AB,NL,,yes,
636955605.0,NL002954795B01,,1,ZIERIKZEE,4380GV,NL,Stichting,no,
636786242.0,NL001801491B01,,                                   ,HELMOND,1097,NL,Besloten Vennootschap met gewone structuur,no,724500I29ACDNE98I788
,               ,,37,TORONTO                            ,3500GV,NL,Publiekrechtelijke rechtspersoon,no,
636904512.0,NL806462127B01,,2,APPINGEDAM,7670AE,NL,Publiekrechtelijke rechtspersoon,no,
,               ,,4,ALKMAAR,3500CE,NL,Stichting,no,
636938530.0,               ,,10,ROTTERDAM,3770AB,NL,Stichting,no,72450033QE6OMGVUCP08
,               ,PT3QB789TSUIDF371261     ,88,PURMEREND,2410AK,NL,Vereniging met volledige rechtsbevoegdheid,no,
636956458.0,NL804644433B01,,1,GORINCHEM,9054LB,NL,Publiekrechtelijke rechtspersoon,yes,724500NXZQYYAWOQQ893
636940144.0,NL001902933B01,,10,OsnabrÃ¼ck,3240AD,NL,Stichting,no,
,NL006199793B01,,                                   ,Frankfurt am Main,5960AA,NL,Stichting,no,
,NL003575482B01,,7,'S-GRAVENHAGE,2600AB,NL,Stichting,no,
636847748.0,NL002623390B01,724500E2X73EKMDFZD40,230,HEERDE,5200ME,NL,Stichting,,
636997626.0,NL815080268B01,,2,DELFT,3000CJ,NL,Publiekrechtelijke rechtspersoon,,
636908143.0,NL003105301B01,,1,'S-GRAVENHAGE,5400AB,NL,Stichting,no,
636948854.0,               ,,10,LONDON,60311,NL,Publiekrechtelijke rechtspersoon,,
636944816.0,NL003555264B01,,1,SITTARD,3800DB,NL,Naamloze Vennootschap met gewone structuur,no,
636939219.0,               ,,3,STOLWIJK,          ,NL,Stichting,no,
636993396.0,NL809249182B01,,18,VEENENDAAL,1970AL,NL,,no,724500ZE79173UG5GG17
636955133.0,               ,,2,'S-GRAVENHAGE,9350AC,NL,Besloten Vennootschap met gewone structuur,no,
636903583.0,               ,,30,HOORN,3700AA,NL,GMBH,no,
,NL009727152B01,,50,BEVERWIJK                          ,40213,NL,Besloten Vennootschap blijkens statuten structuurvennootschap,,
636960587.0,NL803430553B01,,70,ROERMOND,2280HH,NL,Publiekrechtelijke rechtspersoon,no,
636788024.0,NL009424945B01,,                                   ,LEIDEN,29221,NL,Stichting,no,
636905977.0,               ,,2,UTRECHT,9351BP,NL,Stichting,,724500XJ98P30FNG1N29
636901818.0,NL001910693B01,,1,BEMMEL,          ,NL,Stichting,no,
,NL805224014B01,,33,ONBEKEND                           ,5400AS,NL,Stichting,,
636914542.0,NL002220647B01,724500QNQHN12UHNWK75,1,LONDON,3940AH,NL,Publiekrechtelijke rechtspersoon,,72450009VOER2GXLR648
636965031.0,               ,,18,'S-GRAVENHAGE,7500AA,NL,Stichting,no,O4QK7KMMK83ITNTHUG69
636933938.0,NL001101857B01,,                                   ,ZEIST,1790AE,NL,Stichting,no,
636933733.0,NL854793458B01,724500V6I5WC4ZEYER92,35,LANGEZWAAG                         ,5690AA,NL,Stichting,,
636966133.0,NL801698285B01,,1,OOSTERWOLDE,2509LM,NL,Stichting,no,
636948862.0,NL804262688B01,,                                   ,ROTTERDAM,3113AM,NL,Stichting,no,
636904202.0,NL001906562B01,72450094DSB7Y3V96P12,                                   ,WASSENAAR,1940AB,NL,Stichting,,
636910393.0,NL003424650B01,,                                   ,LEIDEN,8004DA,DE,,no,
,NL002592721B01,,175,'S-GRAVENHAGE,5140AE,DE,A.G.,no,O4QK7KMMK83ITNTHUG69
636937348.0,NL001932603B01,E58DKGMJYYYJLN8C3868,1,IJMUIDEN                           ,7240AC,DE,Vereniging met volledige rechtsbevoegdheid,no,
636997787.0,               ,,1021,ASSEN,6710BD,NL,Besloten Vennootschap met gewone structuur,no,
636750604.0,NL855010496B01,,36,SASSENHEIM,3083AN,DE,Stichting,yes,724500XV3LZI1DYNX661
636954722.0,NL001999266B01,,21,LONDON                             ,5250AA,NL,,no,724500FMYGN8V96H2F47
636949028.0,NL002528642B01,,16,MAASLAND,3400AB,NL,Publiekrechtelijke rechtspersoon,no,
636952479.0,               ,724500YUUZWCRQXZ9R30,32,JOURE,2511 CW   ,NL,Stichting,yes,724500VZY2RAPV16IQ57
,               ,724500WOZH6XWX3LA427,                                   ,GEMERT,5248JT,BE,Publiekrechtelijke rechtspersoon,no,
636901904.0,NL001268193    ,,150,GELDROP,2700AT,NL,Stichting,no,
636911047.0,NL002619374B01,,,AMSTERDAM,3260BA,NL,Publiekrechtelijke rechtspersoon,no,
636939480.0,NL001608836    ,,39,UTRECHT                            ,4460MC,NL,Publiekrechtelijke rechtspersoon,no,
636935124.0,NL002508369B064,,1,SINT ODILIÃ‹NBERG,3508AA,NL,Stichting,no,
636905535.0,               ,,1,LONDON,8880AA,NL,B.V.,yes,724500343JO6JI70U533
636953106.0,NL003150677B01,,222,'S-GRAVENHAGE,2324KS,NL,Stichting,no,
636957810.0,NL001320257    ,,2,TORONTO,3014 GN   ,NL,Publiekrechtelijke rechtspersoon,no,
636758435.0,NL009180618B01,,10,ZEIST,1000EA,NL,Stichting,no,
636936392.0,NL802608255B01,724500T5KT9MICMGN986,1,BREDA,3313EM,NL,Stichting,no,724500CE4I29NUF82T05
636912825.0,               ,,38,WAALWIJK,60326,NL,CoÃ¶peratie U.A. met gewone structuur,no,
636905888.0,NL002566187B01,,                                   ,AMSTERDAM,1620AN,NL,Stichting,no,
636957829.0,NL001584108B01,,1,LONDON,5280AV,NL,Stichting,no,
636955591.0,               ,,4,ROTTERDAM,7500KA,NL,Stichting,no,72450015R9J127FJF789
636957292.0,NL002529154B01,,36,DELFT,92120,NL,Publiekrechtelijke rechtspersoon,no,
636968200.0,NL005024249B025,,1,MECHELEN,7070AC,NL,Vereniging met volledige rechtsbevoegdheid,no,
636939553.0,               ,,11,UDEN,2600GA,NL,Stichting,no,7245001W3U8L4PG0M412
636760715.0,NL001037997B01,,10,BREDA,1000AS,NL,Stichting,no,
636848329.0,               ,,2,DELFT,5600RB,NL,Publiekrechtelijke rechtspersoon,no,
636956156.0,NL001255861B034,,                                   ,LONDON,2502KM,NL,Stichting,no,
636904938.0,NL819625711B01,,50,'S-GRAVENHAGE,2600ME,NL,Stichting,yes,
,NL003586893B01,724500YREZOMRVLP0597,3,BERGSCHENHOEK,9703LR,NL,Publiekrechtelijke rechtspersoon,no,
636953548.0,NL001892009B01,,,HELMOND,10017,NL,Stichting,yes,
629952116.0,               ,,6,HILVERSUM,3503RB,NL,Stichting,no,
636997723.0,NL820151130B01,,219,ZWOLLE,75008,NL,Stichting,no,724500VLXQUMMD5BJB61
636936953.0,NL820646660B01,,200,ST.-ANNAPAROCHIE,1620AD,NL,Stichting,,
636906302.0,NL001300015B01,,4,TIEL,6040KH,NL,ST,no,72450062CSO2OFSZ8A25
636952274.0,NL002955994B01,,1,Hagen,2500GH,NL,Stichting,no,
636964868.0,NL002688281B01,,1,AMSTERDAM,1510AA,NL,Stichting,no,
636757676.0,NL001023160B01,,                                   ,BEDUM,5330GA,NL,S.P.A.,no,
636933954.0,NL813586008B01,,50,VLAARDINGEN,6710BS,NL,,no,724500T9M7BUKQEGKF76
636953017.0,               ,,50,TERNEUZEN                          ,1000EA,NL,Publiekrechtelijke rechtspersoon,,72450073KUHZI5AX2V94
636954870.0,NL008856898B01,,1,STRAMPROY,2350AA,NL,Besloten Vennootschap met gewone structuur,no,
636906442.0,NL851375777B01,,7,ALKMAAR,9400AA,NL,Publiekrechtelijke rechtspersoon,no,724500KCQ6Y82LM9WZ10
,               ,,11,ALMELO,2501CB,NL,Publiekrechtelijke rechtspersoon,no,
636904164.0,               ,,                                   ,Witten,2511BT,NL,Stichting,no,
636904245.0,NL853378502B01,,1,WATERINGEN,1800GD,NL,,no,724500YQE9TQAX5YDE06
636938387.0,NL001903664B01,724500LSISMG93G5CR27,,ROTTERDAM,4690AB,NL,Stichting,no,
636955257.0,NL002581966B01,,303,AMSTERDAM,5750AH,GB,Naamloze Vennootschap met gewone structuur,no,724500GHQB1E37MSK552
,,,10,GENNEP,E14 4QA,GB,Vereniging met volledige rechtsbevoegdheid,no,724500QRRAA5MHNP3D18
636900991.0,NL001608320B01,,2,ROERMOND,6369ZG,NL,Stichting,no,
636805964.0,447 2492 35 ,,                                   ,HILVERSUM,1097JB,NL,Vereniging met volledige rechtsbevoegdheid,no,
636945162.0,NL807548765B01,,1011,HOUTEN,1800 BC   ,NL,Publiekrechtelijke rechtspersoon,no,
636907058.0,NL805598960B01,,12,MADE,3068EC,NL,Stichting,no,
636900355.0,NL005062421B01,,1,HILVERSUM,3360AA,NL,Naamloze Vennootschap met gewone structuur,no,
636950816.0,NL002853814B01,,101,HOEK VAN HOLLAND,50667,NL,Besloten Vennootschap met gewone structuur,no,
636943925.0,NL805432759B01,,                                   ,WINTERSWIJK,6590AD,NL,Stichting,no,724500A02ODNAGA66847
636953149.0,NL809447964B01,,52,NUNSPEET,8080AB,NL,Publiekrechtelijke rechtspersoon,YES,
636920518.0,               ,724500YEQYVNXW7UTH73,1,DOORN,3830AK,NL,Publiekrechtelijke rechtspersoon,no,
636953807.0,NL855566036B010,,300,OOSTBURG,67657,NL,Stichting,no,724500PPVB2MMDXBLG29
636906744.0,NL002632147B01,,2,EINDHOVEN,6050AA,NL,Publiekrechtelijke rechtspersoon,no,
636951871.0,               ,,11,WIJK EN AALBURG,9700PB,NL,Publiekrechtelijke rechtspersoon,no,
636914674.0,NL002903817B01,,                                   ,TERNEUZEN,4530AG,NL,Stichting,no,
636933717.0,               ,,54,ZEELAND,7650AA,NL,,no,
636961141.0,NL006850935B01,,200,EINDHOVEN,1000BA,NL,Publiekrechtelijke rechtspersoon,no,
636948560.0,NL808514374B01,,5,Offenbach am Main,41061,NL,Stichting,no,724500EXRNGDOM8VKL50
636913120.0,NL808174071B01,,212,EERBEEK,5260CB,NL,Stichting,no,
636960560.0,NL808501847B01,,2,DEN HOORN,2701AA,NL,Naamloze Vennootschap blijkens statuten structuurvennootschap,no,
636911144.0,NL804575071B01,,10,ELBURG,56564,NL,Publiekrechtelijke rechtspersoon,no,
636998428.0,NL809375515B01,,10,WAGENINGEN,3583CW,NL,,no,
636954374.0,NL003711031B01,,1,PARIS,9480AA,NL,Stichting,no,
636955370.0,NL803033023B01,,14,NIJVERDAL,7650AA,NL,Stichting,yes,
636911489.0,NL802258098B01,,25,LEIDEN,3000CH,NL,Stichting,no,724500L5RQXGSLDE9205
636949656.0,               ,7245004SJOZSA4M32232,1,HULST,8900AA,NL,Publiekrechtelijke rechtspersoon,no,724500O4GUVTGSZEU248
636949230.0,NL806098351B01,1VUV7VQFKUOQSJ21A208,70,MAASTRICHT,2600AD,NL,Stichting,no,
636950719.0,NL809249091B01,,66,HAAREN,5280DA,GB,Stichting,no,
636959015.0,               ,,                                   ,LEIDERDORP,2740AC,NL,Publiekrechtelijke rechtspersoon,no,
636912108.0,NL002632275B01,,                                   ,TERNEUZEN,3011,NL,,no,
636903982.0,NL001569417B010,,13,SCHIEDAM,2350AA,NL,Stichting,,
636909093.0,NL808491878B01,,65,AMSTELVEEN,4330ZW,NL,Besloten Vennootschap met gewone structuur,no,
636906426.0,NL807260782B01,724500J6LZAXQSBEEG59,374,'S-GRAVENHAGE,3880AE,NL,N.V.,no,
636958728.0,NL002730819B01,,412,Charlotte,51379,NL,Stichting,no,724500K75N89D2JUQH17
636933903.0,NL003045250B01,,15,AMSTERDAM,6202XA,NL,Stichting,,
636950700.0,NL003031342B01,,20,VOLLENHOVE,3940AC,NL,Stichting,no,724500LYT7PM9EYKCH91
636908879.0,NL802199835B01,,42,MIDDELBURG,1300EG,DE,Stichting,no,
636755878.0,NL002639671B01,,1,DENEKAMP,5240BB,NL,Stichting,no,
636902072.0,NL818180833B01,724500D54MXEPUA6S279,                                   ,OUDENBOSCH,7500AA,NL,Publiekrechtelijke rechtspersoon,,
,               ,,50,ROERMOND,8900HM,DE,Publiekrechtelijke rechtspersoon,,
,               ,,7,RIDDERKERK,7500AA,NL,Publiekrechtelijke rechtspersoon,,
636949117.0,NL002308927B01,,35,DORDRECHT,44623,NL,ST,no,
636916359.0,NL001709124B01,,                                   ,WEST-TERSCHELLING,          ,NL,Publiekrechtelijke rechtspersoon,no,
636901378.0,NL001955779B01,724500YK457EPQZ5EK93,1,ALPHEN AAN DEN RIJN,3350AA,NL,Stichting,no,
636959538.0,               ,222100W4EEAQ77386N50,                                   ,MIDDELBURG,4780AB,NL,Publiekrechtelijke rechtspersoon,no,
636949516.0,NL813518180B01,,21,'S-GRAVENHAGE,6900AA,NL,Stichting,no,
,NL001326132B01,,12,ALKMAAR,3316ES,NL,Stichting,no,
,NL803936023B01,,1-9-1 NIHONBASHI,IJMUIDEN,1815AC,NL,Publiekrechtelijke rechtspersoon,yes,
,NL002734497B01,,1,VIERLINGSBEEK,1000AZ,NL,,no,7245005CCNMBO510F829
636756106.0,               ,724500CP9U9PORGZBG31,                                   ,OISTERWIJK,75013,NL,Stichting,no,
636956849.0,NL002601710B01,,                                   ,LONDON,1213PK,NL,Naamloze Vennootschap blijkens statuten structuurvennootschap,no,
636757269.0,,,1,HEERENVEEN,6961DT,NL,Stichting,yes,72450079PB1ENKTLVU61
636906590.0,NL002888774B01,,22,EERSEL,3741RS,NL,Stichting,,
636948765.0,NL005794250B01,DG3RU1DBUFHT4ZF9WN62,825,GOES,N20 0PB,NL,Stichting,yes,
636939227.0,NL002842403B01,,25,VEENENDAAL,M5J 2J5,DE,Vereniging met volledige rechtsbevoegdheid,yes,
636906523.0,NL809266660B01,724500FMA0HAFG5IO571,44,KÃ¶ln,2509AE,NL,Stichting,no,724500ZF7E7E95AEO664
636912442.0,NL810965148B01,,110,WADDINXVEEN,5201GA,NL,Stichting,no,
636901122.0,NL803326907B01,G8ZTNESVNKW4NN761W05,1,Frankfurt am Main,5600AJ,CH,Stichting,no,
636913325.0,               ,7245007EK5B4V1NMGM79,1,ROTTERDAM,2500DJ,NL,Stichting,no,724500CG1BGGPZA6RZ42
636964817.0,NL808340396B01,,2,RAAMSDONKSVEER,2553RJ,NL,Publiekrechtelijke rechtspersoon,no,
636955354.0,               ,,6,DOESBURG,3900AB,NL,Publiekrechtelijke rechtspersoon,yes,
636914682.0,NL001160849B01,,100,OOSTERHOUT,1000AZ,NL,Stichting,no,
636909565.0,NL002633826B01,,4,ALPHEN AAN DEN RIJN,6201BD,DE,Stichting,no,
636959937.0,               ,,6,VELSERBROEK,2553RJ,NL,Stichting,no,7245000MTC2AI3JEBD03
,NL002637522B01,,                                   ,BUNSCHOTEN-SPAKENBURG,5900AR,NL,Besloten Vennootschap met gewone structuur,no,72450040C5AO7ZIAX327
636947408.0,NL810912314B01,,                                   ,TILBURG                            ,57080,NL,Publiekrechtelijke rechtspersoon,no,
636916332.0,NL809245206B01,,1,LONDON,3200AA,NL,PLC,yes,
636935507.0,               ,,3,NOORD-SCHARWOUDE,3135BK,NL,,no,
636938719.0,NL811347643B01,,2,UTRECHT,7920AA,NL,Stichting,no,
636954447.0,               ,,45,ZIERIKZEE,8200AE,NL,ST,no,
,NL800471854B01,,                                   ,Siegen,60313,NL,Publiekrechtelijke rechtspersoon,no,724500QFZ1HKT91AG455
636956180.0,               ,,40,COEVORDEN,8180AB,NL,Publiekrechtelijke rechtspersoon,no,
636956075.0,NL817484772B01,,1,'S-HERTOGENBOSCH,2670AD,NL,Stichting,no,724500UJ4RZ10CV99Z30
636784878.0,NL003028112    ,,10,ROERMOND,1096BA,NL,Stichting,YES,724500E6BD2EFLJEWC43
636755010.0,NL002621563B01,,1,HARDERWIJK,3840AK,NL,,no,724500VQ7AZQU6LM8K28
636753352.0,NL807170306B01,,1,ZÃœRICH,8500AC,DE,Stichting,no,
636755517.0,NL820300822B01,,                                   ,EDE,2965 AD   ,NL,Stichting,no,724500Z1D693KODL7205
,NL002008038B01,,10,BARNEVELD,5710AA,NL,ST,no,
636789209.0,NL814409325B01,,190,ROTTERDAM,2300AG,NL,Stichting,no,
636936538.0,NL854781584B01,,25,DEVENTER,3508SC,NL,,yes,7245004SJOZSA4M32232
636902994.0,               ,5493003SPEWN841SWG39,40,ZOETERWOUDE,5410AA,NL,,no,724500EKPNPWLVSZ0Y91
636901718.0,NL002941211B01,,52,Munster,8200AB,NL,Publiekrechtelijke rechtspersoon,yes,72450087CQHEMXLVLU70
636755525.0,NL003067889    ,,14,VIANEN,6013RK,NL,Naamloze Vennootschap met gewone structuur,no,
636902676.0,NL001160813B01,7245008733FYT2GE8898,51,BERGAMBACHT,2650AA,NL,Publiekrechtelijke rechtspersoon,,
636949079.0,NL002527650B01,7245000F0IYZJQWNNO40,2,VENLO                              ,6130MB,NL,Stichting,no,
636757331.0,               ,,1,LONDON,8100AD,NL,Stichting,no,
500317143.0,NL001103465B01,,81,GEMERT                             ,1620AR,NL,Publiekrechtelijke rechtspersoon,no,
636902331.0,NL002815126B01,,26,GRONINGEN,E14 5AQ,NL,Naamloze Vennootschap met gewone structuur,no,
636909891.0,               ,,50,ENSCHEDE,1940 AL   ,DE,Stichting,no,
636906337.0,NL001710369B01,,238,HAARLEM,6501BD,NL,Publiekrechtelijke rechtspersoon,,724500Q2L2VEYFJCFA83
636947009.0,NL803630050B01,,3,EINDHOVEN,5000LH,NL,Stichting,no,
636907945.0,               ,,10,BREDA,6040KG,NL,,no,724500TZ60HPOU80MK62
636950603.0,               ,724500N9DASRREM7U324,31,ZEIST,M5J2W7    ,NL,Stichting,no,
636924718.0,NL002569036B01,,22,WINTERSWIJK,4285ZG,NL,Publiekrechtelijke rechtspersoon,no,
636906515.0,               ,,7,LELYSTAD,80538,GB,Besloten Vennootschap met gewone structuur,no,724500DWE10NNL1AXZ52
636752550.0,               ,7245001W3U8L4PG0M412,1,MÃ¶nchengladbach,8900JA,NL,,no,
636955745.0,               ,72450082A2L8I9I93F74,2,OLDENZAAL,1200AC,DE,Publiekrechtelijke rechtspersoon,no,
636916537.0,NL002118907B022,72450009VOER2GXLR648,501,WIJHE,3130AE,NL,Stichting,no,
636949389.0,NL008128649B01,,8,AMSTERDAM,4817JW,NL,Publiekrechtelijke rechtspersoon,no,
636936872.0,NL002776911B01,,                                   ,Frankfurt am Main,9765BL,NL,Stichting,,7245005BJHZJV8UZWE90
636906574.0,NL001808059    ,,70,TETERINGEN,3900BC,NL,Stichting,,
636916995.0,               ,,65,BAARN,5060GA,NL,Stichting,no,
636968014.0,               ,,1,TORONTO  ONTARIO                   ,5211KM,NL,Stichting,no,724500OFBMSARAPYZX92
636945669.0,               ,,100,ZÃœRICH,9200 AM   ,NL,Stichting,no,
636939316.0,NL002549943B01,,10,OOSTERHOUT,6230AC,DE,A.G.,no,
636916553.0,NL004195152B01,,3,RAALTE,5360 AA   ,GB,Stichting,no,724500CTIFLVPOE1QH25
636902528.0,               ,,55,TILBURG,6093ZG,NL,Stichting,no,O4QK7KMMK83ITNTHUG69
,               ,,75,PURMEREND                          ,3800CE,NL,Publiekrechtelijke rechtspersoon,no,
636916235.0,               ,,                                   ,EERBEEK,4530AA,NL,,,
,NL002995542B01,,23,DEVENTER,7390AA,IT,Publiekrechtelijke rechtspersoon,no,
636906752.0,NL009787471B01,724500SCJKY3JGCW5E50,65,Detmold,1000AE,DE,Stichting,no,724500A0I1H2IB0JQ388
636904490.0,               ,724500XV3LZI1DYNX661,9,GELDERMALSEN,4940GA,DE,Stichting,no,7245008733FYT2GE8898
636920607.0,               ,,6,AMSTERDAM,1990AC,DE,,no,
699787076.0,NL803104911B01,,36,AMSTERDAM,1440 AG   ,NL,Besloten Vennootschap met gewone structuur,no,
636964655.0,NL002842506B01,7245008KFR1B60F3XD79,                                   ,NUENEN,2550,NL,Publiekrechtelijke rechtspersoon,no,7245004SJOZSA4M32232
636901726.0,NL809615873B01,                    ,1,LONDON,EH12 1HQ,NL,Stichting,,
,NL001567834B01,,1,HEERLEN,6940BB,NL,Stichting,no,
636903753.0,NL002821916B01,,25,MAASDAM,8226LH,NL,Publiekrechtelijke rechtspersoon,no,
636785645.0,NL002892546B01,,7,UTRECHT,1440AA,NL,ST,no,
636900851.0,NL801564426B01,,25,GOIRLE,2820AB,NL,Stichting,no,
636955761.0,NL002000155B01,,1,ZWOLLE,59140,NL,Stichting,no,549300Q3DX11LN548072
636901017.0,NL003799906B01,,6,HARDERWIJK,2400CA,NL,Stichting,no,
636954749.0,NL002813233B01,,11,LELYSTAD,3000BP,NL,Stichting,no,
636920534.0,               ,,1,LEEK,1000EA,NL,Stichting,no,
636906485.0,NL810523711B01,,1,SNEEK,8130AA,NL,,no,
636955478.0,NL007861655B01,,                                   ,Kontich,8860AC,NL,Stichting,no,
636934152.0,NL800252317B01,724500L6MXU6RPKVXH57,77,HARLINGEN,1000BV,NL,Stichting,no,
636933601.0,NL002848296B01,,1,MIDDELHARNIS,1096AC,NL,Publiekrechtelijke rechtspersoon,no,
636900274.0,NL007102628B01,,1,HENDRIK-IDO-AMBACHT,6367ZG,NL,Publiekrechtelijke rechtspersoon,no,
636900495.0,NL002548094B01,,1,ZWOLLE,6501BB,NL,Publiekrechtelijke rechtspersoon,no,724500HSLJ9EQR01S383
636911411.0,               ,,71,LEEUWARDEN,5660GA,NL,,no,
636913716.0,               ,,                                   ,DRUNEN,2400CD,NL,CVBA,no,
636913619.0,NL001600291B01,,21,ETTEN-LEUR,7080AA,NL,Publiekrechtelijke rechtspersoon,no,
636914550.0,               ,,10,MEERSSEN,7000AD,NL,,no,
636917096.0,NL004112519B01,724500PX4DE9YRLUCS08,250,BREUKELEN,7400AA,NL,Publiekrechtelijke rechtspersoon,no,
636910954.0,NL006125712B01,,28,SLIEDRECHT,1800AH,NL,Publiekrechtelijke rechtspersoon,no,
636903737.0,NL003621285B01,,1,OUDEWATER,29633,NL,Stichting,no,O4QK7KMMK83ITNTHUG69
600179796.0,NL805237501B01,,                                   ,RIJEN,EC4R 3AB,NL,Stichting,no,
,               ,ES7IP3U3RHIGC71XBU11,1,RIJEN,2003BR,FR,Publiekrechtelijke rechtspersoon,,
636903052.0,NL001825100    ,,51,HAARLEM,7500AN,NL,Publiekrechtelijke rechtspersoon,no,
636913538.0,               ,,                                   ,S HERTOGENBOSCH                    ,5821BB,DE,PLC,no,
636902684.0,NL002508631B01,7245008W76INVVU8V754,1,BENEDEN-LEEUWEN,2400AA,NL,Stichting,no,
636954277.0,NL801900876B01,,3,LEEUWARDEN,9640AD,NL,Stichting,no,
636921042.0,NL002780513B01,,3,IJMUIDEN,4800CD,DE,Stichting,no,
636901106.0,NL802826714B01,,1,BARNEVELD,5830AL,NL,Publiekrechtelijke rechtspersoon,no,
636948501.0,NL002884136B01,,1,DEN HAAG                           ,1802TA,NL,Publiekrechtelijke rechtspersoon,no,
636914461.0,NL002903118B01,,                                   ,WAALWIJK,3900AN,DE,Stichting,no,
223750468.0,               ,,2,WILP,1347,NL,Publiekrechtelijke rechtspersoon,no,
636906957.0,               ,,267,LEEK,5602BE,FR,Stichting,no,529900GGYMNGRQTDOO93
636912906.0,NL810401496B01,,3,TUBBERGEN,5076ZG,JP,Publiekrechtelijke rechtspersoon,yes,
636956555.0,NL003062284B01,,3,AMSTERDAM,6440AG,NL,Stichting,yes,
636904288.0,NL813587219B01,,50,GOUDA,2240CA,NL,Stichting,no,
,               ,,25,MIDDELHARNIS,1700AJ,NL,Publiekrechtelijke rechtspersoon,no,
636937119.0,NL811046321B01,,1,HILVERSUM,E14 4QJ,NL,Stichting,no,
636980855.0,NL802515265B01,,200,LE MANS,7270AA,NL,Naamloze Vennootschap met gewone structuur,no,549300772D1G8JPIUR96
636957853.0,NL003115641B01,724500BWNI5PMEXNE613,25,KERKDRIEL,8600HA,NL,Publiekrechtelijke rechtspersoon,,7245009VAGDFYEOMPJ54
636959554.0,NL809249145B01,,26,FÃ¼rth,8000GA,NL,Publiekrechtelijke rechtspersoon,no,
636968456.0,               ,,25,SANTARCANGELO DI ROMAGNA,2595AS,NL,Stichting,no,
636924823.0,NL810303802B01,,                                   ,VLISSINGEN,8060AA,NL,Publiekrechtelijke rechtspersoon,yes,
636911535.0,NL807369196    ,,23,KRIMPEN A/D IJSSEL                 ,6671DB,NL,Stichting,no,7245008LXZZHBNNMOP06
636901793.0,               ,,2,DELFT,1960AA,NL,Stichting,no,
636952959.0,NL823648552B01,72450033QE6OMGVUCP08,1,SCHIEDAM,4530 AC   ,US,Publiekrechtelijke rechtspersoon,no,
,               ,,4,'S-GRAVENHAGE,8260GA,NL,Stichting,no,7245008NPB35JPQK9759
636958183.0,               ,,175,ARNHEM,6900AB,NL,CoÃ¶peratie U.A. met gewone structuur,,
636914593.0,NL813853722B01,,5,HAAKSBERGEN,3370AB,NL,Stichting,no,
636753131.0,NL002172859B01,,179,GOUDA,7400GC,US,,,
636901157.0,NL803614093B01,724500FN9UZ7HE06BQ56,1,EPE,2302BA,LU,Besloten Vennootschap met gewone structuur,no,
636948617.0,NL002072117B01,,1,ROSMALEN,7600GA,NL,Publiekrechtelijke rechtspersoon,no,
636945081.0,NL813919368B01,,10,'S-HERTOGENBOSCH,4330LA,NL,Stichting,no,
636910040.0,NL001825112B01,,65,HARLINGEN,4801DZ,NL,Publiekrechtelijke rechtspersoon,no,
636956407.0,               ,,44,VOORBURG,1097JB,NL,Stichting,no,
636928969.0,NL001736206B01,,2,OOSTZAAN,5430DA,NL,Stichting,no,
,NL813766928B01,,618,'S-GRAVENHAGE,6230AB,NL,Besloten Vennootschap met gewone structuur,no,724500Q2L2VEYFJCFA83
636913066.0,               ,,                                   ,BOEKEL,90762,NL,Stichting,no,
636948684.0,NL809863388B01,724500O0T0XI8Z6I6T42,                                   ,ZAANDAM,4900AB,NL,Stichting,no,
636909727.0,NL002592137B01,,2,TWELLO,EC4A 2BB,NL,N.V.,no,
,NL800831561B01,,                                   ,RAALTE,8102EW,NL,,yes,
,NL002934607B01,,1,HAAREN,8022,NL,Stichting,no,724500WB8BFNDEGXI441
636957195.0,NL001945907B023,,15,ZUTPHEN,5700ES,NL,Naamloze Vennootschap blijkens statuten structuurvennootschap,no,
636959651.0,               ,,                                   ,MEDEMBLIK,2636ZG,NL,Publiekrechtelijke rechtspersoon,no,724500BWNI5PMEXNE613
636906132.0,               ,,150,DORDRECHT,3740BA,FR,Publiekrechtelijke rechtspersoon,no,
636951561.0,NL003422240B01,,1,EINDHOVEN                          ,2501CB,NL,Stichting,,724500LOBG9WA981PI12
636911241.0,NL810917683B01,,25,ROTTERDAM,1723LA,NL,Stichting,no,724500L1Q2D9HLZH2046
636976483.0,NL803635576B01,,1,THOLEN,4831,NL,Publiekrechtelijke rechtspersoon,no,
,NL810648994B01,,20,NIJMEGEN,6680AA,DE,,no,
636912477.0,NL008055099B01,,                                   ,ARNHEM,6269ZG,NL,Stichting,no,724500YV5X3UODTMYJ36
636786048.0,NL001172736    ,165GRDQ39W63PHVONY02,1,ZWOLLE,85716,NL,Publiekrechtelijke rechtspersoon,no,
636750507.0,NL002699035B01,,56,UTRECHT,3730AG,GB,,no,
636904199.0,               ,,2,AMSTERDAM,2210AA,LU,Stichting,no,7245006DWO2JVQ0ZDY35
636904237.0,NL805516712B038,,21,Dorsten,5120AB,NL,Stichting,no,724500T0HSMYLE2AEN25
636902250.0,               ,SI7IPLMR4AZ86ZNYG844,2,TUBBERGEN,5400AM,CH,Stichting,no,
636914739.0,NL806846835B01,,1,SLIEDRECHT,26105,NL,Publiekrechtelijke rechtspersoon,no,
636938670.0,               ,724500UZULPG7LXXZ839,301,NIEUWKOOP,9700AB,DE,,,
636788318.0,NL006730656B01,,                                   ,MAASTRICHT,4630AB,NL,Stichting,no,724500171NHHF408G052
636953335.0,NL806246145B01,,140,HOOGKARSPEL,2980AB,NL,Stichting,,724500EWCQO6IDILFA83
636953688.0,NL002972785B01,,47,MONTROUGE,53175,NL,Publiekrechtelijke rechtspersoon,no,
636954854.0,NL002840881B01,,2,DOETINCHEM,44787,NL,Stichting,no,
636958345.0,NL002771536B01,,25,VELSERBROEK,34117,NL,Stichting,no,
,               ,,20,EMMEN,E14 5HQ,NL,Stichting,no,
636924742.0,NL814861763B01,724500F885PTKKDCC394,32,VUGHT,1213VX,DE,Stichting,,
636976572.0,NL002895821    ,,1,ROSMALEN,9400AM,DE,Besloten Vennootschap met gewone structuur,no,
636920488.0,NL002881901B01,,11,LEUSDEN,M5H 1H1   ,US,Publiekrechtelijke rechtspersoon,yes,
636902587.0,NL001516814B087,,37,RAALTE,8300AA,NL,Publiekrechtelijke rechtspersoon,no,
636941264.0,               ,,1,LEIDEN,1030BD,DE,Publiekrechtelijke rechtspersoon,no,
636951316.0,               ,,70,'S-GRAVENHAGE,32756,NL,Publiekrechtelijke rechtspersoon,no,
636968030.0,               ,,35,'S-GRAVENHAGE,5340BA,NL,,no,724500QKWJVFASDWXP09
636959260.0,NL001938915B01,724500Y69JGDVHQ7O263,1,RUCPHEN,5100AC,NL,Vereniging met volledige rechtsbevoegdheid,,
,NL816963186B01,,2,ROTTERDAM,3430BE,NL,Stichting,no,
,NL852310274B01,,27,EINDHOVEN,8200AN,NL,Stichting,no,
,NL002576892B01,,8,BUNNIK,2300RC,NL,Publiekrechtelijke rechtspersoon,no,
636759334.0,NL803036188B01,724500Z7YSI1VQK8KE31,4,BOXMEER,7300ES,NL,,no,
636785947.0,NL809188041B01,,5,LONDON,47441,NL,Naamloze Vennootschap blijkens statuten structuurvennootschap,no,
636944050.0,NL002587439B01,724500XCW9LZGRMUQ157,25,WAALWIJK,8000GK,NL,Besloten Vennootschap met gewone structuur,no,
636906388.0,               ,,4,ENKHUIZEN,3503RK,NL,Publiekrechtelijke rechtspersoon,no,
636939170.0,NL001902854B010,,5,Augsburg,1120AA,FR,Stichting,no,
636956369.0,               ,,83,'S-GRAVENHAGE,9400AA,NL,Stichting,no,
636912507.0,NL006337788B01,,4,PANNINGEN,1000EA,GB,Publiekrechtelijke rechtspersoon,no,724500RONYH4MQ1YOC67
636951758.0,NL802935412B01,,2,AMMERSTOL,9900AA,NL,Stichting,yes,
,NL003475268B01,529900HNOAA1KXQJUQ27,40,VEENDAM,1200AH,NL,Stichting,no,
636905063.0,NL821479490B01,,90,Bern,8440AV,NL,Publiekrechtelijke rechtspersoon,no,
636950190.0,               ,,3,TILBURG,5740AD,NL,Stichting,no,
636954021.0,,,1,AMSTERDAM,55116,NL,Naamloze Vennootschap met gewone structuur,yes,
636940438.0,NL803632691B01,,1,WORMERVEER                         ,1616ZG,NL,Publiekrechtelijke rechtspersoon,no,
636953998.0,               ,,2,ALMERE,2241KE,NL,Stichting,no,
636909778.0,NL809052180B01,,                                   ,Leverkusen,4900GB,NL,Stichting,yes,724500UI14M9TF1E1M74
636955052.0,               ,724500VZY2RAPV16IQ57,51,BOEKEL,7440AH,NL,Besloten Vennootschap met gewone structuur,no,
636900290.0,NL803384002B01,,56,DOMBURG,4760AA,NL,Stichting,no,724500YK457EPQZ5EK93
636920771.0,NL009406943B01,,1,ZEIST,8001BB,NL,Stichting,,
636957497.0,NL002988008B01,724500N73JN5X693AP31,181,Bonn,2350CC,NL,Stichting,,724500FMA0HAFG5IO571
636908895.0,NL001608861B01,,26,MAASTRICHT,2600AJ,NL,Vereniging met volledige rechtsbevoegdheid,no,
636954080.0,               ,,1,'S-GRAVENHAGE,7521PP,NL,Stichting,no,
636785629.0,               ,,1,LONDON,4200AP,CA,Besloten Vennootschap met gewone structuur,no,
636997561.0,NL001919775B026,,40,UTRECHT,4000AM,NL,Stichting,no,724500VQ1Q5VQOKHF740
,NL003148889B081,,40,GENDRINGEN,2300AN,NL,Stichting,no,
636907082.0,NL001888730B01,W22LROWP2IHZNBB6K528,12,Oldenburg,6269DA,NL,Stichting,,72450022J7MG5H7EZ380
636952754.0,NL812613466    ,,1,HUIZEN,EC4A 2BE,NL,,no,
636968146.0,NL001932469B01,724500QHVGXSA4KDR333,47,DELFT,7206DE,NL,Publiekrechtelijke rechtspersoon,no,724500R4P0R7TC9FAF75
636916464.0,NL803693205B01,,69,TORONTO,HX5 9DY,NL,Stichting,YES,724500UA2GY1LK1Z0194
636912671.0,               ,,129,DORDRECHT,5500GA,NL,Stichting,no,
636901548.0,NL002865981B01,,                                   ,'S-GRAVENHAGE,4844ZG,NL,Publiekrechtelijke rechtspersoon,,724500GMD5R3884CBF06
636908178.0,               ,DGQCSV2PHVF7I2743539,1,BORNE,4131NJ,NL,Besloten Vennootschap met gewone structuur,,
636949494.0,NL001900249B01,,16,ROTTERDAM,9076ZN,NL,,,
636920968.0,NL801958775B01,,SCOTIA PLAZA                       ,AMERSFOORT,2460AA,DE,Publiekrechtelijke rechtspersoon,no,
636907678.0,               ,7245005BJHZJV8UZWE90,26,AMSTERDAM,2990AA,NL,Publiekrechtelijke rechtspersoon,no,
,NL811015865B01,,1,UTRECHT,1800AM,NL,Naamloze Vennootschap blijkens statuten structuurvennootschap,yes,
636952428.0,NL806274402B01,,1,Hanau,60325,NL,Publiekrechtelijke rechtspersoon,,
636964752.0,NL001567548B01,7245005MN5G5IIJTTB55,44,UTRECHT,50171,NL,Stichting,no,
636912914.0,NL002489831B01,,                                   ,ROTTERDAM                          ,6400AA,NL,Publiekrechtelijke rechtspersoon,,
636757307.0,               ,,50,ST.-ANNAPAROCHIE,4200AC,NL,CoÃ¶peratie U.A. met gewone structuur,no,724500OZYSZN783PRO25
636959872.0,NL808462817B01,,25,ARNHEM,7570AJ,DE,Stichting,no,
636953696.0,NL002918079B01,,2,HEEL,7390AC,NL,LTD,no,
636958388.0,               ,,3,EINDHOVEN,5930AA,NL,Publiekrechtelijke rechtspersoon,no,
636920496.0,               ,,,BUNNIK,2600ME,NL,Publiekrechtelijke rechtspersoon,no,724500GD1N3YR39H9I80
,NL805319074B01,,50,NÃ¼rnberg,5590AB,NL,Naamloze Vennootschap met gewone structuur,,
,NL807159906B01,724500ETWED87NSA6T26,345,WOGNUM,2501CE,NL,Besloten Vennootschap met gewone structuur,no,
636757781.0,               ,,2,SITTARD,8001BE,NL,Naamloze Vennootschap blijkens statuten structuurvennootschap,no,
636751902.0,NL002556145B01,724500XJ98P30FNG1N29,40,GORINCHEM,1001AN,NL,Stichting,no,
636914801.0,NL813585879B01,,45,HARDENBERG,2553RJ,NL,Publiekrechtelijke rechtspersoon,no,
636902358.0,               ,,15,PATERSWOLDE,SW1A 2HQ,NL,Publiekrechtelijke rechtspersoon,no,
636942759.0,               ,,1,DEN BURG,2553RJ,LU,Stichting,,
636952363.0,NL002690986B01,,1,SIMPELVELD,3003DG,NL,Publiekrechtelijke rechtspersoon,no,
636911284.0,NL007185972B01,,200,ASSEN,EH12 1HQ,NL,Publiekrechtelijke rechtspersoon,,
,NL803396314B01,,70,MEERSSEN,6200MD,NL,Besloten Vennootschap met gewone structuur,no,
636949907.0,               ,,45,ONBEKEND                           ,8000AA,NL,Stichting,no,
636954587.0,               ,724500NMESK66LA07M16,12,VENLO,1624NP,NL,Publiekrechtelijke rechtspersoon,,
636902951.0,NL004064471B01,72450015R9J127FJF789,                                   ,ALKMAAR                            ,7061WV,NL,Stichting,yes,724500E12FOQZY0GAA06
636958019.0,NL006011688B01,,32,AMSTERDAM,5520AD,NL,Stichting,no,724500FJ7SUXFJB7NN36
,NL818223200B01,,18,Bergisch Gladbach,8271BM,NL,Naamloze Vennootschap blijkens statuten structuurvennootschap,no,
636760707.0,NL816172638B011,,                                   ,DRACHTEN                           ,6130AD,NL,Stichting,no,724500QIBU4R640BIS64
,NL802989846B01,724500FMYGN8V96H2F47,51,GOUDA,8404 BL   ,NL,Stichting,,
636934594.0,               ,,280,DUIVEN,8001,NL,Stichting,no,724500HWJ960A6KXVU21
636784762.0,NL002485990B01,,9,HEYTHUYSEN,2660AC,NL,Publiekrechtelijke rechtspersoon,no,
636951030.0,               ,,2,DRONTEN,1200BW,NL,Stichting,no,
253963869.0,               ,,2,DIRKSLAND,2501CE,NL,Stichting,no,
,NL002766589B01,724500JORH3PF9299C56,27,ALMELO,7590AA,NL,Publiekrechtelijke rechtspersoon,no,
636901386.0,NL001336071B01,,                                   ,LELYSTAD,2950AA,NL,Stichting,no,
636901254.0,NL001911302    ,,11,LEEUWARDEN,2501CB,NL,Stichting,no,
,               ,,                                   ,ZOETERMEER,1300AE,NL,Besloten Vennootschap met gewone structuur,no,72450048EJS7HJ0ECD74
636910989.0,NL002580500B01,72450037XN6UE3WZV315,17,ZUIDBROEK,7300DS,NL,Stichting,no,
636903249.0,NL002515210B01,,,MAASTRICHT,5200MC,NL,Stichting,no,724500KPIWPC0BEFWS77
636908690.0,NL001876387B01,72450079PB1ENKTLVU61,                                   ,HOORN,3821AB,DE,Publiekrechtelijke rechtspersoon,no,
265114667.0,NL002909364B01,,35,BREDA,3240AB,US,Stichting,no,
,NL006589716B01,,19,VOERENDAAL,2501CE,DE,Stichting,no,
636958078.0,NL001516826B01,7245001V0VPR1ST2GQ41,9,MAASTRICHT,1942ES,NL,Stichting,no,724500Z7YSI1VQK8KE31
636954935.0,               ,,10,SON EN BREUGEL,3053JA,DE,N.A.,,724500WYSK09ZQQRR665
636954978.0,               ,,PETERSSTRASSE 9                    ,WOLVEGA,2640AA,NL,Publiekrechtelijke rechtspersoon,no,
636908747.0,NL002780860B01,,6,ROTTERDAM,2501CB,NL,Vereniging met volledige rechtsbevoegdheid,no,72450082A2L8I9I93F74
636955427.0,               ,,2,OMMEN,6039CA,DE,Stichting,no,724500EYVI5KTHI7XO71
636946827.0,NL803335830B01,,410,GOUDA,9936BJ,NL,Stichting,no,724500QNQHN12UHNWK75
636933660.0,               ,O2RNE8IBXP4R0TD8PU41,19,STOLWIJK,6800TA,NL,Stichting,no,
,               ,549300Q3DX11LN548072,9,ELLAND,7500BH,NL,Besloten Vennootschap met gewone structuur,no,
636943631.0,NL002563307B01,,                                   ,NEW YORK                           ,6130AA,DE,Publiekrechtelijke rechtspersoon,,
636903230.0,NL003702637B01,724500X1LGLUIHQ9VJ98,13,New York,2370AD,NL,Besloten Vennootschap met gewone structuur,,
636951499.0,NL817020123B01,,                                   ,ETTEN-LEUR,5900AH,NL,Naamloze Vennootschap met gewone structuur,,724500976K2J0PQ92671
636787044.0,NL823288444B01,,193,PARIS,1110AD,NL,Publiekrechtelijke rechtspersoon,no,549300TPP7QUEOY5QS39
636997553.0,NL001722219B030,7245008IF8SE7KMVOU43,                                   ,AMSTERDAM,2670AD,NL,Publiekrechtelijke rechtspersoon,no,
636952126.0,NL002769943B01,,266,AMSTERDAM,2800AE,NL,Vereniging met volledige rechtsbevoegdheid,no,
636935302.0,NL809289866B01,,80,GRONINGEN,44135,NL,Stichting,no,
636934551.0,               ,,22,BORN,3800BG,NL,Stichting,no,
636948676.0,NL812546027B01,,13,HEDEL,2670AC,CA,Publiekrechtelijke rechtspersoon,no,724500Z6EB58BFP92J65
636945359.0,NL802980922B01,,50,ALBLASSERDAM,8530AA,NL,Publiekrechtelijke rechtspersoon,no,724500RCKRJOEHKJPK96
636787427.0,NL808635293B01,,11,HEEZE,1347,NL,,,
636902455.0,NL002989931B01,,260,ROOSENDAAL,2300AK,NL,Publiekrechtelijke rechtspersoon,no,7245007EK5B4V1NMGM79
636910962.0,NL800094645    ,724500LX5E561C2U5W61,6,VLISSINGEN,9400AA,NL,Stichting,,
636939367.0,NL001486809B01,724500GB5MO2Z4WS0B67,2,GELDROP,6130AA,FR,Stichting,no,724500CG1BGGPZA6RZ42
,               ,,45,EINDHOVEN,2501AC,NL,Naamloze Vennootschap met gewone structuur,no,
636785734.0,NL002979603B01,,29,BEVERWIJK,3006 AE   ,NL,Stichting,no,
636785068.0,               ,,24,AMSTERDAM,5280AB,NL,Naamloze Vennootschap met gewone structuur,no,
636903966.0,NL006818687B024,,1,VOLENDAM                           ,5600AG,NL,Publiekrechtelijke rechtspersoon,no,
636787737.0,NL802262235B01,,65,BOXTEL,41539,NL,,no,
636903885.0,NL823658727B01,,40,AMSTERDAM,6590AA,DE,Besloten Vennootschap met gewone structuur,no,724500US9M8AUIWAEE22
636950026.0,NL002562856B01,,16,HUISSEN,7001CJ,NL,,no,
636956490.0,NL001877045B01,,                                   ,DIRKSLAND,5260GA,NL,Stichting,no,
636913554.0,NL002652602B01,,55,MILL                               ,2501AB,NL,,no,72450037XN6UE3WZV315
636954579.0,               ,72450062CSO2OFSZ8A25,                                   ,STEIN,1070BB,NL,,no,
636960579.0,               ,,                                   ,LEIDEN,7500BK,NL,Publiekrechtelijke rechtspersoon,no,
636759970.0,NL006472588B01,,50,DEURNE,6050AA,NL,Publiekrechtelijke rechtspersoon,no,
636911926.0,NL808516413B01,,17,'S-HERTOGENBOSCH,6710BB,US,Stichting,yes,
636913724.0,NL805330276B01,,2,PARIS,9700AK,NL,Stichting,yes,
636848116.0,NL803353923B01,,36,VELDHOVEN,3503RE,NL,Besloten Vennootschap met gewone structuur,yes,724500WBP1KMNKTYEO82
636965007.0,NL001587936B01,,32,DRACHTEN,5671GA,NL,Stichting,no,
636900401.0,               ,,3,MIDDELBURG,7550AK,NL,PLC,no,
636968081.0,               ,,50,Bonn,5600 AE   ,US,Stichting,yes,724500HKD4SVBPW5HI93
636925188.0,NL002653564B01,,111,GENNEP,6940BA,NL,Stichting,no,
636959864.0,NL809324581B01,,,Dormagen,7600AH,NL,Publiekrechtelijke rechtspersoon,no,
636908283.0,NL009413327B01,,                                   ,REUVER,75009,NL,,no,
636948102.0,NL002842154B01,,                                   ,GRONINGEN,7200AG,BE,Stichting,no,
636900053.0,NL812857975B01,,                                   ,HEERLEN,2509AB,NL,Stichting,no,724500M073YRU2PJIE27
636933318.0,NL002548021B01,,15,UITHUIZEN,1990AC,NL,Stichting,no,724500BOSU3WJHWKV518
636944948.0,NL001932809B01,,30,EDE,8440AH,NL,,no,
636907139.0,NL002827864B01,,345,VELDHOVEN,5201AL,NL,,yes,724500CVKOF6MX6Q4767
636909107.0,NL802232152B01,,2,HELMOND,6982AZ,NL,B.V.,no,
636944026.0,               ,72450050VLJ316X92X94,2,AMSTERDAM,7400AB,NL,Publiekrechtelijke rechtspersoon,no,
636912620.0,NL801042549B01,,4,WIJK AAN ZEE,7000AL,NL,Stichting,no,
636951952.0,NL808501847B01,,136,DEN BURG,2220CB,NL,Naamloze Vennootschap met gewone structuur,no,
636959090.0,NL001877367B01,,                                   ,ZWOLLE,2003PB,NL,Stichting,no,
636934950.0,NL002853140B01,,18,OEGSTGEEST,3503RK,NL,Publiekrechtelijke rechtspersoon,,
636907295.0,NL854747515B01,,21,AMSTERDAM,3006AB,NL,Naamloze Vennootschap met gewone structuur,no,7245009CGK5BDJR2B797
,,,130,NIEUWEGEIN,7300AA,NL,Besloten Vennootschap met gewone structuur,no,
636906477.0,NL807428516B01,,7,Celle,2964AL,NL,,no,
636903567.0,NL001902763B039,,75,VLIJMEN,1780AA,NL,Publiekrechtelijke rechtspersoon,no,
636960455.0,               ,,10,HILVERSUM,9700AL,NL,Stichting,no,
636961346.0,NL800778698B01,,1,LEMMER,8934AD,NL,Publiekrechtelijke rechtspersoon,,
636796841.0,NL002582041B01,,                                   ,Neuwied,3584 BA   ,DE,,no,
636801276.0,NL002529324B01,,                                   ,OSS,2501CE,NL,Stichting,no,
,NL007797679    ,,19,TIEL,58452,NL,Stichting,no,
636933997.0,               ,,                                   ,ST.-ANNAPAROCHIE,3960BD,NL,Stichting,no,
636939707.0,NL001709240B01,,99,WASSENAAR,2500EE,NL,Besloten Vennootschap met gewone structuur,yes,
636785157.0,NL816963265B01,,                                   ,VRIEZENVEEN,3981AZ,NL,A.G.,,
636903109.0,NL803763906B01,724500Z6EB58BFP92J65,101,HASSELT,8250AB,NL,Publiekrechtelijke rechtspersoon,no,
636914585.0,               ,,1,DIEMEN,2501CM,NL,Publiekrechtelijke rechtspersoon,no,724500YBAC4YYKG0NJ56
636948749.0,               ,,1,DENEKAMP,1942LE,NL,Stichting,no,
636759342.0,NL815243546B01,724500CE4I29NUF82T05,                                   ,TER HEIJDE                         ,7320AC,NL,Naamloze Vennootschap met gewone structuur,no,
636951596.0,               ,724500PPVB2MMDXBLG29,3,UTRECHT,2600AB,NL,Vereniging met volledige rechtsbevoegdheid,no,724500IDDUA21IFZJP86
636757390.0,,,20,BRUNSSUM,1870AA,DE,Stichting,,
636908526.0,NL002118890B046,,1,GOES,60311,CA,Besloten Vennootschap met gewone structuur,no,
636939804.0,               ,,43,ZEEWOLDE,91052,NL,Publiekrechtelijke rechtspersoon,no,724500YREZOMRVLP0597
636912817.0,NL816963228    ,,65,DEN HELDER,49074,NL,Stichting,no,724500D54MXEPUA6S279
636951146.0,NL005801643B01,,4,ALMERE,E14 5LB,GB,Stichting,no,
636944107.0,NL003469062B01,,145,LEEUWARDEN,100172014,FR,,no,724500LX5E561C2U5W61
636901432.0,NL001022799B01,,69,AMSTERDAM,86150,NL,Publiekrechtelijke rechtspersoon,,
636903036.0,NL001902957B01,724500E6BD2EFLJEWC43,                                   ,ANNA PAULOWNA,4847DK,NL,Stichting,no,
636960641.0,NL823765908B01,,36,'S-GRAVENHAGE,2272TR,NL,Besloten Vennootschap met gewone structuur,no,
,               ,,2,AMERSFOORT,7130AB,DE,Publiekrechtelijke rechtspersoon,no,
636939251.0,NL007854687B01,,25,Kassel,5211 JN   ,NL,Naamloze Vennootschap blijkens statuten structuurvennootschap,no,
636920798.0,NL002522937B01,,                                   ,LEEUWARDEN,2800AP,NL,,no,
636902137.0,NL812906470B01,,                                   ,OLDENZAAL,2502KM,NL,Stichting,no,72450062A1O03S7HUW94
636935477.0,               ,,2,HARDERWIJK,9980AA,NL,,no,
636951588.0,NL001969316    ,7245009CGK5BDJR2B797,1,GRONINGEN,7801BC,NL,Besloten Vennootschap met gewone structuur,no,
636913031.0,NL001737168B01,,242,LOCHEM,3001GA,NL,Stichting,no,
636956350.0,NL002645415B01,,50,DE STEEG,3900AD,NL,Stichting,no,724500LHI1GA2R5PLE27
636953378.0,NL814066227B01,,                                   ,TILBURG,7334DV,NL,Stichting,no,724500N73JN5X693AP31
636906531.0,NL001731361B01,PT3QB789TSUIDF371261     ,50,WERKENDAM,7100GG,NL,Naamloze Vennootschap blijkens statuten structuurvennootschap,no,
636784851.0,               ,724500NYQKIOA60FVL37,1,TERNEUZEN,3420DC,NL,Stichting,yes,
636906795.0,NL808892216B01,K6Q0W1PS1L1O4IQL9C32,1,HIJUM,7570AE,NL,Stichting,no,
636750906.0,NL002502823B01,,50,EDE,58095,NL,Eenmanszaak,no,724500N8DZ8VFMRQF354
636952916.0,NL807286953B01,7LTWFZYICNSX8D621K86,2,BREDA,8200AC,DE,Stichting,no,7245005FLP0536HIJO24
636934985.0,               ,724500L1Q2D9HLZH2046,327,DORDRECHT,1097JB,NL,Publiekrechtelijke rechtspersoon,no,
636756866.0,NL002579224B01,,48,NIEUWPOORT                         ,37083,NL,Stichting,no,
636933768.0,NL001950149B01,,23,HOORN,1440AB,NL,Publiekrechtelijke rechtspersoon,no,
636949168.0,NL002862335B01,,1,URK,3500HB,NL,Besloten Vennootschap met gewone structuur,no,
636950476.0,NL001320270B021,724500BOSU3WJHWKV518,174,HILVERSUM,5430DA,NL,Stichting,no,
,NL002713937B01,,2,HEERHUGOWAARD,2601DB,BE,Naamloze Vennootschap met gewone structuur,no,
636906949.0,NL805408381B01,,30,VOLENDAM,2700AA,NL,Publiekrechtelijke rechtspersoon,no,
636906655.0,               ,724500K75N89D2JUQH17,30,Krefeld,6291VP,NL,Publiekrechtelijke rechtspersoon,no,
636951987.0,NL002707718    ,,11,KAATSHEUVEL,7800RA,NL,Publiekrechtelijke rechtspersoon,no,
636952835.0,               ,,                                   ,BREDA,2800AS,NL,Stichting,no,
636997715.0,               ,,5,IJSSELSTEIN,1000BA,GB,Stichting,no,
636912469.0,NL807340170B01,,60,ZWOLLE,9076EB,NL,A.G.,no,724500YCF63T5RB68S16
636910210.0,NL806381309B01,,28,Frankfurt am Main,1616ZG,NL,,,724500I29ACDNE98I788
,NL804857726B01,,                                   ,MONTROUGE,4730AA,DE,Stichting,no,
636916626.0,NL003440126B01,,18,VENLO,4000AN,NL,Naamloze Vennootschap met gewone structuur,,
636934799.0,NL002639579B01,,1,LEIDEN,4600AE,NL,Stichting,no,
636997669.0,               ,724500GHQB1E37MSK552,30,LICHTENVOORDE,3990GB,NL,Stichting,yes,7245004VC21BK9SWN297
636754820.0,NL003741357B01,,                                   ,MIDDELBURG,1500GA,DE,Publiekrechtelijke rechtspersoon,no,724500J4PSSA1YKXES94
636954501.0,NL816164083B01,,2,AMERSFOORT,4530AC,NL,,no,724500FDG40SD2VU6A21
636760464.0,NL002678846B01,,515,GÃ¶ttingen,6800EL,NL,Vereniging met volledige rechtsbevoegdheid,no,
636957969.0,NL005256975B01,BFXS5XCH7N0Y05NIXW11,                                   ,BEEK EN DONK,47822,NL,Stichting,no,
636906612.0,               ,,1,OUDERKERK AAN DEN IJSSEL,2601DB,NL,Stichting,no,
636913864.0,               ,,2,PÃ©tange,8200AC,NL,Publiekrechtelijke rechtspersoon,no,
636942813.0,NL003722922B01,724500KE6YKD4W2FMG32,15,ALBLASSERDAM,47798,NL,Stichting,no,
636909182.0,NL002917580B01,,93,NIJMEGEN,1760AB,NL,Naamloze Vennootschap met gewone structuur,no,
636914631.0,NL807598409B01,,9,SCHIJNDEL,9700AA,NL,N.V.,no,
636907759.0,NL001540361B01,,4,VLAARDINGEN,1030,NL,,no,724500DWE10NNL1AXZ52
636914798.0,,,13,HOUTEN,45359,NL,Stichting,no,
636959309.0,NL808201980B01,,70,AMSTERDAM,38226,NL,Stichting,no,724500UI14M9TF1E1M74
636900088.0,NL009424945B018,,200,RÃ¼sselsheim,1040KD,NL,Vereniging met volledige rechtsbevoegdheid,no,549300Q3DX11LN548072
,NL802199987B01,,22,VOERENDAAL,4382ND,NL,Stichting,no,724500EJ2TDPAITRSJ55
,               ,,19,NIJMEGEN,3009AP,NL,Publiekrechtelijke rechtspersoon,yes,
636908941.0,NL002413310B01,L3I9ZG2KFGXZ61BMYR72,2,VLISSINGEN,2501CE,NL,Stichting,no,
636920682.0,               ,,36,ARNHEM,3200 AA   ,GB,Stichting,no,
636753573.0,NL003509795B01,,1,ROOSENDAAL,3700AC,NL,Stichting,no,
636920585.0,NL804792288B01,G5GSEF7VJP5I7OUK5573,2,UTRECHT,7620AE,DE,,no,724500FH0NUWA33FUU02
636955079.0,NL002581206B01,,1,DOETINCHEM,2951JG,CH,Stichting,no,
636907899.0,NL803272273B01,,59,BARENDRECHT,5170AA,NL,Naamloze Vennootschap met gewone structuur,no,
636785521.0,               ,MP6I5ZYZBEU3UXPYFY54,2,LEEUWARDEN,1791VH,NL,,no,
636916634.0,NL853261179B01,724500ZE79173UG5GG17,1,AMSTERDAM,8900MG,NL,Publiekrechtelijke rechtspersoon,,
,NL001160928B01,,3,Essen,5450 AA   ,NL,Stichting,yes,
636943003.0,NL001971165B01,,18,WINSCHOTEN                         ,3053JA,NL,Publiekrechtelijke rechtspersoon,no,
,NL805329316B01,,150,ENSCHEDE,5022GC,NL,Publiekrechtelijke rechtspersoon,,7245001V0VPR1ST2GQ41
636934055.0,,,                                   ,HAREN GN,6800JD,DE,Stichting,no,
636958124.0,               ,,                                   ,LONDON,7770AA,NL,Naamloze Vennootschap blijkens statuten structuurvennootschap,no,
636959058.0,NL001479179B122,,86,DORDRECHT,72100,NL,Publiekrechtelijke rechtspersoon,,
636980723.0,NL001797839    ,,9,SLIEDRECHT,3329KP,NL,Stichting,no,
636909255.0,NL802162745    ,,40,EDINBURGH,1040AR,NL,Stichting,no,549300Q3DX11LN548072
,               ,,12,'S-GRAVENHAGE,6040KG,NL,ST,no,724500DIYIHDNB3F2435
,NL002934516B01,,2,'S-GRAVENHAGE,5300DA,NL,Stichting,no,
636751759.0,NL813648762B01,,65,ROTTERDAM,8860HA,NL,,no,
636913775.0,NL002845453B01,724500UI14M9TF1E1M74,                                   ,ALMELO,8001,NL,,no,
636757056.0,               ,,5,APELDOORN,8440GA,NL,Stichting,no,
636964612.0,NL813542765B01,,2,HEERENVEEN,6560AA,NL,Stichting,no,
636955397.0,NL001888468B01,,11,LUXEMBOURG,EC4Y0JP   ,NL,Stichting,no,72450062FIU07Q46VO29
636901866.0,               ,,70,TIEL,8901BR,NL,Vereniging met volledige rechtsbevoegdheid,,724500WOZH6XWX3LA427
636913228.0,NL002930316B01,724500CG1BGGPZA6RZ42,1,GROESBEEK,5550GA,DE,Publiekrechtelijke rechtspersoon,,724500MNH5INB5TOVY23
636943615.0,               ,,1,VALKENSWAARD,4000HA,NL,Publiekrechtelijke rechtspersoon,no,
636913759.0,NL812459209B01,,                                   ,'S-GRAVENHAGE,1500AB,NL,,no,
,               ,,1,EDAM,3102GB,NL,Stichting,no,
636901874.0,NL002718704B01,,2,WEERT,3700AC,NL,Publiekrechtelijke rechtspersoon,,724500G2D0RQ2C2AQK75
636903621.0,NL001797724B01,,501,ZEVENAAR,8325ZG,NL,Stichting,no,
636755738.0,NL811215155B01,7245006DWO2JVQ0ZDY35,1,ZWOLLE,8320AC,DE,Publiekrechtelijke rechtspersoon,no,724500XKR0HKSLU3IX44
636960765.0,NL821725774B01,,51,HAARLEM,4000AB,NL,Stichting,no,
636912140.0,NL802665482B01,,4,MOERDIJK,6281AB,NL,PLC,yes,
636902536.0,NL802756803B01,851WYGNLUQLFZBSYGB56,8,VAALS,7000HA,NL,Publiekrechtelijke rechtspersoon,,
636951243.0,               ,724500P9QIDL9OH9T829,30,LEIDEN,1060CR,NL,Publiekrechtelijke rechtspersoon,no,
636912175.0,NL002799236B01,,97,AMSTERDAM,2500DJ,DE,ST,,724500VEJXPXRH945P64
636952061.0,               ,,16,ASSEN,9640AC,NL,Stichting,no,
636965058.0,NL001522668B01,724500R4P0R7TC9FAF75,4,PUTTEN,5140GB,NL,,no,
636913139.0,NL854494674B01,,25,WERVERSHOOF,E14 4QA,NL,Stichting,no,
,NL006786467B01,,35,KATWIJK,5480AA,DE,Stichting,no,724500DUF2QNG8SES406
,               ,,1,HOOGEVEEN,6865ZH,NL,Publiekrechtelijke rechtspersoon,,724500N9DASRREM7U324
636759202.0,               ,,                                   ,ROELOFARENDSVEEN,3313LA,NL,,no,
636938700.0,               ,724500T9M7BUKQEGKF76,5,UITHOORN,4357ZV,NL,Stichting,,
636924831.0,NL009384893B01,,                                   ,DEN HAAG                           ,6367BA,NL,,no,724500EU9GWU646QNN17
636753379.0,               ,,12,LONDON,7940AD,NL,Stichting,no,7245000G0HS48PZWUD53
,NL002017891    ,724500EXRNGDOM8VKL50,12,MALDEN,EC4R 3AB,NL,Stichting,no,
636906973.0,NL002849872B01,,4,APELDOORN,3440DD,NL,Publiekrechtelijke rechtspersoon,no,
636789004.0,NL801881444B01,,2,BERGSCHENHOEK,7550AA,NL,,no,
636904539.0,               ,,86,APELDOORN,5500MA,NL,Publiekrechtelijke rechtspersoon,no,
636910164.0,NL854162513B01,,22,Erlangen,9200HA,NL,Publiekrechtelijke rechtspersoon,no,
636955087.0,               ,724500DIYIHDNB3F2435,10,MÃ¼nchen,5000AT,LU,Publiekrechtelijke rechtspersoon,,724500CJBFE9JDPXBQ49
636997618.0,NL823062922B01,724500QIBU4R640BIS64,347,SOMEREN,6500GM,DE,,no,724500AN0AXXSL3YM375
636955222.0,               ,,1,CAPELLE AAN DEN IJSSEL,4800RH,DE,Stichting,no,
636901394.0,               ,,82,LOBITH,9700AX,GB,Stichting,no,
636916340.0,NL823181522B01,,2,MIDDELBURG,3045PM,NL,GMBH,no,
636909034.0,NL008374089B01,,50,NOORDWIJK,103-0027,NL,Stichting,no,
,               ,,18,WILP,3260EA,NL,Publiekrechtelijke rechtspersoon,no,
,NL002564440B01,,136,LUXEMBOURG,3980CA,NL,Naamloze Vennootschap met gewone structuur,no,
636997790.0,NL002776200B01,,9,EMMEN,3840AG,FR,,yes,
636909980.0,NL001911193B01,,                                   ,DELFT,5000AS,DE,Publiekrechtelijke rechtspersoon,yes,
636925080.0,NL814360014B01,,                                   ,DELDEN,6990AA,NL,Stichting,no,
636906159.0,NL814923586B01,,                                   ,WORMERVEER,7600GC,NL,Stichting,no,724500CURU57KUMD9N68
636786935.0,NL003034227B01,,1,NIEUWEGEIN,30159,CH,Publiekrechtelijke rechtspersoon,no,72450083NJ69N7Y0DR18
636952304.0,NL001721926B015,,6,ALKMAAR,3005DA,NL,Vereniging met volledige rechtsbevoegdheid,no,724500L2I289URG9C888
636910091.0,               ,,                                   ,ALMELO,5120AB,NL,Besloten Vennootschap met gewone structuur,no,
,NL812039956B01,,200,ZÃœRICH,3470CA,GB,Stichting,no,
636950352.0,NL003798793B01,724500AIUX0GHEQMMC62,                                   ,ROOSENDAAL,1000AZ,NL,Publiekrechtelijke rechtspersoon,no,
636913791.0,               ,,                                   ,'S-GRAVENHAGE,33602,NL,Publiekrechtelijke rechtspersoon,no,
636907066.0,NL808316588B01,724500G2D0RQ2C2AQK75,180,Moers,7130AA,NL,Stichting,no,
636998150.0,NL001680390B01,,9,LEIDEN,1760AA,NL,Publiekrechtelijke rechtspersoon,no,
636955443.0,               ,3TK20IVIUJ8J3ZU0QE75,38,HEERLEN,3702AH,NL,Stichting,no,724500YK457EPQZ5EK93
636964701.0,NL808033803B01,,                                   ,SCHIEDAM,4530AD,NL,Publiekrechtelijke rechtspersoon,no,
636905373.0,NL801366021B01,,92,DEN HAAG                           ,3200AT,NL,Stichting,no,
636914208.0,NL803027345B01,,10,AMERSFOORT,1101CM,NL,Publiekrechtelijke rechtspersoon,yes,
636935574.0,NL800845778B01,724500YV5X3UODTMYJ36,34,MAASTRICHT,3016BB,NL,Stichting,no,724500X1LGLUIHQ9VJ98
636954293.0,               ,,22,WESTERBORK,7301BB,NL,,no,
636917274.0,NL002735003B01,,6,REUVER,2501CB,NL,Naamloze Vennootschap met gewone structuur,no,
636954528.0,NL852326439B01,,47,TIEL,63065,NL,Publiekrechtelijke rechtspersoon,no,
636904393.0,NL803203020B01,,1,DOETINCHEM,2210,NL,Stichting,no,
636910288.0,NL806778891    ,,115,ALKMAAR,3360AC,NL,Stichting,no,
636944212.0,NL001900651B01,724500T0HSMYLE2AEN25,8,AMERSFOORT,WC2R 1HR  ,CH,,no,7245004KZ6NS5TE8PE66
636914607.0,NL002851234B01,,20,LEEUWARDEN,2640AB,NL,Vereniging met volledige rechtsbevoegdheid,,
636755800.0,               ,,1,NAALDWIJK,6077ZH,NL,Stichting,no,
636958604.0,NL003679743B020,,87,ZUIDWOLDE,8070AB,NL,,yes,
636914356.0,NL810584384B01,,19,NIEUWLEUSEN,6940BB,NL,,no,
636954390.0,NL002895833B01,,52,RHENEN,2501CK,GB,Publiekrechtelijke rechtspersoon,no,7245007V2S3C5GCIER28
636755657.0,               ,,12,WORMERVEER,3500GE,NL,Publiekrechtelijke rechtspersoon,no,724500HVE2VNJS0YCX90
636956164.0,NL002521301B01,724500E24KYRBY9SEY46,44,SCHIPLUIDEN,5590GA,NL,AG,no,724500E2X73EKMDFZD40
636903338.0,NL806388250B01,,12,VLAARDINGEN,45468,NL,,no,
636914771.0,NL823284256B01,,93,BODEGRAVEN,3300AA,NL,Publiekrechtelijke rechtspersoon,yes,
636933431.0,447 2492 35 ,,1,AMSTERDAM,5000JB,NL,Naamloze Vennootschap blijkens statuten structuurvennootschap,no,
636953408.0,NL803405881B01,724500CURU57KUMD9N68,                                   ,TEGELEN,1520AA,NL,Stichting,no,
636955060.0,               ,,430,ZWOLLE,5000 LA   ,NL,,no,
636939405.0,NL805423515B01,,14,PARIS,2300AD,GB,Stichting,no,724500AZSGBRY55MNS59
636997758.0,NL001326065B01,,                                   ,ZAANDAM,2171HC,NL,,no,
636939413.0,               ,,7,ROTTERDAM,6700AA,NL,Stichting,no,
66998169.0,NL006196585B01,72450087CQHEMXLVLU70,93,ROTTERDAM,5427ZH,NL,Stichting,no,
636917185.0,               ,,1,LEIDERDORP,9430AA,NL,Vereniging met volledige rechtsbevoegdheid,no,
2000000005.0,NL814720225B01,,35,KERKRADE,2380AA,NL,Vereniging met volledige rechtsbevoegdheid,no,
636903877.0,               ,,101,'S-GRAVENHAGE,2300AD,NL,Naamloze Vennootschap blijkens statuten structuurvennootschap,no,
636916707.0,NL818406689B01,,50,MEPPEL,1802TA,DE,Stichting,no,
636924734.0,               ,,310,GEERTRUIDENBERG,6460AC,NL,Publiekrechtelijke rechtspersoon,,
636788105.0,NL803232743B01,,1,ROERMOND,9700AP,NL,,no,
233898425.0,               ,,1,HAASTRECHT,5700AG,NL,Stichting,yes,7245008IF8SE7KMVOU43
636913678.0,NL805519300B01,,                                   ,AMSTERDAM,1060JB,NL,,no,
636948390.0,NL002595849B01,,1,PURMEREND,9244ZP,NL,,no,
636753778.0,NL002577781B01,,                                   ,TERNEUZEN,6500HG,NL,Stichting,no,
636906930.0,NL003060986B01,,11,HOOGERHEIDE,4800RL,NL,Besloten Vennootschap blijkens statuten structuurvennootschap,no,
636949664.0,NL001894729B014,,303,LUXEMBOURG,2900AB,DE,Stichting,no,
636907147.0,NL808095171B01,724500WBP1KMNKTYEO82,65,LEEUWARDEN,6217KD,GB,,no,
636964647.0,               ,,1,ZWOLLE,4691DZ,NL,,no,
636980731.0,               ,,2,VEENDAM,EC4V 3DX,NL,Stichting,no,724500849UK8GCY51R85
636955664.0,,724500L6Q8JKEJWOB426,                                   ,HEERLEN,8050AB,NL,Publiekrechtelijke rechtspersoon,no,
636954048.0,               ,,93,BENNEKOM,1520AA,NL,,no,724500QHVGXSA4KDR333
636950832.0,               ,,                                   ,WERKENDAM,2957ZG,NL,Publiekrechtelijke rechtspersoon,no,
636997642.0,               ,,16,ROTTERDAM,6850AA,NL,Naamloze Vennootschap met gewone structuur,no,7245000F0IYZJQWNNO40
636911993.0,               ,,10,AMSTERDAM,5550AC,NL,Publiekrechtelijke rechtspersoon,no,724500KE6YKD4W2FMG32
636906507.0,NL823338848    ,,                                   ,DEURNE,46284,NL,,no,724500N61I8FBN1YFR23
636755304.0,               ,,30,CULEMBORG,9780AC,NL,Stichting,no,
636935485.0,               ,,3,LONDON,7300AL,NL,Commanditaire Vennootschap met Ã©Ã©n beherende vennoot,no,
636907902.0,NL819632922B01,724500KPIQZXF3KIW433,4,RIJSWIJK,3241LB,NL,Stichting,no,
636945316.0,NL001202546B01,,1,MONSTER,2860AA,NL,,no,
636939138.0,               ,,275,APELDOORN,1811AM,NL,Publiekrechtelijke rechtspersoon,no,7245002CYSXS3LXWZD29
636912949.0,NL002533108B01,,501,AMSTERDAM,2001DA,NL,Publiekrechtelijke rechtspersoon,no,724500F885PTKKDCC394
636913201.0,NL002313388B01,,                                   ,UDEN,2501CG,NL,Publiekrechtelijke rechtspersoon,no,
636906922.0,               ,,132,OUDEWATER,51465,NL,Vereniging met volledige rechtsbevoegdheid,no,
636938891.0,               ,,80,AMSTERDAM,6202MA,NL,Naamloze Vennootschap met gewone structuur,no,724500EUDK1F10GDE538
636933792.0,               ,,                                   ,ZWIJNDRECHT,2924 AL   ,NL,Stichting,no,
636755983.0,NL806981404B01,,42,CAPELLE AAN DEN IJSSEL,2501 CN   ,NL,Stichting,no,
636933253.0,NL808393029B01,724500LGYCWTRMCUIU50,6,LONDON,7440AE,GB,Stichting,no,
636954382.0,NL810841976B01,724500CTYV09PYAD6135,300,VELSERBROEK,1135ZG,NL,Vereniging met volledige rechtsbevoegdheid,no,
636952215.0,NL001598776B01,,15,NIEUW-LEKKERLAND,8470AB,NL,Publiekrechtelijke rechtspersoon,no,
636907880.0,NL001589623B01,,3,BERGEN OP ZOOM,4003BX,NL,Besloten Vennootschap met gewone structuur,no,
636904644.0,               ,724500YQE9TQAX5YDE06,200,'S-HERTOGENBOSCH,3708AH,NL,Publiekrechtelijke rechtspersoon,no,724500DWE10NNL1AXZ52
636788806.0,               ,,2,'S-GRAVENHAGE,8001,NL,Besloten Vennootschap met gewone structuur,,
636916138.0,               ,,11,ALMERE,2300AN,NL,Naamloze Vennootschap met gewone structuur,no,
636954358.0,NL001831148B01,,44,HELMOND,4500AA,NL,Naamloze Vennootschap blijkens statuten structuurvennootschap,no,724500PT7Y81XKSMR808
636902439.0,NL814814244B01,724500NO59RW4B8F7U71,5,APELDOORN,5427ZH,NL,Publiekrechtelijke rechtspersoon,no,
636905462.0,               ,724500R0O8MJQB0CFZ45,1,BEETSTERZWAAG,1600AD,NL,Stichting,no,
636935566.0,NL006116127B01,7245008NPB35JPQK9759,6,Bruxelles,2501CB,NL,Stichting,no,
636934330.0,               ,,50,HILVERSUM,2400AC,NL,,no,724500RN4LJBQE3W3403
636789306.0,NL807446336B01,724500EWCQO6IDILFA83,93,ENSCHEDE,2906ZC,NL,Stichting,no,
636757005.0,               ,,5,S HERTOGENBOSCH                    ,5953ZK,NL,,no,724500KFT5I2MQJD1785
636945774.0,NL002551986B01,,1,DIDAM,6500AP,NL,Stichting,,549300TPP7QUEOY5QS39
636953521.0,NL804262688B01,724500MNH5INB5TOVY23,70,Frankfurt am Main,5902 RA   ,NL,Publiekrechtelijke rechtspersoon,no,
636937070.0,NL001104470B045,724500KFT5I2MQJD1785,41,CUIJK,5000AJ,NL,Publiekrechtelijke rechtspersoon,no,
,NL002888816B01,,10,OSS,E14 5HP,GB,Publiekrechtelijke rechtspersoon,no,724500YUUZWCRQXZ9R30
636796760.0,               ,4PQUHN3JPFGFNF3BB653,27,VEGHEL,2820AB,CA,Publiekrechtelijke rechtspersoon,no,
636949818.0,               ,,41,ZEVENAAR,4330AC,NL,,no,
636849287.0,NL002527029B01,,4,NIJMEGEN,4460AD,NL,Stichting,no,724500ETWED87NSA6T26
636903958.0,NL008515220B01,72450022J7MG5H7EZ380,1,EDE,1693ZH,NL,Stichting,no,724500L6MXU6RPKVXH57
636906248.0,               ,,1,ALKMAAR,4300AB,NL,,no,
636914186.0,NL002311112B01,724500AN0AXXSL3YM375,1,KATWIJK,52058,NL,Publiekrechtelijke rechtspersoon,no,
636952401.0,NL812579410B01,,                                   ,VUGHT,1970AG,NL,Naamloze Vennootschap met gewone structuur,no,
636901742.0,NL803046145B01,,10,NIJMEGEN                           ,4330EA,NL,Stichting,no,
636952223.0,NL002791304    ,,54,'S-GRAVENHAGE,3240AA,NL,Stichting,no,
850024250.0,               ,,12,'S-GRAVENHAGE,1687ZG,NL,N.V.,no,
636956172.0,NL802731831B01,,RUE ALEIDE DE GASPERI              ,MAASTRICHT,70173,NL,Stichting,no,
636914046.0,               ,,1,OUD-BEIJERLAND,1940AL,NL,Publiekrechtelijke rechtspersoon,no,
636944565.0,               ,724500IDDUA21IFZJP86,2,GORINCHEM,7620AA,NL,Stichting,no,
636933342.0,NL819952904B01,,4,WÃ¼rzburg,2220AN,NL,Stichting,no,
,               ,,12,HOUTEN,3800BM,NL,Publiekrechtelijke rechtspersoon,no,
636916227.0,NL002579108B01,,88,ARNHEM,8001BK,NL,Publiekrechtelijke rechtspersoon,no,
636964825.0,               ,,                                   ,Ludwigshafen am Rhein,2002CA,NL,Stichting,,
636912922.0,               ,,130,GOES,4100AC,NL,Besloten Vennootschap met gewone structuur,,
636905675.0,NL002306608B028,,60,'S-GRAVENHAGE,1000AZ,NL,Publiekrechtelijke rechtspersoon,no,
636954013.0,NL808649747B01,,2,'S-HERTOGENBOSCH,1380GB,NL,,no,
636935523.0,               ,,1,IJSSELMUIDEN,2501CB,NL,Naamloze Vennootschap met gewone structuur,no,724500DOKMD5RC1KHH77
636913503.0,NL001005650B01,,2,Dortmund,3330AA,US,Publiekrechtelijke rechtspersoon,no,
636920615.0,NL002832380B01,,1,ROTTERDAM,7600AA,NL,Besloten Vennootschap met gewone structuur,no,
,               ,,11,RIJSWIJK,3620AA,NL,Stichting,no,
636955281.0,NL001299918B01,,                                   ,NIJMEGEN,8470AC,NL,Stichting,no,
636906639.0,NL002968113B01,724500HWJ960A6KXVU21,3,UTRECHT,5320AA,NL,Besloten Vennootschap met gewone structuur,no,
636754006.0,NL002822994B01,,                                   ,Flensburg,3910AE,NL,Stichting,no,72450037XN6UE3WZV315
636802078.0,NL803223122B01,724500CVKOF6MX6Q4767,13,GRONINGEN,3502GJ,NL,Stichting,no,724500T96NNTFORH0B27
636753247.0,,,1,ENSCHEDE,1521 NC   ,NL,Commanditaire Vennootschap met Ã©Ã©n beherende vennoot,no,
636956024.0,NL001116046B01,,6,TILBURG,7740AA,NL,Stichting,no,724500YEQYVNXW7UTH73
636955583.0,               ,,,HARDENBERG,4330LA,DE,Publiekrechtelijke rechtspersoon,no,
636905292.0,               ,,210,IJSSELSTEIN,4561BD,NL,Publiekrechtelijke rechtspersoon,no,724500P8VBQ7P3MON370
636939235.0,NL809255832B01,,                                   ,LEEUWARDEN,42275,NL,Stichting,no,
636908704.0,NL809491102B01,,2,UTRECHT,2501CE,NL,Stichting,yes,
636950484.0,NL009288193B01,,27,ZOETERMEER,7400GC,NL,Stichting,no,724500RMHPRMDI67WQ38
636949559.0,NL852234454B01,,4,UnterschleiÃŸheim,5271GC,NL,Stichting,no,
636997901.0,               ,,500,HOUTEN,3001KD,NL,Naamloze Vennootschap blijkens statuten structuurvennootschap,no,
