house_number,city,province,postcode,country
,ROTTERDAM,,60325,Nederland
3,LEIDEN,,7521 PR,België
,ROTTERDAM,,2584 TX,Nederland
2,AMSTERDAM,,2596 AA,Nederland
6,,,1130,Nederland
,HILVERSUM,,,Nederland
10,AMERSFOORT,,3311 GR,Nederland
236,BERCHEM,,3133 CA,Nederland
1,ORLANDO,,1506 EK,Nederland
11,TILBURG,,5688 HP,Nederland
50,Amsterdam,,5926 VE,Nederland
50,EINDHOVEN,,2909 LD,Nederland
28,DEN HAAG,,10004,Nederland
ZZ 19 19,WIELSBEKE,,5692 EA,Nederland
223,Breda,,50132,Nederland
8C,MOERDIJK,,,Nederland
78,,,4811 SJ,Nederland
155,AALSMEER,,3511 SB,Nederland
,GILZE,,8485JD,Nederland
8,ABBENBROEK,,,Nederland
,ROTTERDAM,,5047 TM,Nederland
,NIEUW VENNEP,,5611 AZ,Nederland
1,BREDA,,5657 DH,Nederland
,AMSTERDAM,,1112 TC,Nederland
20 a,SPIJKENISSE,,3800 AD,Nederland
1,UDEN,,3000,Nederland
27,BREDA,,,Nederland
182,JEDDAH,,,Nederland
20,,,1175 RD,Nederland
347 b,LELYSTAD,,,Nederland
,Breda,,2597 JG,Nederland
27 B,BREDA,,D-04109,Nederland
29,,,1000,Nederland
2,,,4811 DJ,Nederland
60,,,3511 ER,Kenya
46,DRIEBERGEN-RIJSENBURG,,3818 EX,Nederland
1,VALKENSWAARD,,,Nederland
30,WAALWIJK,,7418 EE,Nederland
7368,DEN HAAG,,3972 LG,Nederland
,ROTTERDAM,,3621 BG,Nederland
449,,Noord-Holland,5612 AZ,Nederland
4,,,4906 CV,Nederland
899,,,,Nederland
51,NIJKERK,,3971PA,Nederland
100,Zwijndrecht,,2984AM,Nederland
80,GRONINGEN,,,United States
20,ROTTERDAM,,4815 HJ,Nederland
,HILVARENBEEK,,2719 EE,Nederland
,Hamburg,,9712 GL,Nederland
18,,,4705 RR,Nederland
140,BERGEIJK,,,Nederland
20,Abu Dhabi,,1101 CJ,Nederland
,Nuenen,,,Nederland
5410,AMSTERDAM,,1381 MZ,Nederland
,MIDDENBEEMSTER,,4614 BE,Nederland
17,,,7325 WC,Nederland
7,LELYSTAD,Noord-Holland,6521 AA,Nederland
6,BREDA,,3247 KC,Nederland
2,ZIERIKZEE,,4941 VL,Nederland
7,UTRECHT,,,Singapore
3,STAVANGER,,,Nederland
,AMSTERDAM,,3016 BB,Nederland
255,Schiphol-Rijk,,4301 AA,Nederland
1,ARNHEM,,,Nederland
3 5th floor,EERBEEK,,5583 TJ,Nederland
116,,,6971 LX,Nederland
,,,3528 BE,Nederland
1,HEILOO,,2288 BA,Nederland
,ZAANDAM,,2132 CD,Nederland
10,ALKMAAR,,1985BD,Finland
93,,,28006,Duitsland
8,Cincinnati,,3737 AL,Nederland
20,BREDA,,2594 AC,Spain
1,QUÉBEC,,-,Nederland
75,,,3763 LS,Nederland
6,SCHIPHOL,,4641 HW Ossendrecht,Nederland
22 h,,,7312 TG,Nederland
,EINDHOVEN,,2511 EZ,België
338,,,3813 ZX,Nederland
6,,,3740 AB,Nederland
15,ALBLASSERDAN,,3198 NB,Nederland
110,,Noord-Brabant,2587CJ,Nederland
,ZEEBRUGGE,,4824 AS,Nederland
- -,FRANKFURT,,,Nederland
22,,,9727 KB,Nederland
14,UTRECHT,,4813 BB,Nederland
,ROTTERDAM,,5231 BS,Nederland
5,,,4612 RC,Nederland
,MAASTRICHT,,1101 EB,Nederland
26,IJMUIDEN,,B-3560,Nederland
10,Hoevelaken,,8321 EH,Nederland
28,HAARLEM,,2952 BG,Nederland
52,VEGHEL,,,Nederland
10,,,2961 AW,Nederland
,HOUSTON TEXAS,,,Nederland
,RIO DE JANEIRO,,,Nederland
25,BREDA,,2628 CD,Nederland
,ISTANBUL,,4823 NE,Nederland
1,,,EC2V 5AE,Nederland
35,Utrecht,,3981 AJ,Nederland
,TILBURG,,,Nederland
,,,K2V 1C3,Nederland
903,Deurne,,3194 AM,Nederland
1,,,4875 CB,Nederland
70,HUISSEN,,D-80335,Nederland
4,Schiphol ( Amsterdam),,3542AB,Nederland
6,ALKMAAR,,,Nederland
21,HAMBURG,,1217 GP,Nederland
12,BREDA,Gelderland,1076 CV,Nederland
5,ALBLASSERDAM,,1118 CM,Nederland
1,SON,,9104 DN,Nederland
74,,Noord-Brabant,4538 BL,Nederland
,DELFT,,2518 AA,Nederland
201,HOOFDDORP,,4104 AK,Nederland
6,ALPHEN A/D RIJN,,,Nederland
32,DEN HAAG,,2593 HW,Nederland
17 a,AMERSFOORT,,31130,Nederland
1,Den Haag,,7554 PA,Nederland
52,ROTTERDAM,,,Nederland
10,,,Asten,Nederland
,Leuven,,76800,Nederland
,DUSSEN,,2274 XA,Nederland
20,DEN HAAG,,3871 AZ,Nederland
21,DORDRECHT,,5042 RX,Nederland
50,TILBURG,,2132 LN,Nederland
32,,,1185SX,Denmark
5,,,6118,Nederland
59,ENSCHEDE,,5928 RJ,Nederland
,NOORDWIJK,,4813 DA,Nederland
- -,ROTTERDAM,,2000,Nederland
6,ZAVENTEM,,,Nederland
26,GORINCHEM,,2132 LR,Nederland
155,GRONINGEN,,,Nederland
20,AMSTERDAM,,2811BE,Nederland
250,DEDEMSVAART,,4207 HN,Nederland
25,DELFT,,94110,Nederland
128,VELDHOVEN,,7609 RE,Nederland
,Den Haag,,2713 HX,Nederland
,,,1687 JB,Nederland
13,,,1118 DT,Nederland
,MAIDSTONE KENT,,,Nederland
65,UTRECHT,,1013HE,Nederland
4,ENSCHEDE,,5804 CD,Nederland
46,SCHIPHOL,,2132 LS /,Nederland
444,SCHIPHOL-RIJK,,5928 PN,Nederland
16,,,2719 EE,Nederland
3,BOTLEK-ROTTERDAM,,2030,Nederland
,EINDHOVEN,,Arnhem,Nederland
36,Wintelre,,,Nederland
37,DORDRECHT,,5038 WG,Duitsland
15,Rotterdam,,,Nederland
,Nashville,,3752 LW,Nederland
50,AMSTERDAM,,3071 KB,Nederland
23,NOORDWIJK (NOORDWIJK ZUID-HOLLAND),,5015 BW,Nederland
5,DELFT,,3542 DN,Nederland
,ENSCHEDE,,10179 10179,Nederland
- -,HEDEL,,,België
26,ROSMALEN,,4181 AD,Nederland
6,BRUSSEL,,,Nederland
1,,,7581 CZ,Nederland
,Waddinxveen,,2163,Nederland
7601,ROTTERDAM,,2153 PJ,Nederland
4,Rotterdam,,2665 MT,Nederland
,,,,Nederland
,AMSTELVEEN,,4904 SX,Nederland
5253-5254,,,4818 CP,Nederland
25,AMSTERDAM,,,Nederland
1,BERLICUM,,2985VH,Nederland
34,,,3526 KS,Nederland
29,BEST,,,Nederland
,ROTTERDAM,,4814 NE,Nederland
264,Helmond,,,Nederland
7,SCHIPHOL,,3526 XC,Nederland
,,,3818 LE,Nederland
8,,,,Nederland
350,EDE,,3342 LG,Nederland
5,BREDA,,D-44147,Nederland
7,,,3317 MH,Nederland
765,den haag,,,Nederland
7,,,,Nederland
1,HILVERSUM,,1217 GP,Nederland
2,ROTTERDAM,,5121 EA,Nederland
31,ROTTERDAM,,8025 BR,Nederland
8-10,,,-,Nederland
,GRONINGEN,,3199 LC,Nederland
9,CAPELLE A/D IJSSEL,,5141 HH,Nederland
58 3rd floor,SON,,7005 BC,Nederland
3 b,Oud Gastel (Roosendaal),,LE17 4XW,Nederland
26,,,00100,Nederland
7,,,1504,Nederland
9,NIJMEGEN,,5048 AR,Nederland
32,S'HERTOGENBOSCH,,3016 DJ,Nederland
2 G,ROTTERDAM,,3911MJ,Nederland
1,BUNSCHOTEN,,1082 MA,Duitsland
10,,,1118 EE,Nederland
,HONSELERSDIJK,,,Nederland
5,SITTARD,Noord-Brabant,2000,Nederland
7 c,GENT,,NN17 4AX,Nederland
,,,5145 RK,Nederland
9,MAASTRICHT,,33024,Nederland
36,Amsterdam,,,Nederland
,BREDA,,5804CD,Nederland
67-69,,,1118 EE,Nederland
65,,,4879 AJ,Nederland
29,,,5349 AE,Nederland
69,STOCKHOLM,,5513BZ,Nederland
3,TILBURG,,B-3140,Nederland
,,,1975 AG,Nederland
4,HAARLEM,,,Nederland
125,HOUTEN,,3295 WB,Nederland
22,DELDEN,,8037,Nederland
560 5,,,5047 TR,Nederland
1,BERWYN,,2800,Nederland
,GORINCHEM,,3088 KA,Nederland
52-54 CS 80001,ROTTERDAM,,3741 LS,Nederland
,,,,Nederland
80,NIJMEGEN,,2586XP,Nederland
16,,,,Nederland
26,,,9728 JT,Nederland
900,FRANKFURT AM MAIN,,,Nederland
20,ANTWERPEN,,,Nederland
10,,,3584 CS,Nederland
95,VOORHOUT,,2160,Nederland
39,DEURNE,,3818 JN,Nederland
21,ROTTERDAM,,5633 AE,Nederland
151,ROTTERDAM,,,Nederland
3,ALMELO,,,Nederland
29,Spijkernisse,,,Italy
34,DEN HAAG,,4826 AA,Nederland
76,,,,Nederland
300,,,5216 TV,South Africa
50,,,,Nederland
4,CULEMBORG,,,Nederland
6,,,3089 JH,Nederland
,WASHINGTON,,,Nederland
8,DRUNEN,,4617 MN,Nederland
26,UTRECHT,,5203 MB,Nederland
20,,,8071 DA,Nederland
496,,,5600 CC,Nederland
76,SON,,5916 PJ,Nederland
23,,,,Nederland
,TILBURG,,4811 CC,Nederland
,,,5102AA,Nederland
1,SCHIPHOL RIJK,,2242LH,Nederland
14,,,1182 LV,Nederland
,HOUSTON,,-,Nederland
44,,,4817 HG,Nederland
1,HARDENBERG,,4791 VC,Nederland
661,Groningen,,1930,Nederland
37,,,4824 PK,Nederland
11,ROTTERDAM,,,Nederland
3,ROSMALEN,,3197 LD,Nederland
,SCHIPHOL-RIJK,,3199 LD,Nederland
204,UTRECHT,,NY 10020,Nederland
,JEDDAH 21231 - KSA,,,Nederland
7,GORINCHEM,,89,Nederland
42,AMSTERDAM,,3247 XX,Nederland
1,ZUNDERT,,3191 HK,Nederland
,,,1077 XX,Nederland
1 A2,THOLEN,,5211 BA,Nederland
,ZWIJNDRECHT,,9761 TD,Nederland
6 k,ZEVENBERGEN,,4814 ND,Nederland
8,,,,Nederland
,,,9641KZ,Nederland
1,ROTTERDAM,,2971 VP,Nederland
18,HEERLEN,,1098 XG,Nederland
19,Zevenaar,,L-4362,Nederland
1,LEUSDEN,Noord-Brabant,3072 AG,Nederland
18 H,UTRECHT,,7556 NS Hengelo,Nederland
1,,,,Nederland
,AMSTERDAM,,,Nederland
4,AMSTERDAM,,,Nederland
210,UTRECHT,,2291 XT,Nederland
1,DE MEERN,,5081 NS,Nederland
8,,,4817 AR,Nederland
302,ARNHEM,,4817 NL,Nederland
1,,,,Nederland
26,VENRAY,,,Nederland
74,BREDA,,2967 XH,Nederland
11,,,1217 GP,Nederland
21,DEN HAAG,,,Nederland
110,,,7433,Nederland
3,,,,Nederland
72,,,1112 AN,Nederland
,DUIVEN,,2011 MP,Nederland
56,ZOETERMEER,,110001,Nederland
,HELMOND,,2516 AH,Nederland
32,,,3824 CD,Nederland
184,DELFT,,,Nederland
70,ROTTERDAM,,6825 MH,Nederland
,AMSTERDAM,,,Nederland
80-82,TILBURG,,4701 NK,Nederland
10,,Zuid-Holland,1031 HL,Nederland
1 - 3 ,DOESBURG,,3600,Nederland
1 102,,,,Nederland
3,BREDA,,B-2140,Nederland
13,EINDHOVEN,,3708 AH,Nederland
40,,,1013 AA,Nederland
7,DEN HAAG,,3012 KP,Brazil
10,BERKEL ENSCHOT,,,Nederland
12,Eindhoven,,,Nederland
3,KLUNDERT,,,Nederland
1,ROTTERDAM,,,Nederland
29,BREDA,,4817 PA,Nederland
76,DIEGEM,,,Nederland
80,Nieuwdorp,,1119 NK,Nederland
10,BOXMEER,,,Nederland
27,,,5928 RC,Nederland
12,Barendrecht,,,Nederland
,,,92806,Nederland
185,,,3818 ZB,Nederland
,ANTWERPEN,,,Nederland
1,,,5143 GJ,Nederland
20,BERGAMBACHT,,,Nederland
20,Delft,,,Nederland
,BUNNIK,,4814 AB,Nederland
2,VARSSEVELD,,4824 EH,Nederland
,PARIJS La Défense,,2909 LM,Nederland
1,,,,Nederland
3,,,3528 AC,Nederland
2,SCHIPHOL,,,Nederland
3,OOSTERHOUT,,1462VM,Nederland
,,,,Nederland
8,ZOETERMEER,,,Nederland
8A,Tilburg,,Laan 21,Nederland
158-160,OOSTERHOUT,,Oslo,Nederland
2,AMERSFOORT,,3011 BL,Nederland
30,LEIDEN,,5482ZA,Nederland
2,Moedrijk,Zuid-Holland,4460,Nederland
,,,,Nederland
5,Honselersdijk,,2000,Nederland
100,RHENEN,,SW7 5DP,Nederland
38,NIEUW-VENNEP,,4818 RL,Nederland
40,WAGENINGEN,,,Nederland
15,BREDA,,,Nederland
620,VEENENDAAL,,7547 RW,Nederland
1,,,,Nederland
,,,,Nederland
8,,,5061 AB,Duitsland
200,,,4707 ZH,Nederland
53-57,,,2611 RV,Nederland
1,EINDHOVEN,,3732 HK,België
16,EINDHOVEN,,600-755,Nederland
Zz 12 C,75006 Paris,,7472 DD,Nederland
3,,,12740,Nederland
64,ETTEN LEUR,,5275 JJ,Nederland
45,BREDA,,2611 RV,Nederland
,Heijen,,4702 VV,Nederland
,MAARSSEN,,8052 AD,Nederland
,AMSTERDAM,,1054 ES,Nederland
2 b,ZAANDAM,,8281 JV,Nederland
1,NEW YORK,,6961 LB,Nederland
15,'S HERTOGENBOSCH,,3532 AD,Nederland
124 -128,,,,Nederland
21,,,,Nederland
10,TILBURG,,5931 HM,Nederland
6b,Middelburg,,2289 DJ Rijswijk,Nederland
9,Kopenhagen,,B-2000,Nederland
Z.Z. 11,Schiphol,,4876 ZW,Nederland
5-7,,,6512 AB,Nederland
500,SCHIPHOL,,3024 EA,Nederland
100,BERLIN,,5691 TC,Nederland
6,MAASSLUIS,,,Nederland
2,BREDA,,3527 VX,Nederland
,RIJSWIJK,,3818 JN,Nederland
3,BUSSUM,,138628,Nederland
,ROOSENDAAL,,1016BS,Nederland
9,CAPELLE AAN DE IJSSEL,,1082 PP,Nederland
15,BARENDRECHT,,4819 BE,Nederland
,DELFT,,3089 KR,Nederland
12,LONDON,,,Nederland
177,DEN HAAG,,4818 CL,Nederland
-,LONDON,,3511 CE,Nederland
33,,,3176 PD,Nederland
,GOUDA,,4878 AH,Nederland
,IDSTEIN,,5462 EA,Denmark
45,HELVOIRT,,9290 AA,Nederland
2,UTRECHT,,7951 SC,Nederland
1 40,MAASSLUIS,,2288 EA,Nederland
229,,,,Nederland
120,WAGENINGEN,,5142 PA,Nederland
1,Breda,,,Nederland
16,ZWOLLE,,3521 AP,Nederland
50,EINDHOVEN,,3061 KD,Turkey
9,ARNHEM,,2719 CZ,Nederland
,BRUGGE,,5692 EB,Nederland
32,ROME,,V6C 3T4,Nederland
701,Nijmegen,,4261 BE,België
,RAAMSDONKSVEER,,7418 AH,Nederland
51,BILTHOVEN,,,Nederland
5,ROTTERDAM,,5612 AJ,Nederland
248,,,3054 BT,Nederland
9,STOCKHOLM,,6221 BT,Nederland
3,TILBURG,,,Nederland
1,,,738964,Nederland
10,GOTHENBURG,,1047 HM,Nederland
,,,5237 KA,Nederland
15,ROTTERDAM,,571 80,Nederland
16,,,2511 BW,Nederland
2,Papendrecht,,4811 RH,Nederland
1,OOSTERHOUT,,5022 DD,Nederland
,Den Haag,,,Nederland
4 - 1- ,GOUDA,,5223 GZ,Nederland
,HELMOND,,5211 TP,Nederland
17 Unit C,ROTTERDAM,,5038 TC,Nederland
29,VIENNA,,1081 JK,Nederland
25 H,ZUTPHEN,,,Nederland
21,DONGEN,,5582 HW,Nederland
15,URK,,,Nederland
312,,,3762 TB,België
5 c,Den Haag,,5617 BA,Brazil
6,ALPEN A/D RIJN,,5613AD,Nederland
3,SCHIPHOL,,6541 DC,Nederland
2,ROTTERDAM,,1059 CM,Nederland
130 a,AMSTERDAM,,3088 GD,Nederland
57,HELMOND,,7901 AW,Nederland
9 h,HORST,,,Nederland
11,Versmold,,7701 SE,Nederland
999,,,,Nederland
,AMSTERDAM,,B-2000,Nederland
10200,CAPE TOWN,,3821 AJ,Nederland
,ZOETERMEER,,3621 BH,Nederland
73,BREDA,,,Nederland
,Dirksland,Zuid-Holland,5466 RB,Nederland
13,BAARN,,,Nederland
184,BUBENEC,,3526 KL,Verenigd Koninkrijk
20,BERGEN OP ZOOM,,3905 KZ,Nederland
325,ANTWERPEN,,1422 AD,Nederland
19,LUND,,4813 DA,Nederland
-,,,3029 AD,Nederland
,DEN HAAG,,5504 DR ,Nederland
42,NIJMEGEN,,Den Haag,Nederland
100,,,5611 SR,Nederland
313,BREDA,,8200,Nederland
8,WEESP,,3072 DB,Nederland
9 f,,,2716LL,Nederland
86,ETTEN-LEUR,,,Nederland
7,RIJSWIJK,,4818 CP,Nederland
15,UTRECHT,,21073,Nederland
2,TILBURG,,Alkmaar,Nederland
68 a,VALKENSWAARD,,2585 AP,United States
1,SCHIPHOL RIJK,,5321 JT,Nederland
,SON,,2628 XE,Nederland
141,WERKENDAM,,1098 XH,Nederland
111,Reusel,,,Nederland
,WADDINXVEEN,,1077 ZX,Nederland
,AMSTERDAM,,,Nederland
31,,,5222 AS,Nederland
,UTRECHT,,8912 AM,Nederland
,NEW YORK,,4814 DC,Nederland
2,,,3023 CD,United States
37,Rotterdam,,,Nederland
5807,,,2272 AD,Nederland
62,,,5737 RV,Nederland
14,,,,Nederland
1,TERNEUZEN,,,Nederland
300,AMSTERDAM,Utrecht,,Nederland
1-3 Strand,,,9713 LA,Nederland
,GENT,,2595 AL,Nederland
32 -34,TROYES,,3704 HE,Nederland
,DEN HAAG,,,Nederland
71 A,EINDHOVEN,,2611AR,België
24,MUHARRAQ,,3088 GC,Nederland
505,,,,Nederland
2,DE KWAKEL,,,South Africa
-,GILZE,,-,Nederland
,,,,Nederland
81-83,,,B-2300,Nederland
2 t/m 14,UTRECHT,,,Nederland
,DE BILT,,3067 GG,Nederland
8,HOOFDDORP,,,Nederland
11,Rotterdam,Noord-Brabant,4704 RK,Nederland
2,ZAVENTEM,,,België
19,LEEUWARDEN,,,Nederland
,,,G1V 0A6,Nederland
,,,7742 PW,Nederland
,Oldenzaal,,5296 PZ,Nederland
622,ZOETERMEER,,,Nederland
27,Breda,,,Nederland
,,,5037 AB,Nederland
18,AMERSFOORT,,1030,Nederland
,VEENENDAAL,,8017 CA,Nederland
15 e,AMSTERDAM,,2131 RZ,Nederland
116,DIRKSLAND,,2611 RV,Nederland
95,S HEERENBERG,,5374 GX,Canada
111,Ulvenhout,,5047 RK,Nederland
41,,,3571 EM,Nederland
16,DRONTEN,,5211 CK,Nederland
10,DELFT,,,Nederland
123,,,,Nederland
,,,4782 PM,Nederland
,ANTWERPEN,,4704 RT,Nederland
83,DORDRECHT,,,Nederland
31 0,LEIDEN,,6984 AA,Nederland
4 c,,,9405 BJ,Italy
12,DEN HAAG,,4201 HL,België
160,UTRECHT,,6546 BB,Nederland
,TILBURG,,4815 NG,Nederland
,Den Haag,,,Nederland
,AALST,,6211 DW,Nederland
204-11,TILBURG,,2132 LR,Nederland
60,BREUKELEN,,8200,Nederland
15,Zutphen,,2629 HT,Nederland
,TILBURG,,1018 PL,Nederland
320,Bedford,,201 301,Nederland
20,BREDA,,8934 CJ,België
21,UTRECHT,,1081 GC,Nederland
,EINDHOVEN,,,België
78,MIJDRECHT,,4878 AH,Nederland
- -,'s Hertogenbosch,,76600,Nederland
6,,,2718 RJ,Nederland
7,,,,Nederland
5,HEDEL,,4045 PE,Nederland
,BREDA,,3603 CM,Nederland
11,Den Haag,,Roosendaal,Nederland
,Rijen,,-,Nederland
10B ,,,3195 ND,Nederland
,HOOFDDORP,,Den Haag,Nederland
,,,2586 JB,Nederland
7dD,DRIEBERGEN-RIJSENBURG,,,Nederland
452,,,2381 VH,Nederland
,,,2675 LN ,Nederland
9,Kopenhagen,,3905 NR,Nederland
,,,1185XB,Nederland
1,TILBURG,,4817 ZK,Nederland
,UTRECHT,,,Nederland
,HOOFDDORP,,,Nederland
,ENSCHEDE,,3196 KC,Nederland
2,ALPHEN AAN DEN RIJN,,5045 MR,Nederland
108 A,,,2800 Kgs,Nederland
12,VLAARDINGEN,,4811 AL,Nederland
45,BARCELONA,,5048 CG,Nederland
,,,4131 NJ,Nederland
,VUGHT,,5253 RK,Nederland
4,VENRAY,,Almere-Poort,Nederland
,BUDEL,,1406 NZ,Nederland
75,,,1042 AN,Nederland
600,,,30437-00100,Nederland
,BREDA,Zuid-Holland,,Nederland
15,TURNHOUT,,7041 GD,Nederland
,WAALWIJK,,3088 GC,Nederland
1,EINDHOVEN,,3125 BW,Nederland
,FIRENZE,,5521 CB,Nederland
8,SCHIPHOL,,,Nederland
55,Amersfoort,,4817 NL,Nederland
25,BREDA,,,Nederland
1,LAAKDAL,,,Nederland
25 C,,,3542 DZ,Nederland
17 b,GORINCHEM,,6831 GM,Nederland
,EINDHOVEN,,,Nederland
,,,,Nederland
,IZMIR,,Ch-8200,Nederland
2,RIDDERKERK,,,Nederland
81134 A,ROOSENDAAL,,1358,Nederland
1,MOL,,94105,Nederland
8,EINDHOVEN,,1314AN,Nederland
27,HARDERWIJK,,45128,Nederland
313,VEENENDAAL,,3271 BM,Nederland
6,WAALRE,,,Nederland
100,AMSTERDAM,,1755 LE,Nederland
,DEN HAAG,,3512 HM,Nederland
1,BREDA,,4703 RA,Nederland
,NIJKERK,,4837 DS,Nederland
,EINDHOVEN,,,Nederland
5 b,GOUDA,,12042 BRA (CN),Nederland
4,,,,Nederland
,,,3067 GG,Nederland
2,ARNHEM,,,Nederland
19,'S-HERTOGENBOSCH,,3199 LJ,Nederland
6-8,RIDDERKERK,,3981 AJ,Nederland
19,ZOETERMEER,,1040,Nederland
20-48,MILANO,,3513 EX,Denmark
1,HELMOND,,5038 WN,Nederland
,TILBURG,,1412 AN,Nederland
,,,45127,Nederland
1,ZEVENBERGEN,,50,België
135,,,,Nederland
20 B,WAALRE,,,Nederland
1,ZEVENHUIZEN,,5036 BC,Nederland
,SNEEK,,4851 CE,Nederland
750,ST. JANSTEEN,,,Nederland
30,,,5503 LB,Nederland
-,,,4705 RT,Nederland
6 -8,,,,Nederland
8,,,4817 NL,Nederland
8,,,3067 GG,België
4,MUNICH,,7006 RH,Nederland
13,Amsterdam,,,Nederland
60 A,AMSTERDAM,,8305 BS,Nederland
8,Someren,,1082 MS,Nederland
22,,,5126 BB,Nederland
13,ARNHEM,,5612 AJ,Nederland
2,,,,Nederland
60,KLUNDERT,,4815 PN,Nederland
90,,,7324 BD,Nederland
50,LELYSTAD,,7600,Nederland
13,CAPELLE A/D IJSSEL,,,Nederland
14,DEN HAAG,,2012 DE,Nederland
- -,,,1070-313,Nederland
,TOLENTINI-VENICE,,5928 LE,Nederland
,BEST,,2201 TB,Nederland
42,AMSTERDAM,Noord-Brabant,3899 AL,Nederland
40,AMSTERDAM,,5061 HW,Nederland
126,RIDDERKERK,,(ADNEC area),Nederland
303,DOETINCHEM,,4873 GW,Nederland
46,RIO DE JANEIRO,,1119 NH,Nederland
,ERP,,3818 LE,Nederland
,HOOFDDORP,,4834 XN,Nederland
6,HILVERSUM,,4104 AJ,Nederland
60,HEEMSKERK,,,Nederland
-,EINDHOVEN,,2593 CE,Nederland
8,OSS,,,Nederland
20,Veendam,,2012 NB,Nederland
12e,ROTTERDAM,,5091 RR,Indonesia
1914 35,Ouderkerk a/d Amstel,,2402 ZN,Nederland
95 D,ALKMAAR,,5644 JE,Nederland
,SCHIPHOL,,,Nederland
2,,,3208 LA,Nederland
166 /3,,,5232AD,Nederland
,APELDOORN,,,Nederland
120,ROTTERDAM,,,Nederland
15,AMSTERDAM,,DC 20008,Nederland
80,,,2511 BW,Nederland
1-3,VENLO,,92088,Nederland
,ROTTERDAM,,,Nederland
50,TERHEIJDEN,,,Nederland
50,GOES,,,Nederland
8,Bergen op Zoom,,6645 KD,Nederland
5 5,VEGHEL,,,Nederland
51,HAMBURG,,6422 PE,Nederland
175,ROTTERDAM,,4813 PW,Nederland
181,,,1424 LH,Nederland
195,LIVORNO,,-,Nederland
875,BARENDRECHT,,,Nederland
2,Eindhoven,,,Nederland
,,,6831 GV,Nederland
2,OOSTERHOUT,,1082 MA,Nederland
1,Brugge,,1975 AG,Nederland
268,,,,Nederland
60,,,,Nederland
1,EINDHOVEN,,3641 GG,Nederland
,Amsterdam,,3316 LB,Nederland
22,sassenheim,,,Nederland
144a ,NIEUWEGEIN,,3333 LD,Nederland
143-F25,BREDA,,B-2430,Nederland
,BREDA,,,Nederland
128,TILBURG,,6522 BW,Nederland
11,BREDA,,4131 LV,Nederland
2,NEDERWEERT,,2491 AC,Nederland
830,AMSTERDAM,,3871 JZ,Nederland
172 H,,,5281 PL,Nederland
2,,,5661 NG,Nederland
1,MECHELEN,,,Nederland
1 a,TILBURG,,3000,Nederland
72 d,Gent,,3072 AR,Nederland
425 -4,Staphorst,,4631 SZ,Nederland
15,JAKARTA,,,Nederland
118,HOOFDDORP,,,Nederland
5,Rotterdam,,3316 BG,Nederland
,WEESP,,2491 BJ,Nederland
67,ROTTERDAM,,3011 KD,Nederland
25,EERSEL,Overijssel,2800,Nederland
7,NIEUW KUIJK,,2288 GG,Nederland
29,Zeist,,,Nederland
875,ROTTERDAM,,5342 AT,Nederland
3,AMSTERDAM,,4844 CK,Nederland
366,BRUSSEL,,3447 GW,Nederland
,,,2594 AV,Nederland
125,,,5145 PB,Nederland
2,VALKENSWAARD,,,Nederland
28 a,LEERDAM,,1019 DT,Nederland
126,DORDRECHT,,,Nederland
5,REEUWIJK,,,Nederland
22-23,HOEK,,5627 HC,Nederland
50,,,,Nederland
15 -17,,,2722 AB,Nederland
1180,ETTEN-LEUR,,,Nederland
76,Breda,,3702 AA,Nederland
,,,6661 VR,Nederland
2,UTRECHT,,,Nederland
,EINDHOVEN,,3045 PM,Nederland
5,DELFT,,3089 KP,Sweden
178,SOLARIS 01-02 South Tower,,7513 DZ,Nederland
57,,California,6717LT,Nederland
122,Amsterdam,,8710,Nederland
9,,,3528 BA,Nederland
,,,3723 KG,Nederland
86 A,Heemskerk,,,Nederland
45,ZAANDAM,,1506 SZ,Nederland
1 1,DEN HAAG,,,België
4,,Noord-Brabant,,Nederland
85,Breda,,2231 BZ,Nederland
,AMSTERDAM,,3571 VE,Nederland
,ROOSENDAAL,,2984 BG,Nederland
82,,,,Nederland
105,SCHIPHOL,,,Nederland
,BREDA,,,Nederland
,ATLANTA,,3991 CD,Nederland
,VALKENSWAARD,,4001 DP,Nederland
10,SINGAPORE,,5531 CG,Nederland
273,BEVERWIJK,,2800,Nederland
23,OISTERWIJK,,3011 AA,Nederland
281 S8,SCHIPHOL,,1314 SK,Nederland
190,INDIANA,,,Nederland
39,ROTTERDAM,,1119 NR,Nederland
,,,,Nederland
15 -17,NIJMEGEN,,3527 KV,Nederland
300,VIANEN,,2801 DA,Nederland
855,Heerlen,,4812VJ,Nederland
20,UTRECHT,,,Nederland
,BUCHAREST,,,Nederland
51,Eindhoven,,,Nederland
94,,,,Nederland
45,HELMOND,,1217 EW,België
8,KLUNDERT,,N.v.t.,Nederland
2 a,TWELLO,,2719 DA,Nederland
144a ,ROTTERDAM,,,Nederland
77,WASSENAAR,,1118 DP,Nederland
4,AMSTERDAM,,,Nederland
3220,WEERT,,,Nederland
6b,UTRECHT,,,Nederland
,BREDA,,,Nederland
,LEERDAM,,49909,Nederland
,ROTTERDAM,,5928 PR,Nederland
77 Campus,,,100032,Nederland
5,Groningen,,2723 RH,Nederland
39,ROTTERDAM,,,Nederland
12,,,6604 CR,Nederland
,OOSTERHOUT,,5268 DN,Nederland
18,,,,Switzerland
44,Bonn,,1071 EA,Nederland
2-4,,,2803 PV,Duitsland
4,,,5246 AK,Nederland
5,ZEVENBERGEN,,2850,Nederland
300,,,4631 GC,Nederland
2 -6,ROTTERDAM,,3621 MX,Nederland
,,,4820 ZB,Nederland
300,Tilburg,,1118 DT,Nederland
33,,,EC3M 3BD,Nederland
450,STEENBERGEN,,4906 AA,België
27,MUNNEKEBUREN,,D-58119,Nederland
,APELDOORN,,4813 DA,Nederland
,,,4871 KK,Nederland
61-63,TILBURG,,,Nederland
7,ANTWERPEN,,4873 LP,Nederland
,AMSTERDAM,,5466 AE,Nederland
20,ERMELO,,,Nederland
,EINDHOVEN,,,Nederland
101,Roosendaal,,5612AX,Nederland
101,BREDA,,10158,Nederland
29,BRUSSEL,,3701 ES,Nederland
,,,3165 AL,Nederland
8,TILBURG,,2970,Nederland
21,BLEISWIJK,,6130AC,Nederland
3,Amsterdam,,1011 DK,Nederland
69 4e etage,VENLO,,,Russian Federation
10,NAARDEN,,2595 DA,Nederland
464,Duiven,,40221,Nederland
,BAARN,,4631 RP,Nederland
128,Alphen a/d Rijn,,2132 WT,Nederland
1,,,,United Arab Emirates
280,ROTTERDAM,,,Nederland
256,,,,Nederland
12,BREMERHAVEN,,9000,Nederland
92,,,3197 LG,Nederland
20,'S HEERENBERG,,8501 XC,Nederland
25,OOSTRUM - VENRAY,,2000,United Arab Emirates
36,Etten-Leur,,1066 VH,Nederland
,AMSTERDAM,,3941 RD,Nederland
5,,,,Nederland
29,ROTTERDAM,,4751 RA,Nederland
,GIESSEN,,40549,Nederland
32,WOERDEN,,,Nederland
38,GORINCHEM,,2391 PX,Nederland
,BREDA,,,Nederland
3,ZUNDERT,,3818 LE,Nederland
-,,,,Nederland
49,,,4815 CJ,Nederland
100,SOHAR,,2511 BH,Nederland
,MAASTRICHT,,4791 PB,Nederland
1,,,6211 LK,Nederland
18,BREDA,,2596 AW,Nederland
24,,,188065,Spain
,,,,Nederland
330,DORDRECHT,,TW15 2QP,Nederland
,,,2582 NE,Sweden
33,UTRECHT,,6512 BT,Nederland
46,TILBURG,,6921 RZ,Nederland
16,HOUTEN,,,Verenigd Koninkrijk
30 Gebouw A,AMSTERDAM,,4564 BP,Nederland
4040,Rotterdam,,1019 DW,Nederland
57674,HENGELO,,46980,Frankrijk
11,,,,Nederland
,,,4652 GA,Nederland
66,,,,Nederland
1377,Düsseldorf,,6191 GX,Nederland
79,IJMUIDEN,,2333 VT,Nederland
842,UTRECHT,,4207 HB,Nederland
5,BOXMEER,,5600 MB,Nederland
62,,,4837DS,Nederland
18,,,,Nederland
,DELFT,,,Nederland
313,Bleskensgraaf,,4611 BR,Nederland
148c,VENLO,,,België
,AMSTERDAM,,1948 LC,Nederland
10,,,,Nederland
18,,,3821 AL,Nederland
79,BREDA,,-,België
23a ,,,,Nederland
,'S-HERTOGENBOSCH,,4813 XE,Nederland
1711 10 th Andar,DEN HAAG,,marconistraat 16,Nederland
12    16,ARNHEM,,,Nederland
,UTRECHT,,4824 CA,Nederland
13,HOOGERHEIDEN,,,Nederland
2,Edinburgh,,9723HD,Nederland
12,Bergen op Zoom,,,Nederland
58,AMSTERDAM,,6716 AE,Nederland
25,DEN HAAG,,3087 BM,Nederland
2,ZOETERMEER,,3194 AA,Nederland
626,BUSSUM,,,Nederland
191,Diemen,,4816 KB,Nederland
86,,,,Nederland
10,,,,Nederland
,,,,Nederland
23,,,,Nederland
35,WIJCHEN,,,Nederland
,Bergeijk,,6211 AX,Nederland
60,,,5753 CP,Nederland
18,ARNHEM,,El Sayeda Zeinab,Nederland
92,Eindhoven,,4815 NC,Nederland
9,DILBEEK,,,Nederland
7c,ENSCHEDE,,,Nederland
62,ENSCHEDE,,189,Nederland
85,Teteringen,,,Nederland
,ARKEL,,9401 PL,Nederland
,S-HERTOGENBOSCH,,4010,Nederland
,,,06800,Nederland
1,OOSTERHOUT,,,Nederland
20,,,5062HB,Nederland
312,DEN HAAG,,1118 EG,Nederland
,DEN HAAG,,5928 RH,Indonesia
23,,,,Italy
2 23,HOOFDDORP,,,Nederland
20,AMERSFOORT,,2594CW,United States
12,,,,België
,,,HOUTEN,Sweden
7,,,6161 RD,Nederland
27,Den Haag,,1119 PE,Nederland
18 a,AMSTERDAM,,3088 GB,Nederland
30,Breda,,4811 XH,Finland
280,Nunspeet,,3900 AK,Nederland
9,Bleiswijk,,2595 AN,Nederland
12,BELSELE,,3584 BA,Nederland
- -,,,,Nederland
11,Breda,,6525 PM,Nederland
77,'s-Hertogenbosch,,,Nederland
230,ALMERE,,,Nederland
2,LEIDSCHENDAM,,2018,Nederland
9,ETTEN LEUR,,9202 PB,Nederland
7,Den Haag,,,Nederland
15,ARNHEM,,2594 AC,Nederland
2,ROOSENDAAL,,7924 RA,Nederland
2,BOOM,,1042 AN,Nederland
80,BUNSCHOTEN,,5232 BX,Nederland
10,ROTTERDAM,,Maria Hoop,Nederland
,'S HERTOGENBOSCH,,5102 XJ,Nederland
7,,,4782 SL,Nederland
52,SCHIPHOL,,,Nederland
,Doetinchem,,1081 HV,Nederland
6,HAARLEM,,7101 NT,Nederland
,,,2514 EH,Nederland
,Ridderkerk,,,Nederland
,TILBURG,,3331 MB,Nederland
,,,1343cb,Nederland
4,AMSTERDAM,,9000,Nederland
17 - 10 A,,,1013 AA,Nederland
10,TILBURG,,3084 BA,Nederland
10,,,5171 VL,Nederland
,ETTEN-LEUR,,6541 CX,Nederland
120,EINDHOVEN,,2593 CE,België
1,Geel,,,Nederland
11,,,1047 BP,Nederland
4,ROSMALEN/'S-HERTOGENBOSCH,Zuid-Holland,2400,Nederland
,,,4811 NN,Nederland
2,,,5026 RA,Nederland
21-25,HEERENVEEN-WEST,,5617 BC,Nederland
377,ALPHEN AAN DEN RIJN,,4907 PN,Nederland
9,GELDROP,,Houten,Nederland
227,,,4818 JD,Nederland
,MEPPEL,,,Spain
6,LONDON,,3062 BP,Nederland
2,KLUNDERT,,5803 AN,Nederland
,,,7513 GA,Nederland
19,DEN HAAG,,1000 BV,Nederland
,,,10172,Nederland
826,ZEIST,,2517HK,Frankrijk
48,MAASTRICHT,,160 00 Praque 6,Nederland
,Barneveld,,1017 KE,Nederland
2,TILBURG,,1031 HL,Nederland
30,WAALRE,,,Nederland
,ZOETERMEER,,5121 DN,Nederland
11,BEST,,9744 EM,Nederland
71,,,4878 AH,Nederland
27,,,4941 VX,Nederland
302,S HERTOGENBOSCH,,3032 AD,Nederland
,,,,Nederland
6,BALMA,,,Nederland
43 F,BREDA,,,Nederland
25,GOUDA,,4207 HB,Nederland
11,,,5241 LN,Nederland
70-78,BREDA,,3512 AX,Nederland
,,,57122,Nederland
49,GRONINGEN,,9723 DV,Nederland
102,ROTTERDAM,,3571GL,Nederland
19,REEUWIJK,,1951 JZ,België
,AMSTERDAM,,,Nederland
20,BARNEVELD,,4813 DA,Nederland
,OOSTERHOUT,,,Nederland
33,,,3131 ES,Nederland
26,UTRECHT,,4902ns,Nederland
12e ,BLEISWIJK,,3861 NC,Nederland
,UTRECHT,,5222 AV,Nederland
81,,,2971 VP,Nederland
19,,,63044,Nederland
20,UTRECHT,,2132 DK,Nederland
690,TILBURG,,8232 PH,Nederland
11 19 ,,,2805 PC,Nederland
,GORINCHEM,,3761 CL,Nederland
,EINDHOVEN,,,Nederland
21,VEGHEL,,6827 BA,Nederland
39,OSS,,,Nederland
22,ZOETERMEER,,,Nederland
2,,,,Nederland
3,Breda,,3024 EA,Nederland
200,KAMPEN,,,Nederland
2,KLUNDERT,,,Nederland
2,DEN BOSCH,Noord-Holland,,Nederland
,VEGHEL,,3010,Nederland
1,,,,Nederland
,,,7141 DC,Nederland
240,NIEUWEGEIN,,5341 GL,Nederland
,EINDHOVEN,Zuid-Holland,,Nederland
606 a,VEENENDAAL,,,Nederland
14,Esch-sur-Alzette,,6411 GX,Nederland
33,Zwijndrecht,,2006,Nederland
14,NIJMEGEN,,4020,Nederland
2-4,SHANGHAI,,1040 BN,Nederland
,Oss,,3769 AP,Nederland
,HELSINKI,,3072 AR,Nederland
43,AMSTERDAM,,2803 PE,Nederland
,BRUSSEL,,,Nederland
40,NIJMEGEN,,1118 LD,Nederland
,ANTWERPEN,,3528 BE,Nederland
41,SON,,,Nederland
,HAARLEM,,8011 VZ,Nederland
79-81,MOERDIJK,,35210 Pasaport,Nederland
130,,,5611 ZT,Nederland
,VELP,,4906 CT,Nederland
47 A,BUNNIK,,3992 PK,Nederland
9,,,,Nederland
85,BEMMEL,,3512 NS,Nederland
8,Rotterdam,,,Nederland
,HAMBURG,,2851 EA,Nederland
52,,,2594 AV,Nederland
2 t/m 4,GRONINGEN,,4811 CN,Nederland
20,,,5047 TK,Nederland
10,EINDHOVEN,,Tilburg,Nederland
9,ROTTERDAM,,5711 EG,Nederland
,DEN HAAG,,5151 DT,Nederland
1 Rembrandt Toren 14de verdieping,,,3521 AL,Nederland
31,,,2909 LD,Nederland
21,,,3621 ZA,Nederland
,Leuven,,6411 TE,Nederland
151,Maastricht,,NL-3198 LS,Nederland
14,'S-HERTOGENBOSCH,,,Nederland
11,Schiphol,,,Nederland
3,,,3071 AA,United States
1,VILVOORDE,,,Nederland
,Waalre,,2991 LH,Nederland
120,TILBURG,,75014,Nederland
82,EINDHOVEN,,3072 AR,Nederland
700,HOOGVLIET,,4782 SL,Nederland
8,ABBENBROEK,,,Nederland
40,DEN HAAG,,,Nederland
23,,,5233 NJ,Nederland
43-47,Breda,,,Nederland
,ROTTERDAM - BOTLEK,,2018,Nederland
81,DE BILT,,5684 PK,Nederland
16,Eindhoven,,1322 AP,Nederland
,Zaandam,,6361 HK,België
,,,2628 CK,Nederland
12,ROTTERDAM,,D-04109,Nederland
,Schiphol,,7554 RR,Nederland
12,ZURICH,,6227 BL,Nederland
,HOOFDDORP,,5301 LZ,Nederland
15,,,1018 LL,Nederland
13,ZOETERMEER,,1119 NT,Nederland
29,LANTAU,,4881 HD,België
11,AMSTERDAM,,45481,Nederland
6,,,2275 VD,Nederland
176,Gent,,1076,Nederland
3,DRUTEN,,5048 AB,Nederland
3,TILBURG,,,Nederland
289,ZOETERMEER,,8914 BE,Nederland
65,,,1051 TV,Nederland
10,ROTTERDAM,,,Nederland
str 1,,,1911EL,Nederland
1,MIJNSHEERENLAND,,1412AN,Nederland
14,,,Dordrecht,Nederland
14,,,5801 MB,Nederland
,São Paulo SP,,,Nederland
42-52,EINDHOVEN,,1217 EW,Nederland
,SLIEDRECHT,,1781 ZZ,Nederland
,,,,Nederland
173,Mumbai,,3331 CD,Nederland
18 a,Breda,,,Nederland
188,SINT-MICHIELS/BRUGGE,,,Nederland
,MAYFAIR,,,Nederland
45,ROTTERDAM,,5611 CA,Nederland
,BRUXELLES,,3312 KW,Nederland
,Breda,,201103,Nederland
7,AMERSFOORT,,,Nederland
1,ROTTERDAM,,3361EP,Nederland
2,AMERSFOORT,,3811 MH,Nederland
2,IJSSELSTEIN,,2629 JD,Nederland
500,DELFT,,,Nederland
,Veghel,,2521 CC,Nederland
20,BEEK (LB),,,Nederland
189-191,ENSCHEDE,,1017EM,Nederland
810,VEENDAM,,3334KG,Nederland
4,Buren,,4811 XC,Nederland
,DELFT,,9351 VH,Nederland
100,BREDA,,2132 MS,Nederland
5,,,AB T2N 1N4,Nederland
73,Roosendaal,,3312 AM,Nederland
28,CASTELFRANCO VENETO (TV),Noord-Brabant,5221 EE,Nederland
1,HILVERSUM,,63130,Nederland
313,,,,Nederland
64,Middelburg,,7418 BG,Nederland
75,ROTTERDAM,,2404 CG,Nederland
13 - bus 5005,,,,Nederland
309 a,ROTTERDAM,,,Nederland
6,BREDA,,6422 PM,Nederland
,Rotterdam,,9052,Nederland
3,AMSTERDAM,,Westmalle,Nederland
16,ZOETERMEER,,5692 HR,Nederland
3 D,ASSEN,,,Nederland
19 c,,,4815 HV,Nederland
6,OSS,,,Nederland
27,,,1102 MG,Nederland
38,ROTTERDAM,,4906 AB,Nederland
,SCHIEDAM,,2404 CB,Nederland
,Breda,,5701 PH,Nederland
,DORST,,,Nederland
98,MAARSSEN,,5813 CD,Nederland
,,,4907 HJ,Nederland
28,Miami Florida,,,Bulgaria
,WAALWIJK,,,Nederland
1,,,5807 EZ,Nederland
9,NIEUWERKERK A/D IJSSEL,,5258AP,Nederland
142,,,4836 LD,Duitsland
33,BARENDRECHT,,7471 LL,Nederland
25,,,WC 2N 5HR,Nederland
4,SCHIPHOL,,2984 AN,Nederland
18,,,5222 AE,Nederland
22,,,,Nederland
6 -10,IJSSELSTEIN,,1118LD,Nederland
144,,,,Nederland
2,ROTTERDAM,,3023 DL,Nederland
171,HOOFDDORP,Zuid-Holland,,Nederland
,VOORTHUIZEN,,D - 44227,Nederland
,ZEIST,,8152 BN,Nederland
182,ROOSENDAAL,,95053,Nederland
23,,,6685 BP,Nederland
,,,3062 PA,Turkey
499,AMSTERDAM,,,Nederland
367,VLODROP,,5582 GD,Nederland
7,,,1013 AS,Nederland
2,LIJNDEN,,1043 NX,Nederland
60,ZWOLLE,,,Nederland
,,,4879 NE,Nederland
15,Breda,,,Nederland
167,DUIVEN,,,Nederland
21,RAAMSDONKSVEER,,3045 AP,Nederland
,SLIEDRECHT,,5232 BC,Nederland
3,,,,Nederland
-,MOMBASA,,3335 XH,Nederland
2,RAAMSDONKSVEER,,-,Nederland
3rd floor,Nijmegen,,2514 JG,Nederland
,LEEUWARDEN,,3771 MP,Nederland
4,NEW YORK,,1431 GD,Nederland
5,DEVENTER,,6229 GA,Nederland
1,Nijmegen,,1221 AB,Nederland
93,Vianen,,,Nederland
43,UTRECHT,,-,United Arab Emirates
43,EINDHOVEN,,8017 JW,Nederland
70 -78,BREDA,,,Verenigd Koninkrijk
400,GENT,,1013 BK,Nederland
,BERGEN OP ZOOM,,4791 VC,Nederland
1,Den Haag,,,Nederland
6,BREDA,,,Nederland
,BARNEVELD,,37203,Nederland
9 a,Nijmegen,,,Nederland
,BREDA,,1082 MA,Nederland
15,ZWIJNDRECHT,,5684 PH,Nederland
,EINDHOVEN,,1118 LP,Nederland
13,?S-HERTOGENBOSCH,,5735 PC,Nederland
10,,,2521 DD,Nederland
14,EINDHOVEN,,2343 LB,Nederland
48 b,Tilburg,Noord-Holland,Ulestraten,Nederland
14,UTRECHT,,300042,Nederland
9,BERGEN OP ZOOM,,3641 SR,Nederland
16,GELEEN,,1506 MA,Nederland
2,MAASTRICHT,,5928 RH,Nederland
44,WOGNUM,Noord-Holland,400093,Nederland
,WILMINGTON,,,Nederland
,,,69621,Nederland
14,CHICAGO ILINOIS,,,Nederland
7,ZWOLLE,,,Nederland
,SCHAFFHAUSEN,,4907 BE,Nederland
,ROTTERDAM,,4782 SK,Nederland
150,'s HERTOGENBOSCH,,4811 RS,Nederland
378,BUNNIK,,4531 PD,Nederland
54,'s-Hertogenbosch,,4875 AA,Nederland
,MOERDIJK,,3743 DT,Nederland
,EINDHOVEN,,1761JM,Nederland
9,,,,Nederland
,,,5081 PJ,Nederland
2,Den Haag,,4818 BV,Nederland
2,BREDA,,,Nederland
1,ALMERE,,30309,Nederland
19,,,5612 AZ,Nederland
24924,,,5571 LK,Spain
,TILBURG,,5928 LV,Nederland
55,EINDHOVEN,,,Nederland
,HOEVEN,,6902 PA,Nederland
4,Antwerpen,,5961 PX/Postbus 6152,Nederland
54,Haarlem,,1118 CZ,Nederland
4,ETTEN-LEUR,,,Nederland
50 -68,,,,Nederland
,ZOETERMEER,,Breda,Nederland
595,,,1117 BM,Nederland
13001,,,6160 BD,Nederland
22,,,3821 AL,Nederland
,HOUTEN,,5612AX,Nederland
240,DE MEERN,,,Nederland
4G ,RIJEN,,5692 DH,Spain
366,DEN HAAG,,2288 EK,Nederland
,Amsterdam,,2518 AX,Nederland
188,1687 CL,,4906 CG,Nederland
,SCHIPHOL-ZUID,,5627JE,Nederland
,BOXTEL,,,Nederland
1,,,1217 GN,Nederland
,,,8332 JZ,Nederland
52,,,,Nederland
,AMSTERDAM,,5627 HL,Nederland
20,VENLO,,ME10 3RN,Nederland
2,VENLO,,W1J6BY,Nederland
229,VIANEN,,,Austria
,Breda,,1078 GZ,Nederland
6,ZOETERWOUDE,,4706 KT,Nederland
19-21,GOUDA,,60549,Nederland
43A,WAALWIJK,,1016 EA,Nederland
20,ALMERE,,6511 PP,Nederland
100,DOETINCHEM,,3439 LM,Nederland
1,THOM,,3087 BM,Nederland
10,GOUDA,,Nbr,Nederland
,DOETINCHEM,,4811 DK,Nederland
20,,,,Nederland
1,,,,Nederland
11,DOETINCHEM,,,Nederland
1031,AALSMEER,,5928 PR,Nederland
14,KENT,,,Nederland
64,,,,Nederland
111,NAARDEN,,5021 LB,Nederland
5,,,RG6 6AY,Nederland
,Breda,,6824 BM,Nederland
1,BRUSSEL,,3089 JK,Nederland
,RHOON,,1394,Nederland
51-53,,,,Nederland
30,Eersel,,3016 CK,Nederland
33 -65,,,2596 AA,Nederland
5,GENT,,4811 XS,Nederland
4,,,1101 CP,Nederland
126,BORDEAUX CEDEX,,,Nederland
17,DELFT,,ME14 1XX,Nederland
,Amsterdam,,2408 ZE,Nederland
1050,DÜSSELDORF,,4201 XA,Nederland
1,DIDAM,,4611 AR,Nederland
572,MAASTRICHT,,1687 CL,Nederland
,,,1217 PD,Nederland
15,Rotterdam,,B-3500,Nederland
20,MOERDIJK,,7772 BJ,Nederland
909,BREDA,,2018 Antwerpen,Nederland
2,,,,Nederland
,TILBURG,,,Nederland
20,,,6718 TB,België
,Dordrecht,,3295 XZ,Nederland
,EDE,,4891 CN,Nederland
800,AMSTERDAM,,CH-8401,Nederland
2,DEN HAAG,,,Nederland
20,ROSMALEN,,5617 AJ,Nederland
4,Dordrecht,,5521 DJ,Nederland
46,Rotterdam,,5126 PT,Nederland
,,,4941 VX,Nederland
,,,4706,Nederland
95,S HERTOGENBOSCH,,4908 DZ,Nederland
5,,,4837 BR,Nederland
,Puteaux Cedex,,3072 AP,Nederland
16-18,Oude Meer,,,Nederland
,AMSTERDAM,,4818 CP,Nederland
22,BREDA,,Schiphol,Nederland
70,TILBURG,,3447 GW,Nederland
,Breda,,3584 AA,Nederland
37,MALTA,,5541 RA,Nederland
1G,ZOETERMEER,,2811 NV,Nederland
,ERP,,4462 EW,Nederland
4,LELYSTAD,,4813 DA,Nederland
38,HAASTRECHT,,4612 RC,Nederland
10,SCHIPHOL,,D-40213,Nederland
1,SASSENHEIM,,7006 RH,Nederland
208a,Amsterdam,,,Nederland
25,,,,Nederland
150 150,FRANKFURT,,4818 CP,Nederland
1,DIRKSLAND,,5555 XC,Nederland
,BOSTON,,5037 AA,Nederland
7,,,2861 ES,Nederland
,,,,Nederland
,,,3871 MV,Nederland
4,RIJSWIJK,,4207 HB,Nederland
108 A,,,B-2000,Nederland
34,Montevideo,,,Nederland
466,,,8917 DD,Nederland
140,AMSTERDAM,,,Nederland
2,Honselersdijk,,3088 HE,Nederland
40 a,DEN HAAG,,5831 AV,Nederland
10,,,5222 AE,Nederland
,HARDENBERG,,4814 RP,Duitsland
22,,,,Nederland
17,Den Bosch,,B-1040,Nederland
12e,ALMERE,,1018 WB,Nederland
2,,,,Nederland
4,ZEEBRUGGE,,,Nederland
,AMSTERDAM,,B-2845,Nederland
24 a,ROTTERDAM,,3800 AL,Nederland
,DEN HAAG,,4131 NR,Nederland
4,,,50132,Nederland
33,,,D-4047,Nederland
69,ROTTERDAM,,4271BA,Nederland
41,Breda,,1017 ZP,Nederland
1131,BREDA,,4382 AC,Nederland
12,WAALWIJK,,6841 HA,Nederland
,RALEIGH NORTH CAROLINA,,3981 AZ,Nederland
75,WOERDEN,,6000 AZ,Nederland
1,NUENEN,,2718 RP,Nederland
,Los Angeles,,,Nederland
29,VENRAY,,,Nederland
87,Zaragoza,,60313,Nederland
,,,,Nederland
,DEN HAAG,,,Nederland
31,,,1930,België
,,,2622 CZ,Nederland
50,Oegstgeest,,1042 AD,Nederland
2,SCHIEDAM,,,Israel
40,,,9111,Nederland
61 -63,DORDRECHT,,,Nederland
18,,,5405 BS,Nederland
1,,,3247 KC,Nederland
,WAALWIJK,,,Nederland
15,ETTEN-LEUR,,1115 AD,Nederland
110,DIEMEN,,4214 KC,Nederland
8,LEEUWARDEN,,2987 VD,Nederland
6,,,3331 MB,Nederland
,ROTTERDAM,,A-1010,België
26,,,9735 AD,Nederland
,MAASEIK-NEEROETEREN,,5751 HJ,Luxembourg
19,SCHIPHOL-RIJK,,B-8380,Nederland
40,ROZENBURG/AALSMEER,,,Nederland
,AMSTERDAM,,1700,Nederland
9,SOEST,,5612 AB,Nederland
,Hasselt,,,Nederland
13,SLIEDRECHT,,2514 EE,Nederland
12,ROOSENDAAL,,2912 GK,Nederland
1,Lyngby,,B-9300,Nederland
2,Gouda,,5652 XR,Nederland
15,POORTUGAL,,3241 LC,Nederland
2,UTRECHT,,3068 AV,Nederland
25,ROTTERDAM,,4814 RD,Nederland
238,MIDDELBURG,,,Nederland
,Roosendaal,,2994 LD,Nederland
,VENRAY,,7821AX,Nederland
,ZWOLLE,,7121 LH,Nederland
,VEGHEL,,,Nederland
37,Copenhagen K,,5462 CE,Nederland
10,ROTTERDAM,,4600 AC,Nederland
40,Amersfoort,,3606 AK,Nederland
42,,,1013 AA,Nederland
,ROTTERDAM,,14853,Nederland
,CAPELLE A/D IJSSEL,,1431GB,Nederland
29,BARENDRECHT,,3542 DA,Nederland
2,,,3840 AL,Nederland
8,AALSMEER,,Jamaica,Nederland
80,Milano,,,Nederland
501,Nijmegen,,7556 BN,Nederland
52,Emmeloord,,,Nederland
15,,,6651 KH,Nederland
48,,,1222 AB,Nederland
11,,,,Nederland
26 C,Tilburg,,1016 BR,Nederland
3a,UTRECHT,,2742 RH,Nederland
68,DEN HAAG,,200240,Nederland
,AMSTELVEEN,,,Nederland
11,Eindhoven,,04717-004,Nederland
183 C,,,2514 HM,Nederland
,Antwerpen,,7041 BG,Nederland
12,'S-GRAVENDEEL,,3087 BM,Nederland
,GENT,,2595 AL,Nederland
66,LISSE,,27568,China
81,DUSSELDORF,,5692 EN,Nederland
4,Den Helder,,20097,Nederland
,STEENBERGEN,,,Nederland
93 C,HONSELERSDIJK,,4149-002,Nederland
,DEN DUNGEN,,1112 XN,Nederland
,,,4906 CX,Nederland
,BEST,,Maidstone 56 5026 SK,Nederland
8,HOOGEVEEN,,4811 VX,Nederland
22,DEN HAAG,,4761 BJ,Nederland
21,SCHIPHOL AIRPORT,Noord-Brabant,6596 AB,Nederland
60,BREDA,,,Frankrijk
37,,,3195 ND,Nederland
,JOURE,,2153 GB,Nederland
17,ZEEWOLDE,,,Nederland
365,,,7573 PA,Nederland
2,,,,Nederland
49,"Beesd,",,5531 DT,Nederland
4-d034-4,UTRECHT,,,Nederland
1,DELFT,,3402 XN,Nederland
12,ASSEN,,9645 LA,Nederland
2,,,5062 AH,België
2,,,3511 EP,Nederland
22,Amsterdam,,,Nederland
59,,,,Nederland
6,TILBURG,,9401 LA,Nederland
8,RAAMSDONKSVEER,,5674 PS,Nederland
52,Breda,,,Spain
150,,,Kerkdriel,Nederland
,LEMELERVELD,,,Duitsland
,,,5222 AV,België
,BREDA,,,Nederland
1,,,,Nederland
,Esch,,1221 BC,Nederland
82,BAARN,,56179,Nederland
43,Venlo,,4891 CB,Nederland
,DEN BOSCH,,9355 TB,Nederland
78,DEN HAAG,,4153 BW,Nederland
68,Kolham,,,Denmark
,THOLEN,,DE 89077,Nederland
56,THE HAGUE,,7521 AG,Nederland
,DEN HAAG,,,Nederland
7700,,,3088 HH,Nederland
37,,,75116,Nederland
72,DEN HAAG,,1976 CB,Nederland
41,Nootdorp,,3011 XB,Nederland
9,,,,Nederland
4,ZAANDAM,,3818 LE,Nederland
50,Kollum,,5200 MC,Nederland
15,CAIRO,,3113 AN,Nederland
111 bus 19,,,RG21 4HG,Nederland
59,UTRECHT,,3063 ED,Nederland
,ROOSENDAAL,,,Nederland
8,Amsterdam,,4817 NL,Nederland
93 A,RIDDERKERK,,,Nederland
1065,GRONINGEN,,4818 SL,Nederland
31,,,5223 LA,Nederland
43,,,7327 GM,Nederland
,,,3083 EB,Nederland
711,ROTTERDAM,,,Nederland
123 B,,,4651 SL,Nederland
96,Rotterdam,,5263Ea,Nederland
1032,Europoort,,,Nederland
,'S-HERTOGENBOSCH,,3981 PB,Nederland
4 a,ALMERE,,7041 KJ,Nederland
300,,,,Nederland
188,,,2715 CA,Nederland
1,PUTTEN,,3527 JP,Nederland
5,Leiden,,2405 EN,Nederland
28,DEN HAAG,Noord-Brabant,,United States
,MIJDRECHT,,3364 DA,Nederland
102,BREDA,,4337 ER,Nederland
40,SASSENHEIM,,5708 HR,Nederland
10,Sävedalen,,5236 BB,Nederland
- -,Hazerswoude Dorp,,,Nederland
,Etten-Leur,,7361 CT,Nederland
750,,,3011 BL,Nederland
1,ALKMAAR,,,Nederland
60,VLAARDINGEN,,,Nederland
44,VENLO,,6811 KS,Nederland
1,HONG KONG,,5047 RK,Bahrain
434,MIDDENBEEMSTER,,-,Nederland
51,SINGAPORE,,,Nederland
11,Rotterdam,,MI 48105,Nederland
,UTRECHT,,Eindhoven,Nederland
3,,,5612 HB,Nederland
63,NOORDHORN,,3846 BX,Nederland
113,MENEN,,DC 20433,Nederland
6,MAASDIJK,,3081 AB,Nederland
1,UTRECHT,,,Nederland
21,,,5342 LW,Nederland
1001,,,5595 XD,Nederland
83,MIDWOLDE,,,Nederland
74,MIDDENMEER,,7041 DS,België
11,Oosterhout,,4622 RD,Nederland
321,DEN HAAG,,5237 MJ,Nederland
,RIJNSBURG,,,Nederland
24,BEDUM,,,Nederland
1,KORTRIJK,,5340AM,Nederland
,HEERLEN,,1097 DZ,Nederland
6522,,,D-65510,Nederland
32,TILBURG,,5015 BP,Nederland
,BARENDRECHT,,3821 AL,Nederland
9,Bodegraven,,,Nederland
,ROTTERDAM,,,Nederland
,ZÜRICH,,,Nederland
40,CLERMONT FERREAND,,3061 GW,Nederland
,BERGEN OP ZOOM,,2497 GB,Nederland
100,HOOFDDORP,,B-9042,Nederland
6 t/m 8,NIEUWKUIJK,,,Nederland
151,Bussum,,2514 KG,Nederland
6,,,2611 BB,Nederland
5,ARNHEM,,B-1040,Nederland
75,Breda,,4614 CM,Nederland
17,BARENDRECHT,,4811 VB,Nederland
95,SON,,4815 NC,België
263,GOOR,,,Nederland
250,ROTTERDAM,,3016 CJ,Nederland
,BASEL,,1079 LK,Nederland
,HILVERSUM,,Apeldoorn,Nederland
54-80,VEENENDAAL,,5032 ML,Nederland
12,HOOFDDORP,,4811 XC,Nederland
,BREDA,,,Nederland
2,DEN HAAG,,,Nederland
19,BREDA,Noord-Brabant,Schiedamseweg 79,Nederland
30,BAARN,,3904AT,Taiwan
24,Schiphol,,7316 BW,Nederland
25,Groningen,,,Nederland
,,,2991 XL,Nederland
2737 F,OOSTERHOUT,,15707 Cb,Nederland
6a ,'S-HERTOGENBOSCH,,,Verenigd Koninkrijk
11,ROTTERDAM,,5061 JV,Nederland
130 a,LEEUWARDEN,Utrecht,32,Nederland
90155,OOSTERHOUT,,,Nederland
50,VENRAY,,1437 EJ,Nederland
31,,,7201 DN,Nederland
39,,,,Nederland
,,,5046 CV,Nederland
57,HENGELO,,4817 BL Breda,Nederland
121,Zevenaar,,3316 LC,Nederland
15,OOSTERHOUT,,,Nederland
201,ANTWERPEN,,4819 CJ,Nederland
2,BRIDGETON MISSOURI,,1040,Nederland
551,ROTTERDAM,,2719 EE,Nederland
22,,,4872 LA,Nederland
10,AMSTERDAM,,3454 PK,Nederland
13,UTRECHT,,2991 LS,Nederland
1,Utrecht,,,Nederland
383,NÄSSJÖ,,1334 PA,Nederland
63 -65,BAARLE-NASSAU,,4455 TE,Nederland
63,AMERSFOORT,,5232 BE,Norway
,,,3134 ZB,Nederland
,ZEIST,,3199 LD,Nederland
156,MERS?N,,5613 EA,Nederland
,KERKDRIEL,,8413 EB,Nederland
,TILBURG,,3165 AL,Nederland
25,VENLO,,3011 AA,Nederland
25A,Zwijndrecht,,Maarssen,Italy
,VELSEN-NOORD,,,Nederland
14,BARENDRECHT,,Spoorlaan 181,Nederland
,'S-HERTOGENBOSCH,,,Nederland
11,ROTTERDAM,,2594 AV,Nederland
,ANTWERPEN,,2288 EK,Verenigd Koninkrijk
19,,,B-1050,Nederland
,,,6031 HW,Nederland
1,BERGEN OP ZOOM,,,Nederland
39,BREDA,,3011 XB,Nederland
9,,,4143 LT,Nederland
,TOURS,,4761 VH,Nederland
5001,UTRECHT,,1506 RZ,Nederland
,OISTERWIJK,,50009,Nederland
42,Rotterdam,,,Nederland
,RICHARDSON,,4335 JA,Nederland
,BREDA,,,Nederland
,UTRECHT,,2511 CR,Nederland
,WINSCHOTEN,,5037 AB,Nederland
11,MOLDE,,,Nederland
9,MUTTENZ N. BASEL SWITZERLAND,,,Nederland
35 E,AMSTERDAM,,2628BX,Nederland
9,ST. GALLEN,,35700,Nederland
8 a,AMSTERDAM,,33140,Nederland
49,HILVARENBEEK,,1217 EW,Nederland
,ROOSENDAAL,,3112 HJ,India
,LONDON,,4817 ZK,Nederland
,AMSTERDAM,,6211 CD,Nederland
,,,5731 SG,Nederland
6,TILBURG,,,Nederland
2,Eelde,,5211 BA,België
,SCHIPHOL,,4903 RG,Nederland
,AMSTERDAM,,1101 GC,Nederland
184,RENNES,,TX 77072-5206,Nederland
61,DEN HAAG,,3364 DA,Nederland
55,ZONHOVEN,,,Nederland
,ARNHEM,,Wilhelminakade 175?,Nederland
,BOXTEL,,4701 BM,Nederland
,,,1030,Nederland
20 /2,,,3316 GL,Nederland
20,VUGHT,,1182 GP,Nederland
,TALENCE,,4811 LW,Nederland
75,EINDHOVEN,,Giessen,Nederland
25,GROOT-AMMERS,,4814 TR,Nederland
75-77,RIJSBERGEN,,4811 HL,Nederland
10 0,OIRSCHOT,,,United States
4,,,4561 MG,Nederland
10,GENNEP,,3454 PX,Nederland
,HEDEL,,1191 JN,Nederland
,DORDRECHT,,20146,Nederland
201,SPIJKENISSE,,1325 CK,Nederland
24,PAPENDRECHT,,,Nederland
203 203,DELFT,,5656 AE,Nederland
,WAALWIJK,,3526 KV,Nederland
,DOETINCHEM,,B-2440,Nederland
321,WASSENAAR,,1042 AG,Nederland
11,,,,Nederland
909,Bethlehem,,4105 JX,Nederland
12,AMSTERDAM,,1187 XR,Nederland
,BERGEN OP ZOOM,,2288 GK,Nederland
64,,,9727 DL,Nederland
35,COEVORDEN,,9700 AV,Nederland
84 a,SINGAPORE,,,Nederland
53A,FLORIANOPOLIS,,3072 AP,Nederland
,ESBEEK,,4813 DA,Nederland
6 a,,,,Nederland
30,ROOSENDAAL,,,Nederland
,DEN HAAG,,7554 RS,Nederland
47,ESSEN,,B-3520,Nederland
12,HILVERSUM,,,Nederland
116,,,5045AV,Nederland
ZZ 19,,,3981 AJ,Nederland
2019,,,,Nederland
,VELDHOVEN,,3871 JZ,Nederland
,ROTTERDAM,,,Nederland
40,,,1018 LL,Nederland
,Zevenaar,,4817 ME,Nederland
,Breda,,2516 AH,Nederland
,ARNHEM,,6211 AX,Nederland
104,NIEUWEGEIN,,1967 DA,Nederland
50,JONKOPING,,3336 LE,Nederland
,SOEST,,2132 JD,Nederland
29,TERNEUZEN,,,Nederland
,,,3054 AC,Nederland
,ENSCHEDE,,5038 NK,Nederland
62,,Noord-Holland,,Nederland
410,SOESTERBERG,,30135,Nederland
109 C&D,UTRECHT,,3500GN,Nederland
6,,,,Egypt
24,,,,Nederland
57a,BREDA,,1014 BA,Nederland
6,AMSTERDAM,,3532 AD,Nederland
17,NUTH,,8232 ZX,Verenigd Koninkrijk
12 E,GOTEBORG,,,Nederland
1,BUSAN,,6596 AB,Nederland
50,RIJSWIJK,,3195 ND,Nederland
80,,,1016 BL,Nederland
47-C,Groningen,,4207 XC,Nederland
27,AMSTERDAM,,2595 AK,Nederland
17,,,,Nederland
31,TIANJIN,,Dongen,Nederland
6,Gorinchem,,,India
54,EVERDINGEN,,7825 AJ,Nederland
33,,,,Nederland
,BREDA,,,Nederland
4,MIDDELBURG,,2612 CT,Nederland
70,MIDDELBURG,,3016 BA,Nederland
155 Block C 02/222,BREDA,,1016BS,Nederland
2,Utrecht,,4825 BG,Nederland
,ROTTERDAM,,2597 LA,Nederland
10,,,5657 DA,Nederland
585,HOOFDDORP,,4926 EE,Nederland
5,UTRECHT,,2593 CE,Nederland
2,,,2382 PH,Nederland
1,Zaltbommel,,197,Nederland
502,LANGERAK,,,Nederland
Sep-13,MOERDIJK,,9000,Nederland
,Venlo,Noord-Holland,,Nederland
3 Level 5,MANNHEIM,,3511 EP,Nederland
93,DEN HAAG,,1404 DG,Nederland
12 e,NAIROBI,,2671 MN,Nederland
680,HOEVELAKEN,,6165 ED,België
122,,,,Nederland
1,WINSSEN,,5048 AB,Nederland
5 a,BREDA,,1012 WX,Sweden
71,ROTTERDAM,,5046 CJ,Nederland
10,ETTEN-LEUR,,3047BL,Nederland
83,AMERSFOORT,,2517JK,China
,Rotterdam,,4423AM,Nederland
22,DEVENTER,,3971 NG,Nederland
29,LEEUWARDEN,,,Nederland
1,HEERLEN,,3818 EX,Nederland
23,GELDROP,,"5466 RB, Veghel",Nederland
67,MOSKOU,,3011 BL,Nederland
22,'S-HERTOGENBOSCH,,,Nederland
34,,,3151 HT,Nederland
4,SWALMEN,,,Nederland
26,RITTHEM,,,België
,SUNNYSIDE,,4906 CV,Nederland
40,,,,Nederland
21,OISTERWIJK,,6681 CW,Nederland
,HELMOND,,3336 LE,Nederland
41,,,2908 ME,Nederland
4,Enschede,,3512 JJ,Nederland
6,,,4818 SJ,Nederland
2,COEVORDEN,,,Nederland
ZZ 2,,,,Nederland
,Elst,,,Nederland
45,DORTMUND,,4941 VR,Nederland
20,ROTTERDAM,,2215 WN,Nederland
2,,,5617 BC,Nederland
100,DEN HAAG,,,Nederland
30,,,4817 HX,Nederland
25,,,5113 BM,Nederland
15,ROTTERDAM,,2511 BW,Nederland
,Duiven,,,Nederland
23,Hoofddorp,,3421 TV,Nederland
12,ZWOLLE,,3216 AR,Nederland
9,HEERENVEEN,,2631 XD,Egypt
,,,2596 HL,Nederland
105 -109,,Noord-Brabant,4501 PG,Nederland
,BRUSSEL,,2132 MR,Nederland
1200,AMSTERDAM,,,Nederland
7,DONGEN,,4131 NJ,Nederland
40,,,4782 SC,Nederland
201,NIEUW-VENNEP,,-,Nederland
22,Leusden,,,Nederland
49,,,1058 EA,Nederland
,DRIEBERGEN - RIJSENBURG,,1119 NR,Nederland
6,HOOFDDORP,,1016BS,Nederland
7,NIJMEGEN,,,Nederland
,RIJSBERGEN,,3012 KA,Brazil
4302,BREDA,,9403 AB,Nederland
36,,,5931 HM,Nederland
,München,,,Nederland
,AMSTERDAM,,7324 BR,Nederland
10,LONDEN,,5704 RC,Nederland
22,Drachten,,2700 AG,Nederland
6-8,SCHIPHOL-RIJK,,,Nederland
,,,8466 SL,Nederland
2,,,,Nederland
,UTRECHT,,,Duitsland
31,Dornbirn,,3012 CA,Nederland
18,ULM,,2242 BE,Nederland
,APELDOORN,,MA 02139-4307,Nederland
1914 35,,,1186 DS,Nederland
15,ROTTERDAM,,1817 MS,Nederland
51,,,5347 KS,Nederland
21,TILBURG,,,Nederland
,,,7256 AA,Nederland
18,,,7530,Nederland
10,HILVERSUM,,4331 BK,Nederland
,UTRECHT,,2676 LL,Nederland
9,LEEUWARDEN,,5651 GG,Nederland
2093,Den Haag,,3001 KA,Duitsland
,Leidschendam,,,Nederland
1,SCHIPHOL,,9000,Nederland
8,Deventer,,5691 GC,Nederland
184,UTRECHT,,1185 XB,Nederland
,DORTMUND,,1118 LD,Nederland
75,DOORN,,,Japan
44,RAAMSDONKSVEEN,,327,Nederland
10,SCHERPENZEEL,,5611 AZ,Nederland
701 Suite 500,,,5611 ZT,Nederland
113,EINDHOVEN,,6708 PB,Nederland
,,,,Nederland
90,DUIVEN,,2675 LP,Nederland
10,BREDA,,-,Nederland
244,,,4791 VC,Nederland
,,,,Nederland
36,ROTTERDAM (HOOGVLIET),,5015 BP,Nederland
,UTRECHT,,,Nederland
,,,4817 HX,Nederland
35,Weert,,3087 AE,Nederland
12,,,5211 VZ,Nederland
14,BRUSSEL,,TX 75080,Nederland
14,,,,Nederland
14-40,ARNHEM,,6921 RZ,Duitsland
3,WALSOORDEN,,2718 SG,Nederland
81,,,4822 ZX,Nederland
9,ZAMALEK CAIRO,,4941 DX,Nederland
10,,,1327EC,Nederland
8,Goteborg,,,Nederland
2,ALMERE,,Rotterdam,Nederland
16,,,9673GL,Nederland
15,,,6006 PL,Nederland
200 Havennummer / P,BREDA,,6825 ME,China
1A,AMERSFOORT,,1404,Nederland
1,,,3068 AV,Nederland
1,ABCOUDE,,4701 PW,Nederland
33,UTRECHT,,8937 AA,Nederland
,APELDOORN,,4207 HZ Gorinchem,Nederland
11,UTRECHT,,,Nederland
7,MIDDELHARNIS,,9713 GX,Nederland
180,BREDA,,SW1W OSR,Nederland
,SCHIPHOL,,3356 LE,Nederland
,GEEL,,4813 GT,Nederland
50,ROTTERDAM,,M5X 1C1,Nederland
11,,,6942 PB,Duitsland
,BREDA,,5145 NP,Duitsland
1,,,1086 WH,Nederland
,ROTTERDAM,Noord-Brabant,B-1000,Nederland
2,NEW YORK,,,Nederland
4,,,3311 JG,Verenigd Koninkrijk
60,BREDA,,3316 AP,Nederland
1105,B ERCHEM,,657-8501,Nederland
15,ENSCHEDE,,,Nederland
-,OISTERWIJK,,6826 CC,Nederland
,'S GRAVENDEEL,,,Nederland
28,TILBURG,,5038 TL,Nederland
13,BREDA,,5616 SK,Nederland
9,Amsterdam,,7547 RW,Nederland
,Vlaardingen,,,Nederland
,MAASTRICHT,,,Nederland
11,Zwijndrecht,,3012 CN,Duitsland
34,UTRECHT,,Utrecht,Nederland
45,ROTTERDAM,,,Nederland
5,MIDDELBURG,,3771 CZ,Nederland
,WIEN,,3045 AB,Nederland
36,VOORBURG,,3528 BP,Nederland
42,Amsterdam,,3743 EG,Nederland
32,,,53859,Nederland
2,Brummen,,5612 AJ,Nederland
,BERINGE,,4834 GC,Nederland
,OOSTERHOUT,,sw12 9er,Nederland
,Geleen,,1521 RC,Nederland
4,RIJSWIJK,,3013 AA,Nederland
116,BREDA,,3925 CC,Nederland
3,NIJKERK,,5653 LC,Nederland
13,Wageningen,,4837 BH,Nederland
25,AMSTERDAM,,2665 LP,Nederland
11 -9,ROTTERDAM,,3115 HC,Nederland
2,Jönköping,,2341 BV,Nederland
22,DOETINCHEM,,1976 CB,Nederland
,,,1081 KL,Nederland
123,MOERDIJK,,,Nederland
40,Amsterdam,,7202 CT,Nederland
,ROTTERDAM,,2511 VX,Nederland
11,SOEST,,64289,Nederland
,,,3485 CM,Nederland
,ROTTERDAM,,8041 AL,Nederland
35,VEGHEL,,5231 DD,Nederland
,Amsterdam,,3024 EA,Nederland
1,,,3994 AK,Nederland
,VELDHOVEN,,7482 EZ,Nederland
18,Den Haag,,1118 LN,Nederland
7,UTRECHT,,,Nederland
49,BREDA,,4818 SJ,Nederland
302,,,4836 LG,België
35,ST. HANSHAUGEN - OSLO,,3195 ND,Nederland
37,Vila Olimpia - SAO PAULO,,,Nederland
,ZOETERMEER,,1018 VN,Nederland
38 a,BREDA,,5406 XP,Nederland
,,,5121 DP,Nederland
2,,,5247 VD,Nederland
68,EINDHOVEN,,,Nederland
71,,,3316 BG,Nederland
,GENT,,3087 BM,Nederland
26,ZOETERMEER,,6167 RA,Nederland
10,RIDDERKERK,,1000,Nederland
,,,4424 NC,Nederland
1,ZEEWOLDE,Noord-Brabant,5056,Nederland
200,TILBURG,,,Nederland
93,"Coventry CV4 7AL,",,3130 AB,Nederland
44,AMSTERDAM,,4337 LG,Nederland
76,BREDA,,4811 NS,Nederland
1,LEIDEN,,2913 LV,Nederland
,NEWCASTLE,,,Nederland
6,VENLO,,5612 AX,Nederland
17,,,,Nederland
5 /9,SLIEDRECHT,,3851 SL,Nederland
15,SAINT-ETIENNE DU ROUVRAY,,2404 CB,Nederland
4,WAALRE,,,Nederland
7,AMERSFOORT,,1017 CA,Nederland
20,IJMUIDEN,,3011XD,Nederland
,Groningen,,80687,Nederland
,,,5801 KV,Nederland
2,DEN HAAG,,5466 AB,Nederland
55,BREDA,,5032MN,Nederland
45,NAARDEN,,Capelle a/d Ijssel,Nederland
9a ,EINDHOVEN,,1118 CP,Nederland
3,HONG KONG,,3769 ZH,Nederland
22,Kopenhagen,,3439 MR,Nederland
42,,,46131,Nederland
32 b,,,2803 PB,Nederland
10-12,AMSTERDAM,,,Uruguay
20,HILVERSUM,,5928 LC,Nederland
,OUDE MEER,,2585 JL,Nederland
27,OLDENZAAL,,3216 AR,Nederland
8,OOSTERHOUT,,,Nederland
,AMSTERDAM,,4751 XE,Nederland
2,WAGENINGEN,,6017 AR,Nederland
19,WASSENAAR,,,Nederland
70,,,1011 NH,Nederland
107,ZWIJNDRECHT,,4871 NV,Nederland
513,AMERSFOORT,,1016 CG,Nederland
78-82,ROTTERDAM,,5928 LH,Nederland
20 B,Brussel,,5652 AN,Nederland
5033,ERTVELDE,,4711 MA,Nederland
17,Beekbergen,,1078 GZ,Nederland
,ROTTERDAM,,3542 AH,Nederland
,AMSTERDAM,,,Nederland
40,APELDOORN,,,Nederland
300,AMSTERDAM,,4941 VL,Nederland
,DRIEHUIS,,2511 WB,Nederland
22,,,,Nederland
10,AMERSFOORT,,2726 JC,Nederland
38-18,HELMOND,,2988 DB,België
12,WINTERSWIJK,,Delft,Nederland
6,DOETINCHEM,,6603 AV,Nederland
,MIDDELBURG,,,Nederland
40,ZOETERWOUDE,,,Nederland
,,,4818 CP,Nederland
102,ROTTERDAM,,,Nederland
29 -11,ZWOLLE,,,Nederland
,,,,Nederland
2,HAREN,,2676 LT,Nederland
,S-HERTOGENBOSCH,,2312 EZ,Nederland
6,VLISSINGEN,,3584 BL,Nederland
2,TILBURG,,1117 ZL,Nederland
4,ROTTERDAM,,3360 AG,Nederland
163 /167,Breda,,3815 KL,Nederland
,ALPHEN AAN DE RIJN,,,Nederland
,HENDRIK IDO AMBACHT,Zuid-Holland,2623 AP,Nederland
3,HENGELO (HENGELO OVERIJSSEL),,1101 AA,Nederland
39 A,ENSCHEDE,,7607 GE,Nederland
15,DEN HAAG,,1118 CZ,Nederland
3,,,2803 PE,Nederland
4,ROTTERDAM,,Apeldoorn,Verenigd Koninkrijk
,MANNHEIM,,1118 LM,Nederland
,BEESD,,,Nederland
11,,,5612 HL,Frankrijk
34 a,MAASDIJK,,2691 LD,Nederland
9,ROZENBURG,,3351 LB,Nederland
2 2,EERSEL,,,Nederland
33,,,6991TW,België
Pol 4,WEERT,,6825 ME,Nederland
,De Kwakel,,3029 AK,Nederland
,ROME,,2988 BA,Nederland
3 B,Amsterdam,,6882cm,Nederland
83,,,2629 HV Deldt,Nederland
22,WADDINXVEEN,,3065 WC,Nederland
,HARDENBERG,,3295 KH,Nederland
2,HOOGVLIET,,,Turkey
,LIESHOUT,,Utrecht,Nederland
1,S GRAVENHAGE,,5071 ND,Nederland
50,S HERTOGENBOSCH,Utrecht,5614 CM,Nederland
464 G003 U1.51,AARSCHOT,,4202 MS,Nederland
71,,,6902 PK,Nederland
5,LELYSTAD,,2511 EX,Nederland
1,,,5048 CA,Nederland
1163,'s Hertogenbosch,,3526 KT,Nederland
359,RIO DE JANEIRO,,,Nederland
54B,TILBURG,,1077 XX,Nederland
183,EINDHOVEN,,,Nederland
MSD 2080,Rotterdam,,2132 JB,Nederland
,,,2404 HA,Nederland
,S HERTOGENBOSCH,,1119 PW,Nederland
29,ROTTERDAM,,,Nederland
,Hilversum,,1544 BM,Nederland
709,,,,Nederland
90-92,BREDA,,1322 CK,Nederland
33,,,,Nederland
,,,4251 VZ,Nederland
,OUDE MEER,,6419 AT,Nederland
35,,,-,Nederland
3,HELMOND,,,Nederland
20,ZURICH,,,Nederland
65,,,3812 TA,Nederland
,Breda,,1077 XX,Nederland
248,Petten,,,Nederland
1,,,5705 DK,Nederland
184,CAPELLE AAN DEN IJSSEL,,,Nederland
10,AMSTERDAM,,,Nederland
22,AMSTELVEEN,,EH14 4AS,Nederland
,,,3072 MD,Nederland
,BOTLEK ROTTERDAM,,1079 WG,Nederland
12 e,,,1118 BG,Nederland
4,'S-HERTOGENBOSCH,,5105 NA,Nederland
62,,,5692 EB,Nederland
1,,,TW15 3QN,Nederland
,WASHINGTON,,,Kenya
,ANTWERPEN,,4822 VN,Nederland
174,Klundert,,,Nederland
30,CAPELLE A/D IJSSEL,,,Nederland
5,WERKENDAM,,,Nederland
,Tilburg,,1191 Corniche El Ni,Nederland
,EINDHOVEN,,1118 CL,Nederland
2 Paviljoen NP31,Utrecht,,4837 DS,Nederland
130,AMSTERDAM,,1112 PB,Nederland
166 Sec.2.,Northamptonshire,,,Nederland
,HOOFDDORP,,4531 PD,Frankrijk
141,PAPENDRECHT,,B-2018,Nederland
1,,,2952 AD,Nederland
17,Vianen,,4837 DS,Nederland
115,ANTWERPEN,,,Nederland
10,SCHIEDAM,,2909 LK,Italy
,GORINCHEM,,5657 EA,Nederland
,,,,Nederland
,ROTTERDAM,,,Nederland
,,,75739,België
,NIJMEGEN,,3355 ES,Nederland
151,ROSMALEN,,88036-002,Nederland
47,EINDHOVEN,,,Nederland
,Apeldoorn,,3194 DH,Nederland
3,,,4612 RC,Duitsland
,AMSTERDAM,,6905 DG,Nederland
1,DORDRECHT,,1507 DS,Nederland
14,,,5555 XP,Nederland
277,,,4812EM,Nederland
5,AMSTERDAM ZUIDOOST,,3528 BE,Nederland
,WASHINGTON,,,Nederland
17,BREDA,,9615 TK,Nederland
223,DEN HAAG,,4336 DR,Nederland
27,BREDA,,5211 HH,Nederland
28,Muelheim an der Ruhr,,5928 RC,Nederland
,BREDA,,3543 AS,Nederland
43,AMSTERDAM,,1689 AK 6,Nederland
63,ENSCHEDE,,7334 DZ,Nederland
6550,Amersfoort,,,Nederland
71,BREDA,,2514 JK,Nederland
200,Amsterdam,,1097 BL,Nederland
31 B,HOOFDDORP,,,Nederland
534,BREDA,,5617 ab,Nederland
3-115,EINDHOVEN,,5708 HN,Nederland
76,BREDA,,1437 CG,Nederland
1G,ENSCHEDE,,5912 BG,Nederland
210,BERLICUM,,4400,Nederland
1,Son,,D-46562,Brazil
,ZWANENBURG,,1185 XE,Egypt
33-43,AMERSFOORT,Noord-Brabant,5045 AV,Nederland
7,Otterlo,,7061 DC,Nederland
4,,,3511 EG,Nederland
,Breda,,3044 AV,Nederland
,,,5611 CW,Nederland
76,Amersfoort,,1217 AM,Nederland
41,HELMOND,Maharashtra,2729 NK,Nederland
10,Amersfoort,,,Nederland
90,AMSTERDAM,,5037 AB,Nederland
2 d,ROTTERDAM,,4941 VR,Nederland
173,ROTTERDAM,,Komen,Nederland
,RIJSWIJK,,2611 NK,Nederland
250,,,1098 XG,Nederland
,Madrid,,8305 BC,Nederland
79 a,MECHELEN,,3011 TA,Nederland
,BOSCHSTRAAT 35,,,Nederland
2,BREDA,,1017 CA,Nederland
44,,,2675 LX,Nederland
,SCHIPHOL-OOST,,-,Nederland
56,EINDHOVEN,,,Nederland
1a,MOERDIJK,,2511 BH,Nederland
45-47,AMSTERDAM,,2628 BX,Nederland
11,,,,Nederland
14,ROOSENDAAL,,B-2600,Nederland
55P,DIEMEN,,2407 AJ,Finland
71,,,9042,Nederland
66,ROTTERDAM,,,Nederland
- -,,,2131 RZ,Duitsland
594,UTRECHT,,1391vm,Nederland
39 - 47,,,,Nederland
45,MAASTRICHT,,1054 ES,Nederland
1 Office 2316 Building B,,,12950,Nederland
38,SCHIPHOL,,2901 AB,Nederland
2,GRONINGEN,,8445 PD,Nederland
20,LILLE,,3011 BL,Nederland
- -,AMSTERDAM,,,Nederland
33,BREDA,,8281 JE,Nederland
1A,Barneveld,,2000,Nederland
2,Rotterdam,,2691 PR,Duitsland
12,ALMERE,,2511 BH,Nederland
38 bis,,,1098,Nederland
1,HILVERSUM,,2514 AJ,United States
12,,,3015 GG,Nederland
92,HILVERSUM,,2811 EN,Nederland
8,Den Haag,,3197 KN,Nederland
74,ZWIJNDRECHT,,1438 AN,Nederland
1,,,7575 AV,Nederland
55,ROTTERDAM,,9000,Nederland
17 Makeen Tower 0,Groß Gerau,,5048 AP,Nederland
31,,,,Nederland
,ELSHOUT,,,Nederland
,BREUKELEN,,4337 PG,Nederland
86,MOERDIJK,,9615 TH,Nederland
10 -31,ALBLASSERDAM,,,Nederland
6630,HOOGERHEIDE,,CH-4132,Nederland
3,WAARDENBURG,,8938 AC,Nederland
,S HERTOGENBOSCH,,5657 DC,Nederland
5,Zevenaar,,4116 HA,Nederland
,DELFT,,DK-1217,Nederland
38,,,2993 LD,Nederland
72,Haalderen,,5612 AB,Nederland
58,BEVERWIJK,,5111 CC,Nederland
,LONDON,,,Nederland
13,,,4811 AH,Nederland
143-145,ARCEN,,8017 JZ,Nederland
,SCHIPHOL SOUTH-EAST,,6701 BH,Nederland
50,Mechelen,,5541 RS,Nederland
47,,,IJsselstein,Nederland
76,VEENENDAAL,,,Nederland
34,TILBURG,,4611 AP,Nederland
,,,1948 PV,Austria
17,VLAARDINGEN,,1013 AA,Nederland
20 & 35,,,1431 GB,Nederland
225,ZAANDAM,,NL-3088 HD,Nederland
4,DELFT,,,Nederland
1101,Emmen,,,Verenigd Koninkrijk
6 bus 11,BREDA,,4824 AT,Nederland
126 a,OOSTERHOUT,,9000,Nederland
33,,,,Nederland
35,Raamsdonksveer,,3011 BM,Nederland
,LEENDE,,8092,Nederland
4A,,,1781 AL,Nederland
2,WAALWIJK,,,Nederland
,UTRECHT,,,Nederland
12,VOERDE,,,Nederland
6,Arnhem,,3312 AM,Nederland
55,OIRSCHOT,,2288 BC,Kenya
901,,,5688 ZG,Nederland
49,EINDHOVEN,,D-64521,Nederland
,,,3435 BH,Frankrijk
500,DEN HAAG,,68165,Nederland
,GRONINGEN,,,Nederland
17,EINDHOVEN,,2741 EZ,Nederland
1,,,3043 CS,Nederland
13,Amsterdam,,5032 MD,Nederland
41,EDE,,186,Nederland
,BREDA,,4782 SL,Nederland
2,BREDA,,75016,Nederland
4,ANTWERPEN,,8601 WS,Nederland
23,AMSTERDAM,,60601,Nederland
29 G1,,,,Nederland
3,,,5705 CL,Nederland
2330,,,Tilburg,Nederland
1,,,,Nederland
37,EINDHOVEN,,2132 NM,Nederland
"85, Port number 2204 ",BREDA,,,Nederland
28,,,6410,Nederland
4,LONDON,,,Nederland
161,,,50018,Nederland
21,DEN HAAG,,,Nederland
50,GENEMUIDEN,,,Nederland
53,,,115127,Nederland
14,,,5611 EM,Nederland
2,,,2954 BP,Nederland
80,SCHIPHOL,,4811 WK,Nederland
16,Kopenhagen,,,Nederland
16,ZOETERMEER,,2993 LD,Nederland
16930,ENSCHEDE,,22250-145,"Korea, Republic of"
20,DEN HAAG,,Nobelstraat 18,Nederland
,EPE,,7006 RH,Nederland
17,HOOFDDORP,,6531 LB,Nederland
192,DÜSSELDORF,,5961 GN,Nederland
,AMSTERDAM,,3521 AM,Nederland
2 Puddle Dock,STEENDEREN,,,Nederland
13 -15,,,1082 MA,Nederland
356,Amstelveen,,2596TP,Nederland
224,'S-HERTOGENBOSCH,,1118 CL,Nederland
,,,,Nederland
14,EINDHOVEN,,4811 ZZ,Nederland
6809,,,,Nederland
62,AMSTERDAM,,1118 LC,Nederland
4,DEN HAAG,,4812 JD,Nederland
268,,,5221 EE,Nederland
,NIJVERDAL,,3316 GZ,Nederland
9,AMSTERDAM,,5145 NE,Nederland
4,JAKARTA,,,Nederland
27,EINDHOVEN,,9810,Nederland
67,Amsterdam,,,Nederland
,HILVERSUM,,4811 NN,Nederland
310,GORINCHEM,,,Nederland
7,Den Haag,,1217 EW,Nederland
5644,,,,Nederland
,ROTTERDAM,,8380,Nederland
14,,,6534 AR,Nederland
645,,,1118 CZ,Nederland
41,APELDOORN,,9830,Nederland
,,,,Nederland
,Brussel,,,Nederland
31,,,4542 NM,Nederland
25,DEN HAAG,,9728 BM,Nederland
15,IJMUIDEN,,0170,Verenigd Koninkrijk
38,Tilburg,,2132 WT,Nederland
3,VINKEVEEN,,5145 RH,Nederland
11,STOLWIJK,,3527 KV,Nederland
1,,,3194 AM,Nederland
100,NIEUW-VENNEP,,3442 GT,Nederland
79,,,,Nederland
,BARNEVELD,,,Nederland
,,,123A,Nederland
,BREDA,,2491 AJ,Nederland
52,DORDRECHT,,B-1800,Nederland
,WOERDEN,,4267 EW,Nederland
2A,,,4836 LK,Nederland
1,,,W2 4UL,Nederland
,CAPELLE A/D IJSSEL,,MK43 0AL,Nederland
5,Den Haag,Noord-Brabant,1083 HJ,Nederland
4 -1,Rotterdam Airport,,,Nederland
,AMSTERDAM Z.O.,,SW12 9ER,Nederland
37,BREDA,,4207 HA,Nederland
50,,,,Nederland
26,ANTWERPEN,,3072 AP,Nederland
10,AMSTERDAM,,7221 BJ,Nederland
33,ARNHEM,,8001,Nederland
64,AMSTERDAM,,NW1 4SA,Luxembourg
,Waalwijk,,,Nederland
2,,,3860 BD,Nederland
5008,MOERGESTEL,,1047 HJ,Nederland
19,,,3515 ET,Nederland
6,RIJSWIJK,,5482 TL,Nederland
,BREDA,,,Nederland
,AMSTERDAM,,2983 GS,Nederland
88,BREDA,,,Nederland
15,ROTTERDAM,,5248 JR,Nederland
,TAMPERE,,2514 AB,Nederland
6489,Amsterdam,,3044 CD,Canada
2-20,,,11000,Nederland
100,,,2861 EX,Duitsland
187,Rhoon,,,Nederland
75,HOOGERHEIDE,,3089 JH,Nederland
3,Eemshaven,,,Nederland
20,,,3899 AB,Frankrijk
,HAPS,,3433 PL,Nederland
7,ZOETERMEER,,,Nederland
32,UTRECHT,Noord-Brabant,5928 PN,Nederland
,MAASVLAKTE RT,,5211 JN,Nederland
1,BRUSSEL,,2902 BR,Nederland
855,ROME,,5707 BS,Nederland
10,BREDA,,4203 NK,Nederland
,,,454775,Nederland
,ROTTERDAM - Charlois,,,Nederland
5,DEN HAAG,Noord-Brabant,,Nederland
6,Eindhoven,,,Nederland
,Fontainebleau CEDEX,,,Nederland
,HEERHUGOWAARD,,1013 GE,Nederland
9 b,POORTVLIET,,CA95407,Nederland
37,BREDA,,3198 LS,Nederland
73,GRONINGEN,,3447 GN,Nederland
11,BREDA,,,Nederland
29,,,3241,Nederland
7,DEN HAAG,,9611AE,Nederland
24,,,7005 AZ,Nederland
24 a,,,1831,Nederland
25,,,3823 LJ,Nederland
10,Bedfordshire,,1013 CP,Nederland
10,,,1234ba,Nederland
207,,,CEP 21941-615,Nederland
12,Hoofddorp,,1019 AZ,Nederland
55,AMSTERDAM,,2665LN,Nederland
5,NIEUWEGEIN,,6598 DK,Nederland
102-108,OISTERWIJK,,3044 AT,Nederland
174,OLDENZAAL,,0,Nederland
2,MAASDIJK,,5281 AZ,Nederland
28,HALLE (SAALE),,2600,Nederland
2,SCHIPHOL,,7530,Spain
2,PORTSMOUTH,,9120,Duitsland
27,,,2201 DZ,Nederland
41,,,,Duitsland
13,CALGARY,,,Nederland
10 10,,,2741 PG,Nederland
,WASHINGTON,,4811 CT,Nederland
36,,,B-2000,Austria
2,,,4814 RS,Nederland
21,LUND,,7418 BG,Nederland
258,,,,Nederland
433,AMERSFOORT,,3542 AX,Nederland
1 d,,,2593 CE,Nederland
6501,BREDA,,1033 SB,Nederland
,EMMELOORD,,1012 HM,Luxembourg
,Zeist,,,Nederland
6,HEERENVEEN,,4815 NG,België
1,GENEMUIDEN,,7336 AZ,Nederland
14 C,DIEMEN,,6825 MV,Nederland
122,HOEVELAKEN,,3067 GJ,Nederland
,DEN HAAG,,,Nederland
300 Gebouw 3a,Wageningen,,EC4V 3DB,Nederland
55,LUCHTHAVEN SCHIPHOL,,2275 AE,Verenigd Koninkrijk
33 bus 37,NIJMEGEN,,Rotterdam,Nederland
12,VENLO,,2240 AJ,Nederland
3 c,,,,Nederland
4,EMMEN,,2132 MS,Nederland
155,HEILOO,,2132 WT,Nederland
,Bejiing,,3331 MA,Nederland
92,DOETINCHEM,,,Nederland
3,BREDA,,3087 BM,Romania
,OOSTERHOUT,,1119 NL,China
45,UTRECHT,,3871 KM,Nederland
13,AMSTERDAM,,,België
3,,,,Nederland
10 Havennummer 2235,Rotterdam,,1017 ZP,Nederland
3,PRETORIA,,-,België
51,,,2514 JS,Nederland
245,,,4761 RL,Nederland
10,BREDA,,,Nederland
587,,,,Nederland
22,ZEVENBERGEN,,1013 AP,Nederland
,TILBURG,,1012 TM,Nederland
2,UTRECHT,,,Nederland
,UTRECHT,,Culemborg,Nederland
,,,-,Nederland
4,TILBURG,,5708 HN,Nederland
2,CAPELLE A/D IJSSEL,,2629 HD,Nederland
15,VAGGERYD,,1412 KA,Nederland
1,NIJMEGEN,,8263 CB,Nederland
18,LIVORNO,,33131,Nederland
60,VUREN,,1043 GR,Nederland
,ROTTERDAM,,,Nederland
25,STEYR,,5804 AM,Nederland
5,ROTTERDAM,,B-4671,Duitsland
10,GEEL,,3941 ZW Doorn,Nederland
7,UTRECHT,,5145 NS,Nederland
7,WOERDEN,,4791 HS,Nederland
94,,,4813 DA,Nederland
1,GENT,,3551 EM,Nederland
155,JOHANNESBURG,,,Nederland
13,,,,Nederland
33,Doetinchem,,5652 AH,Nederland
65,Venlo,,7005 BN,Nederland
,BREDA,,5328 ZG,Luxembourg
5,'S-GRAVENDEEL,,2491 AK,Nederland
12,,,,Nederland
9,PRETORIA,,,Nederland
5,EINDHOVEN,,1013 AA,Nederland
248,,,1030,Nederland
1,'s-Hertogenbosch,,,Nederland
46-52,,,6135 LD,Nederland
77,ROTTERDAM,,21534,Nederland
7,BREDA,,9100,Nederland
10,AMERSFOORT,,3818 EA,Frankrijk
4020,,,3089 JH,Nederland
31,AMSTERDAM,,4818 TV,United States
1,WEERT,,3741 EH,Nederland
,Veenendaal,,3001 GA,Nederland
30-31,,,3199 LA,Nederland
,,,5652 AW,Nederland
1,HATTEM,,,Nederland
47,DEN HAAG,,9979 XW,Nederland
50,ROTTERDAM,,Den Haag,Nederland
5,KINDERDIJK,,OH 45221-0130,Nederland
,PITHAMPUR,,3708 AH,Nederland
13,,,,Nederland
,,,9930 PA,Nederland
17,NIJMEGEN,,-,Nederland
20,,,6422 PJ,Nederland
25 B,EINDHOVEN,,,Nederland
,ROTTERDAM,,3511 PP,Denmark
,NIDDATAL,,4251 BC,Nederland
197,Heerlen,,4814 RS,Nederland
5,,,5032 MP,Nederland
270,EINDHOVEN,,179101,Nederland
18,,,,Nederland
,,,3200,Nederland
,,,5032 MD,Nederland
300,MECHELEN,,3195 ND,Nederland
55,AMSTERDAM,,,Nederland
Made 8,UTRECHT,,2993 LL,Nederland
8th Floor,BREDA,,,Nederland
,DEN HAAG,,7207 BJ,Nederland
800,Amsterdam,,5622 AC,Nederland
7070,HOOGEZAND,,3500,Nederland
9,Honselersdijk,,6545 AC,Nederland
,,,2718 SG,Nederland
,VANCOUVER,,2665 LN,Nederland
198,Sint-Martens-Latem,,1119 MB,Nederland
68,Rotterdam,,2993 LE,Nederland
242-10 andar,HOLTEN,,,Nederland
,Voorburg,,,Nederland
,Mumbai,,9723 HE,Nederland
2,DOETINCHEM,,5582 LA,Nederland
18,SASSENHEIM,,7333 PC,Nederland
90,,,2132 HZ,Nederland
,ROOSENDAAL,,2516 CK,Nederland
,ZWOLLE,,9641 MJ,Nederland
,RUCPHEN,,,Nederland
47,Hamburg,,3011 BL,Nederland
300,VOORSCHOTEN,,,Nederland
15 G,AMSTERDAM,,1043 GL,Nederland
13,BEVEREN,,,Nederland
37,Amersfoort,,2015 CE,Nederland
7,SAPPEMEER,,6708 PV,Nederland
17,SITTARD,,3089 JH,België
17,HYVINKÄÄ,,7006 HR,Nederland
40,ZOETERMEER,,3199 LB,Nederland
18,,,7554RR,Nederland
,,,2033 AP,Nederland
5 gebouw 31,APELDOORN,,3087 AG,Nederland
23,MAASTRICHT,,3067 KX,Nederland
2,BREDA,,FIN-05800,Nederland
15,,,-,Nederland
381,BREDA,,2171 AJ,Nederland
,,,4693 RE,Nederland
30,AMSTERDAM,,1097 BL,Nederland
,'s HERTOGENBOSCH,,31033,Nederland
,ASHFORD,,,Nederland
,FLORENCE,,1091 AC,Nederland
,HAARLEM,,2719 DX,Nederland
4,ZEIST,,2803 PT,Turkey
20,,,,Nederland
160-178,DIDAM,,,Nederland
,WIJCHEN,,5611 LT,Nederland
23 A,,,,Nederland
185,,,6524 RN,Nederland
301,,,,Nederland
,WIJK EN AALBURG,,7442 DR,Nederland
,ULICOTEN,,2391 DG,Nederland
16 K.G. Marg,,,1812 RH,Nederland
56,,,20133,Nederland
10,DUIVEN,,3176 GL,Nederland
,DE KWAKEL,,2496 XA,Nederland
7,NÄSSJÖ,,8245 BV,Nederland
15,DE KWAKEL,,3087 AE,Nederland
,BREDA,,,Nederland
Nada 2-1,ROSSUM (GLD.),,2511 BW,Nederland
,,,,Nederland
26,UTRECHT,,,Nederland
266 B,BOEKAREST,,3071 JL,Nederland
101,WOERDEN,,3700 AK / Postbus428,Nederland
30,,,1043 AM,Nederland
13,Nunspeet,,5150 BB,Nederland
,GENK,,4051,Nederland
201,,,1016BS,Nederland
1,AALSMEER,,3528 BJ,Nederland
47,ROTTERDAM,,3371 KC,Nederland
,SON EN BREUGEL,,1083 HP,Nederland
25a ,APELDOORN,,8017 JV,Nederland
,,,3331 LL,Nederland
59,,,61 194,Nederland
11th Floor,ETTEN-LEUR,,5612 BA,Nederland
1E,PARIS CEDEX,,5032 MN,Nederland
38,Baarn,,5126 AB,Nederland
229,GILZE,,12710,Nederland
,AMSTERDAM,,2629 HT,Nederland
,UTRECHT,,4817 JT,Nederland
80,BREDA,,3581 CC,Nederland
131,België,,5321 NC,Nederland
65,AMSTERDAM,,3781 WD,Denmark
11 a,LEEUWARDEN,,5616 RM,Nederland
888,EINDHOVEN,,3311 JG,Nederland
50,AMSTELVEEN,,1213 PD,Nederland
2,,,3524 SJ,Nederland
69 C,S-HERTOGENBOSCH,,4881 HD,Nederland
3,,,2440,Nederland
14,S HERTOGENBOSCH,,2285 JB,Nederland
13,ANN Arbor,,2982 CM,Nederland
19,HOOFDDORP,,4825 BG,Nederland
29,Rosmalen,,,Nederland
,,,-,Nederland
112,NETANYA,,30122,Nederland
10,HILVERSUM,,7417 DH,Nederland
4 ------ 6 ,Losser,,1016 BS,Nederland
16,,,6675 AV,Nederland
,AMSTERDAM,,3732 GN,België
5,,,2034 LS,Nederland
2,DEN HAAG,,,Nederland
35,RAAMSDONKSVEER,,,Nederland
71,,,1044 AH,Nederland
202,OSS,,3771 NA,Nederland
,COCHIN,,,Nederland
10,EINDHOVEN,,,Nederland
6,BEIJING,,3016 DE,Nederland
83,UTRECHT,,2171 BE,Nederland
,,Drenthe,6021 AE,Nederland
7,PAPENDRECHT,,553 18,Nederland
25,DORDRECHT,,,Nederland
14,,,5466 RB,Nederland
30,OOSTBURG,,6942 EN,Nederland
38 -18,DEN HAAG,,,Nederland
695 B2 0.36,NEDERHORST DEN BERG,,3542 AN,Nederland
94,CO.DUBLIN,,3902 HP,Nederland
334,BREDA,,2675 ZT,Nederland
9,ROTTERDAM,,,Nederland
10,BLESKENSGRAAF,,,Nederland
40,,,4811 KA,Nederland
50,BARNEVELD,,20031-912,Nederland
13,NAARDEN,,us-dc,Nederland
,,,,Nederland
1,Bussum ,,,Nederland
22,BLADEL,,4835 MA,Nederland
20,Breda,,3925 ZN,Nederland
91,PAPENDRECHT,,3244 BH,Nederland
1,LIJNDEN,,4389 PJ,Nederland
1,,,,Nederland
,BREDA,,4826 AA,Nederland
242,BREDA,,,Czech Republic
36,MAASVLAKTE ROTTERDAM,,6525 EC,Nederland
41,AMSTERDAM,,,Nederland
101 -1,Copenhagen K,,3680,China
6,Roosendaal,,5466 AS,Nederland
6,HAARLEM,,,Nederland
102-120,Tilburg,,,Nederland
127,,,4761 EH,Nederland
25 1ª Planta,ROTTERDAM,,1118 LK,Nederland
1,,,5591 SC,Nederland
41,Driebergen,,4815 NZ,Nederland
356 Gebouw C 2de verdieping,TILBURG,,4811 GB,Nederland
24,,,3316 BE,United States
4,BLEISWIJK,,3355 ES,Nederland
12,OUD GASTEL,,34394,Nederland
,ETTEN-LEUR,,5328 ER,Nederland
,BERGEN OP ZOOM,,5611 GN,Nederland
24,ROOSENDAAL,,2616 LR,Nederland
,Wijchen,,4900 CA,Nederland
125,Honselersdijk,,5216 PD,Nederland
112,SON,,5611 NX,Nederland
,ROTTERDAM,,Utrecht,Nederland
57,OLDENZAAL,,33266-1510,Nederland
300,Venlo,,4903 SC,Nederland
20,CULEMBORG,,Dongen,Nederland
,EINDHOVEN,,Oss,Verenigd Koninkrijk
14 A,VENRAY,,2803 PV,Nederland
73,,,1118 BG,Verenigd Koninkrijk
,,Zuid-Holland,1438 AH,België
44,ST LOUIS,,,Nederland
11,BREDA,,6708 PM,Nederland
450-454,,,2909 LM,Nederland
117,,,2991 XJ,Nederland
13,Den Haag,,5215 MX,Nederland
2a,Bladel,,zevenaar,Nederland
32-34,,,3311 JD,Nederland
35,BREUKELEN,,3194 AP,Nederland
7,LOOSDRECHT,,7575 DB,Nederland
18,UITHOORN,,1065 BX,Nederland
61,,,5241 GN,Nederland
15,Den Haag,,,Nederland
13,IJMUIDEN,,1851NG,Nederland
,SINGAPORE,,4822 VL,Nederland
21,HOOFDDORP,,89932 PA,Nederland
216 -218,HOEVELAKEN,,1096 HA,Nederland
2,ALMERE,,8305BK,Nederland
13,MADE,,2595 SX,Nederland
,Den Haag,,3522 HA,Nederland
23,,,,Nederland
6,Breda,,3331 LK,Nederland
62,LIER,,,Nederland
,Breda,,2661 CV,Nederland
45,Amsterdam,,2405 JD,Nederland
,MAASTRICHT,,5521 DZ,Nederland
4,,,5643 TW,Nederland
,BREDA,,4104 BB,Nederland
107 c03,BRUSSEL,,A-1020,Frankrijk
,UTRECHT,,5232 CD,Nederland
110,ZWIJNDRECHT,,1322 CE,Nederland
- -,HEEZE,,,Nederland
1,OIRSCHOT,,6604 LW,Nederland
2555,NIEDERKASSEL,,5000 LG,Nederland
76,HAARLEM,,2821 SH,Nederland
,,,3024 EA,Nederland
131,ABBENBROEK,,11835,Nederland
131 b,,,,Nederland
59,REUSEL,,5131 AV,Switzerland
1,Vallendar,,2692CE,Nederland
33,Hasselt,,2171 KX,Nederland
11,Rotterdam,,3514 AX,Nederland
,Tilburg,,,Nederland
47a,,,0010,Frankrijk
,,,,Nederland
12,SINT NIKLAAS,,,Nederland
60,ALMERE,,1217 RT,Nederland
,,,1043 NX,Nederland
12,,,1161 BV,Nederland
,ASSEN,,3732 GN,Nederland
6,Wokingham Berkshire,,4837 EH,Nederland
22,,,3045 AP,Nederland
2,SLIEDRECHT,,3600 AD,Nederland
79,AMSTERDAM,Noord-Brabant,2260 AB,Nederland
,Ridderkerk,,,Nederland
8,TILBURG,,4813 DA,Nederland
300,Rijsenhout,,3089 JH,Nederland
17,KEIJENBORG,,5281 RM,Nederland
15,BREDA,,,Nederland
12,RIJSWIJK,,B - 2600,Nederland
33,OSS,Noord-Brabant,,Nederland
366,TILBURG,,2675 LN,Nederland
1,ZEIST,,,Nederland
2,EINDHOVEN,,,Nederland
7,MILSBEEK,,4131 NH,Nederland
,WAALRE,,,Nederland
1,Utrecht,,1065 KK,Nederland
70,ETTEN-LEUR,,8404 GA,Nederland
10,TILBURG,,5633 AJ,Nederland
1,SCHILDE (ANTWERPEN! BELGIE,,4811 DH,Nederland
8,,,4825 AX,Nederland
15,,,2676LS,Nederland
,ROTTERDAM,,2440,Nederland
,ZEVENAAR,,7523 XC,Nederland
,,,,Nederland
,Hilversum,,,Nederland
1,,,2161 CA,Nederland
425,ALMERE,,,Nederland
,NY 11430-0879,,,Nederland
1,,,3992 PK,België
7G,Tilburg,,,Nederland
,SCHORE,,,Nederland
65,Schiphol,,3089 JH,Nederland
5,AMSTERDAM,,5048 AB,Nederland
43,,,1749 DK,Nederland
10,DIDAM,,3284 LJ,Nederland
45,,,,Verenigd Koninkrijk
13,,,6731 AS,Nederland
75,SCHIJNDEL,,5583 XX,Nederland
133,GELEEN,,6942 JC,Nederland
8,Amsterdam,,,Nederland
24,SOFIA,,,Nederland
,,,4782 SK,Nederland
3,ALMERE,,3542 CH,Nederland
7,NIJMEGEN,,,Nederland
84 a,,,4827 HG,Verenigd Koninkrijk
,DORDRECHT,,,Duitsland
275,ROTTERDAM,,,Nederland
10,HOOFDDORP,,,Nederland
62,SCHIPHOL RIJK,,LU1 3LU,Nederland
51,KOHL,,4811 DT,Nederland
,Utrecht,,,Nederland
20,Bergen op Zoom,,,Nederland
80,VENLO,,-,Nederland
19,,,,Nederland
300,Nijkerk,Noord-Brabant,7500 AE,Nederland
100,DEN HAAG,,2761 BR,Nederland
24,ETTEN-LEUR,,3087 AN,Nederland
59,OOSTERHOUT,,3825 AL,Nederland
15,BOXMEER,,21129,Nederland
20,,,3364 DJ,Nederland
50,GREVENKNAPP,,9712 JG,Nederland
25,HILVERSUM,,Amsterdam,Nederland
6 C,ALMERE,,2611RV Delft,Nederland
,TILBURG,,,United States
80,AMSTERDAM,,6512 AB,België
5,DELFT,,5263 ED,Nederland
6200,,,5461 AA,Nederland
23,Uden,,2018,Nederland
46,BREDA,,2132 NA,United States
6,,,CEP 04548-003,Nederland
12,,,,België
1,EINDHOVEN,,5617 BC,Nederland
,NAALDWIJK,,3750 GC,Nederland
23,BARNEVELD,,3024EE,Nederland
11,Harderwijk,,4837 DS,Nederland
1,NIEL,,,Nederland
173,NIEUWDORP,,11000,Nederland
20 d,BRUSSEL,,5211 VS,Nederland
32 A,DEN HAAG,,4836 LD,Nederland
20,VENLO,,2719 EP,Nederland
59-61,ROOSENDAAL,,5656 AG,Nederland
44,NIEWEGEIN,,,Nederland
65,Capelle a/d IJssel,,2600 AA,Nederland
79,,,1075 AR,Nederland
11-May,Zundert,,3826 PA,Nederland
1,DEURNE,,2741 PP,Nederland
15,Ridderkerk,,3991 CJ,Romania
21,,,1005 AA,Nederland
50,ROTTERDAM,,8031 AA,Nederland
27,LEIPZIG,,9601 KL,Nederland
,BILTHOVEN,,4813 DA,Nederland
29,Nieuwe Tonge,,,Sweden
311B,,,1183 DJ,Nederland
67,AMERSFOORT,,,Nederland
562-5,,,,Nederland
902,DORDRECHT,,2821 AT,Nederland
3,,,4382 NW,Nederland
1A portnr. 461,,,6222 NW,Nederland
40,LEEUWARDEN,,1775 TA,Nederland
9,BARNEVELD,,2593 CE,Nederland
,HOOGELOON,,3161 GH,Nederland
,Den Haag,,1047 BM,Nederland
9 d,OOSTERHOUT,,,Nederland
5,Zaandijk,,3067 GG,Nederland
,,,,Nederland
350,ROOSENDAAL,,1101 EE,Nederland
,HEERLEN,,20433,België
77,,,2548 SN,Nederland
65,EINDHOVEN,,6827 AV,Nederland
,ESPOO,,3511 EJ,Nederland
1,BREUKELEN,,5145 PE,Nederland
2,OOSTERHOUT,,6167 AC,Nederland
75 D,,,5688GD,Nederland
14 14,CAMBRIGDE,,1171 PK,United States
2 2,AMSTELVEEN,,,Nederland
,,,,België
3,HOOFDDORP,,4873 LP,Nederland
- -,LONDON,,5831 AV,Nederland
,CULEMBORG,,,Nederland
30,WEMELDINGE,,6850,Nederland
532,HAARLEM,,1118 CP,Nederland
,,,3521 CA,Nederland
8,DELFT,,3528 BJ,Nederland
4 -6,,,3016 DA,Nederland
86,AMERSFOORT,,,Nederland
7,UTRECHT,,4701 AT,Nederland
442,,,2132 MX,Nederland
17,BREDA,,TX 77072-5206,Nederland
124,,,1044 AB,Nederland
33,SCHERPENZEEL,,,Nederland
10,RAAMSDONKSVEER,,60637,Nederland
,SCHIPHOL,Zuid-Holland,,Nederland
,Den Haag,,6063 AB,Nederland
315,BREDA,,FL 32819-9040,Nederland
,READING,,2342 BV,Nederland
13,,,63000,Nederland
60 a,URK,,44227,Nederland
,Aarle-Rixtel,,5154 PD,Nederland
37,UTRECHT,,5504 DE,India
1,HENGELO,,2152 CZ,Nederland
,,,3043 CP,Nederland
182,9712 JG,,1043 CH,Nederland
664,LINZ,,3972 PV,Nederland
,,,,Nederland
5,ROTTERDAM,,2596 AA,Nederland
11,OUDENBOSCH,,BE 1000,Nederland
14 H,OEGSTGEEST,,,Nederland
315,,,3381 LM,België
18,,,3818 LE,Nederland
,ECHT,,B-21000,Nederland
42,SANTA ROSA,,1082 VA,Nederland
1,AMSTERDAM,,,Nederland
91,Zwolle,,1076 ED,Nederland
63,NEW DELHI,,4813 DA,Nederland
188,SCHIEDAM,,5038KG,Nederland
,Zwijndrecht,,8042 PA,Nederland
128,,,1216 BP,Nederland
2,AMSTERDAM,,4817 ZK,Nederland
500,BREDA,,D-3377,Nederland
,ARNHEIM,,BE-9000,Nederland
356,Breda,,3846 BX,Nederland
800,,,3500,Nederland
4,ASSEN,,50679,Nederland
102,,,,Nederland
1 m,ZWIJNDRECHT,,,Nederland
11c ,AMSTERDAM,,2991 NH,België
4,BARCELONA,,,Nederland
,'S-HEERENBERG,,2596 AA,Nederland
445,SOEST,,,Nederland
21,NIEUWEGEIN,,5807GA,Nederland
116,JAKARTA,,5751 ML,Nederland
39,AMSTERDAM,,,Nederland
19 -d12,DUBAI MARINA,,5651 GG,Nederland
,LONDON,,,Duitsland
,LUTTERWORTH,,,Nederland
7,,,7602 PD,Nederland
41,MIAMI FL.,,Wijhe,Nederland
3,VENLO,,1012 AB,Nederland
75,Veghel,Noord-Brabant,3905 PG,Nederland
,BLEGNY-BARCHON,,178902,Nederland
6-8,Aalten,,-,Nederland
659 - 661,ALMERE,,,Denmark
14,,,,Nederland
,ROTTERDAM,,5708 HP,Nederland
,,,,Nederland
26,Taipei,,2132 LS,Nederland
1,,,Zeist,Frankrijk
,BENNEKOM,,,Nederland
,DELFT,,,Nederland
11,,,,Nederland
4,,,,Nederland
14,BARENDRECHT,,,Nederland
94,GELEEN,,6716 AA,Nederland
,,Zuid-Holland,4813 DA,Nederland
2,Waddinxveen,,4706 PB,Nederland
5,,,1213 NW ,Nederland
21 Port Number 2235,HILVERSUM,,5804 CD,Nederland
241,DEN HAAG,,4881DR,Nederland
,,,5013EA,Nederland
573,ENSCHEDE,,1901,Nederland
59,DEN BOSCH,,7811 AP,Nederland
2,Deventer,,2300,Nederland
12,SHANGHAI,,1112 XS,Nederland
6296,,,,Nederland
,Houten,,3068HR,Nederland
,VENLO,,4715 TE,Nederland
,EINDHOVEN,,,Nederland
76,,,6901 GN,Nederland
15,DE BILT,,6666 MR,Nederland
26,UDENHOUT,,5222 AJ,Nederland
,VALKENSWAARD,,5443PR,Nederland
98,DEN HAAG,,6922 BG,Nederland
67,EINDHOVEN,,7521 BE,Nederland
,AMSTERDAM,,2031 CN,Nederland
9A ,Oestgeest,,181,Nederland
4 H,ZAANDAM,,1853,Nederland
,BREDA,Noord-Holland,5048 CE,Duitsland
2,AMSTERDAM,,,Nederland
49 A,,,,Nederland
135,BRUSSELS,,5037 AA,Nederland
99,TORONTO,,2678 AG,Nederland
,APELDOORN,,,Nederland
2,GROENLO,,,Nederland
1,Utrecht,,5037 AB,Nederland
,Rotterdam,,,Nederland
2,UTRECHT,,,Nederland
9D,BRUSSEL,,B-9940,Nederland
59,HELMOND,,5944 EN,Nederland
1,ROTTERDAM,,,Nederland
150,Paterna Valencia,Gelderland,Rotterdam,Nederland
107 c ,HILVERSUM,,,Nederland
71,Alkmaar,,5026 PB,Verenigd Koninkrijk
52,VELDHOVEN,,,Nederland
,'S-HERTOGENBOSCH,,1042 AS,Nederland
,BREDA,,3701 TB,Nederland
,,,4837 DS,Nederland
,DELFZIJL,,2513 AA,Nederland
,BUNNIK,,,Nederland
26,UTRECHT,,1082 ME,Nederland
24-26,,,1018 LL,Nederland
97,AMSTERDAM,,RG40 3GA,Nederland
44,NAIROBI,,,Nederland
6,ARNHEM,,3528 BJ,Nederland
16,,,6224 DC,Nederland
3,Delft,,Vught,Nederland
1,'S-HEERENBERG,,5365,Nederland
200,DORDRECHT,,,Nederland
,UTRECHT,,1096 BA,Nederland
16,AMSTERDAM,,,Nederland
275,ALPHEN AAN DE RIJN,,1045 BA,Nederland
1,BREDA,,1118 BJ,Nederland
45c,ALMELO,,4813 DA,Nederland
21,ZARAGOZA,,,Nederland
2,Drunen,,,Nederland
13,ZOETERMEER,,7547 RW,Nederland
,STEENWIJK,,682020,Nederland
,Rotterdam,,2516 AA,Nederland
,ETTEN-LEUR,,,Nederland
9,RIJEN,,,Nederland
- -,EINDHOVEN,,2334BP,Nederland
53,,,,Nederland
12,GROENEKAN,,4207 EJ,Nederland
4B,,,5684 PL,Nederland
160,GRONINGEN,,3971 PA,Nederland
6,BREMERHAVEN,,3059VJ Rotterdam,Nederland
,DEN HAAG,,2516 AH,Nederland
,STELLENBOSCH,,2100,Nederland
43,VELDHOVEN,,1171 PL,Nederland
1 B,EINDHOVEN,,,Nederland
38,BARENDRECHT,,,Nederland
,SCHIEDAM,,2984 BC,Nederland
53,OOST-WEST-MIDDELBEERS,,6824 BZ,Nederland
8,HELMOND,,,België
,WAALWIJK,,2909 VA,Nederland
20,HARDENBERG,,1231 KL,Nederland
70,,,3118 JH,België
,AALSMEER,,,Nederland
,,,,Nederland
5,AMERSFOORT,,3016 CK,Nederland
,DORTMUND,,7742 PT,Nederland
75,VILLEURBANNE,,5600 AN,Nederland
58 A,,,5211 JK,Nederland
389,Pittsburgh PA,,-,Nederland
601,DORDRECHT,,3811 MP,Nederland
1,Pleasanton California,,2611 AX,Nederland
21,NIEUW VENNEP,,8253 ER,Nederland
,London,,5656 AE,Nederland
350 100,HENGELO,,,Nederland
38,MOERDIJK,,2593xk,Nederland
4,,,4141 HB,Nederland
67,LEEK,,,Nederland
,DORDRECHT,,3317 DA,Nederland
401,,,2132 WT,Nederland
30,CAPELLE A/D/IJSSEL,,5831 JN,Nederland
1,Utrecht,,8441 BH,Nederland
47,ROTTERDAM,,4701 BP,Nederland
123,,,,Nederland
2,ARNHEM,,,Nederland
26,San Francisco,,3012 NJ,Nederland
1,Oldenzaal,,,Nederland
9,HAARLEM,,2718 SG,Nederland
13,EINDHOVEN,,6525 HP,Nederland
59,,,5469 EM,Nederland
10,,,3208 KH,Nederland
445,RIDDERKERK,,5211 AP,Nederland
,DEN HAAG,,,Nederland
,,,3316 BC,Nederland
5,Kopenhagen,Noord-Brabant,1118 CZ,Nederland
5,HARDINXVELD GIESSENDAM,,4336 DR,Nederland
,Terneuzen,,3330 AD /PO Box 198,Nederland
21 APPT b07,DEN HAAG,,1016 CT,Nederland
35,TILBURG,,4873 LP,Nederland
20,AMSTERDAM,,SC 29601,Nederland
13,ROTTERDAM,,5469 EM,Nederland
,,,4811 HT,Nederland
,Geertruidenberg,,,Nederland
5,DRONTEN,,2491 AK,Nederland
40,Sint Willebrord,,,Nederland
,Schiphol Rijk,,3062 PA,Nederland
,EINDHOVEN,,2593 BJ,Nederland
12c,PORTO,,NW1 3AN,Nederland
8,WINDISCH,,4811 ZW,Nederland
,Oostrum,,7772 TV,Nederland
69-3C,,,6811 CG,Nederland
317,,,6545 AE,Nederland
2,ROOSENDAAL,,nl- 5928 RC,Nederland
40,Leiderdorp,,1411 DE,Nederland
,DEN HELDER,,3088 EC,Nederland
61,BRUSSEL,,B-3590,Nederland
,,,3833 BP,Nederland
4,EINDHOVEN,,6005 AD,Nederland
52,Sint-Oederode,,5651 GJ,Nederland
9,,,1118 BJ,Nederland
,HUIZEN,,3011 XB,Nederland
1,AMSTERDAM,,,Nederland
11,ETTEN LEUR,,2517 KJ,Nederland
14,,,3812 BH,Nederland
18,SCHAIJK,,1431 GB,Nederland
601,HAZERSWOUDE-DORP,,3280 DP,United States
19,,,,Nederland
485 Terreo - Quadra 1A,BELGRADE,,3542 EA,Nederland
124,Deventer,,5504 DT,Nederland
61,OTTAWA ON,,3526 LA,Nederland
88A,,,20433,Nederland
57 a,VEGHEL,,,Nederland
834 F,DEN HAAG,,1047HD,Nederland
12,AMSTELVEEN,,61109-2902,Nederland
406,,,7005 BK,Nederland
5,ZUID- BEIJERLAND,,,India
,ARNHEM,,1016 HV,Nederland
63,AMSTERDAM,,20122,Nederland
16,MAARSSEN,,5707 BX,Nederland
194,ZOETERMEER,,4811 HL,Nederland
6/27,Rotterdam,,1969 KP,Nederland
33,BREDA,,3771 MG,Nederland
4,DEN HAAG,,-,Nederland
2,KIEV,,4330 LA,Nederland
227,Utrecht,,,Spain
4,Stockholm,,1322 AS,Duitsland
12,ZOETERMEER,,3901 EH,Duitsland
40,DEN HAAG,,94588,Nederland
21,EMMEN,,,Nederland
90,BERGSCHENHOEK,,,Denmark
3,Gilze,,,Nederland
21,UITGEEST,,-,Nederland
,SOESTERBERG,,4708 KP,Nederland
47,,,4704 RG,Nederland
184,Lage Zwaluwe,,2908 ME,Nederland
30,DONGEN,,3771 MN,Nederland
7-9,PADOVA,,2012 DC,Nederland
36,EINDHOVEN,,1096 CJ,Nederland
,ROCKFORD ILLOIS,,9747 AJ,Nederland
23,Den Haag,,5600 AB,Nederland
1,RIJSWIJK,,3603 AW,Nederland
1,HILVERSUM,,4906 CJ,Nederland
47,,,37200,Nederland
15,ROTTERDAM,,1118 LN,Frankrijk
82,,,3069 PW,Nederland
15,Europoort-RT,,4612 RC,Nederland
40,,,3032 AJ,Nederland
6,AMSTERDAM,,2153 PL,Nederland
,BASINGSTOKE,,8411 ZW,Nederland
6,APELDOORN,,1118 CZ,Nederland
44,ROTTERDAM,,,Nederland
13,ROELOFARENDSVEEN,,6716 AA,Nederland
1,BREDA,,4731 VR,Nederland
2,EINDHOVEN,,,Nederland
- -,BERGEN OP ZOOM,,1077 XX,Nederland
,UTRECHT,,,Nederland
,,,7601 PR,Nederland
,NAGELE,,5612 AZ,Nederland
,Vught,,2628 XK,Nederland
,ROTTERDAM,,3439 LC,Nederland
,EINDHOVEN,,H 45177-9390,Nederland
60,Çankaya Ankara,,,Nederland
49,Kobe Hyogo,,,Nederland
810,HARDERWIJK,,,Nederland
23,ZOETERMEER,,5262 PJ,Nederland
18 a,Voorburg,,4811 VB,Nederland
,GORINCHEM,,4706 NH,Nederland
5,,,5684 PZ,Nederland
30,PARIS,,7006 RH,Nederland
,VENRAY,,6212 BH,Nederland
466e,Utrecht,,6101 XD,Nederland
48,NIJKERK,,,Nederland
4,HEERLEN,,5704 BS,Nederland
20,VENRAY,,,Nederland
277,BUNNIK,,1097 BL,Nederland
14,NAIROBI,,7451 PH,Nederland
83,,,,Nederland
98,AMSTERDAM,,,Nederland
24 A,,,1087NE,Nederland
22,VENLO,,,Nederland
3,DELFT,,5667 KP,Nederland
87,UTRECHT,,4814 DC,Nederland
378,'S GRAVENZANDE,,,Nederland
202,ALBLASSERDAM,,1462 PG,Nederland
30,UTRECHT,,,Nederland
,,,,Nederland
,,,3723 BG,Nederland
5,EINDHOVEN,,3011 GA,België
1,AMERSFOORT,Noord-Holland,2596 BR,Nederland
,EMMELOORD,,3521 CB,Nederland
 11a,Rotterdam,,2382 NW,Nederland
6 -19,Zeewolde,,2628 AL,Nederland
1,DEN HAAG,,,Nederland
11,EINDHOVEN,,6922 JK,Nederland
,SPIJKENISSE,,5145 NW,Nederland
,EINDHOVEN,,1043 AP,Nederland
20,,,5680 AK,Nederland
32,GORINCHEM,,3511 GC,Nederland
-,AMSTERDAM,,,Nederland
4,HILVERSUM,,,Nederland
11,MIJDRECHT,,Breda,Nederland
,ZAANDAM,,2014 HT,Nederland
25,,,1096 BC,Nederland
,KEERBERGEN,,2511 BH,Nederland
,,Zuid-Holland,1332 AT,Nederland
2,GELEEN,,4879 AH,Nederland
9 Gebouw B,ISTANBUL,,,Nederland
766 F,MAARSSEN,,5248 NT,Nederland
- -,Schiphol,,4822 NJ,Nederland
,,,3528 BJ,België
7,BREDA,,77032,Nederland
7,SINGAPORE,,,Nederland
8,TILBURG,,,Nederland
1/101,,,6222NW,Nederland
3,Middelburg,,4741 RJ,Nederland
-,AMSTERDAM,,1704 RS,Nederland
945,ROTTERDAM,,,Nederland
6,GENT-ZWIJNAARDE,,4416 PJ,Nederland
38,EINDHOVEN,,7522 NB,Nederland
1,RHEDEN,,1438 AN,Nederland
45,Oudewater,,3011 BL,Nederland
256,BREDA,,1011 KK,Nederland
202,ALPHEN,,5133 TL,Nederland
4,DOETINCHEM,,4153 RD,Nederland
14 c,BREDA,,4814 AB,Nederland
1,AMSTERDAM,,,Nederland
20,ZARAGOZA,,5037 DB,Nederland
,,,15212-5858,Nederland
,UTRECHT,,,Nederland
,S GRAVEZANDE,,NL-3016 BC,Nederland
1006,AMERSFOORT,,1332 AT,Nederland
23,BREDA,,,Nederland
1,HOOFDDORP,,,Nederland
3,HASSELT,,,Nederland
,EERSEL,,400 614,Nederland
,UTRECHT,,3833 LB,Nederland
,,,4817 BL,Nederland
320,'S GRAVENHAGE,,,Nederland
102,BREDA,,4902 TT,Nederland
13,ZEVENBERGEN,,5126 PT,Nederland
1,,,,Nederland
75,Helmond,,6225 XW,Nederland
3,,,5556VL,Nederland
7324,,,7773 NM,Nederland
57,De Bilt,,3903 KJ,Nederland
120,AMSTELVEEN,,2595 AM,België
18,DEN BOSCH,,1118 BG,Nederland
75,EKE,,3771 ME,Nederland
1,VLISSINGEN,,1186 MJ,Nederland
888,OOSTERHOUT,,Kowloon,Nederland
,DEN HAAG,,553 16,Nederland
,HOEVELAKEN,,2371 TX,Nederland
3777,,,2600,Nederland
3,BREDA,,1851 NG,Nederland
2,BREDA,,4817 ZZ,Nederland
2,BARENDRECHT,,,Nederland
2,,,1412 HJ,Nederland
,,,,Nederland
39a ,ROTTERDAM,,8071 CW,Nederland
2,BAVEL,,1112 TB,Nederland
10,EINDHOVEN,,100600,Nederland
31,ROTTERDAM,,2715 CA,Nederland
71,Poeldijk,,3144 EG,Nederland
4,,,5612 MA,Portugal
99-101,MIDDELHARNIS,,,Nederland
8,TILBURG,,5015 BT,Nederland
4,Tilburg,,PA 19312,Nederland
1225 WTC Toren B level 12,,,-,Nederland
5,DEN HAAG,,,Nederland
1 -6,HOOGVLIET ROTTERDAM,Noord-Brabant,,Nederland
8,,,011823,Nederland
,,,5462 GG,Nederland
35,AMSTERDAM,,2517 AA,Nederland
120,PARIS,,1082 MC,Nederland
31,'S-HERTOGENBOSCH,,2132 JD,Nederland
52 A,HOUTEN,,6825 ME,Nederland
11,CHICAGO,,5047 RH,Nederland
20,AMSTERDAM,,,Nederland
12,Amsterdam,,,Nederland
1,MAASTRICHT,,7417 BJ,Nederland
16,,,3513 EL,Nederland
,LE HAVRE,,,Nederland
81,ETTEN-LEUR,,6591 XN,Nederland
35,BREDA,,3062 ME,Nederland
33 -36,ASHFORD SURREY,,5651 GG,Nederland
21,DRONGELEN,,5656 AE,Nederland
173,TERVUREN,,,Nederland
,Den Haag,,5037 AB,Nederland
5,BREDA,,5491 DC,Nederland
12,ZOETERMEER,,,Nederland
,Den Haag,,3044 AS,Nederland
26,,,35131,Nederland
,,,77305,Nederland
,VELDHOVEN,,6541 BW,Nederland
7,OOSTERHOUT,,5644 RG,Nederland
41,AMSTERDAM,,4751 XN,Nederland
,VENLO,,4813DA,Nederland
2-14,UTRECHT,,50197,Nederland
30,ETTEN LEUR,,1043 GR,Nederland
,Rotterdam,,,Nederland
2806 A,HILVERSUM,,3015 CX,Nederland
151,BREDA,,3532 TH,Nederland
,ANTWERPEN,,,Nederland
,DEN HAAG,,4791 RM,Nederland
201,TILBURG,,4811 BB,Nederland
1,BREDA,,,Nederland
,HILVERSUM ,,,Nederland
45,Gent,,11156,Nederland
91,ROTTERDAM,,,Nederland
5,,,5541RA,Nederland
,Ridderkerk,,,Nederland
8,,,3882 RH,Nederland
71,,,2517 JL,Nederland
31,DARMSTADT,,27568,Nederland
8 a,BREDA,,,Nederland
387,ROTTERDAM,,,Nederland
19,,,,Nederland
,,,2964 AM,Nederland
9,,,7511 JM,Nederland
1 b,Best,Noord-Brabant,,Nederland
9,ETTEN-LEUR,,5015 TG,Nederland
,,,1272 PH,Brazil
1230,Den Haag,,6881 TB,Nederland
14,,,7005 BL,Nederland
7,TIEL,,2000,Nederland
,GREENVILLE,,4814 RR,Nederland
22,BREDA,,5248 NT,Nederland
,NIEUWEGEIN,,4811 KA,Nederland
11-13,OOSTERHOUT,,2909 VA,Nederland
25,ROTTERDAM,,1018 LL,Nederland
1,VEENINGEN,,6814 KD,Nederland
12 e,BREDA,,4791 RT,Nederland
8,ROTTERDAM,,1015 BT,Nederland
17,AMSTERDAM,,Apeldoorn,Nederland
15,BOXTEL,,3165 AM,Nederland
,'S-HERTOGENBOSCH,,1130,Nederland
22,TILBURG,,9 tr,Nederland
8517,PARIS,,1175RB,Nederland
81 a,,,2500 BT,Nederland
10,ROTTERDAM,,3511 RC,Nederland
,Utrecht,Maharashtra,,Nederland
760,BREDA,,4823 KE,Nederland
145,,,,Nederland
,LEIPZIG,,5709 ME,Nederland
,GLD,,4872 BL,Nederland
15,Eindhoven,,9728 BM,Nederland
1,Houston,,2242BE,Nederland
12,YORK,,1016BS,Nederland
60\A,AALSMEER,,2031 EC,Nederland
,ALMERE,,,Nederland
66,,,1013AA,Nederland
100,,,7551 GR,Nederland
6,New Bombay,,4455 SX,Nederland
,Amsterdam,,1213 PG,Nederland
3,Abu Dabi,,,Nederland
64,KRUNNINGEN,,,Nederland
,VALBURG,,,Nederland
3 -5,NIEUWERKEK A/D IJSSEL,,,Nederland
6,VEENENDAAL,,3861 RG,Nederland
,DEN HAAG,,B-8200,Nederland
2,ROTTERDAM,,4813 DA,Nederland
3,AMSTERDAM,,,Italy
,,,1329 BN,Nederland
1,BRUSSEL,,,Nederland
8,RIDDERKERK,,1098,Nederland
8,SCHIJNDEL,,3216 AR,Nederland
7,EDE,,,Nederland
15A,,,5803 AN,Nederland
31,DORDRECHT,,4708 AJ,Nederland
1,BREDA,,1313 AN,Nederland
200,ARNHEM,,,Verenigd Koninkrijk
,'S-HERTOGENBOSCH,,1118 CP,Nederland
8,AMSTERDAM,,PA 18015,Nederland
22,,,4588 KD,Nederland
35,PRETORIA,,,Nederland
15,,,,Nederland
,AMSTERDAM,,Huizen,Nederland
1,,,,België
,AMSTERDAM,,3022ZH,Nederland
104,,,1115 AD,Nederland
17,NIEUW - VENNEP,,5301LJ,België
12,LONDON,,40278,Nederland
40,TILBURG,,2132 TZ,Nederland
20,NIJMEGEN,,4815 PN,Nederland
,ROOSENDAAL,,5032 MJ,Nederland
3,Horst,,5616 NJ,Nederland
33,BREDA,,2512VX,Nederland
223,DAMWOUDE,Zuid-Holland,5081 CS,Nederland
14,AMSTERDAM,,5321 JV,Nederland
111,,,1118 BH,Nederland
8,DIEMEN,,3075 JH,Duitsland
4,BRUSSEL,,1213 PE,Nederland
,,,,Nederland
184,BREDA,,3062 ME,Nederland
,,,3356LL,Nederland
3 A,,,5015 TC,Nederland
8,SCHIPHOL,,3072 AP,Nederland
1,DEVENTER,,3812 TA,Nederland
,ROTTERDDAM,,3261jj,Nederland
133,,,,Nederland
,BILTHOVEN,,3199 LD,Nederland
4,ZARAGOZA,,6828 HS,Nederland
15,,,4817 ME,Nederland
13,VENICE,,4931DH,Nederland
81-83,,,4206 AC,Nederland
70 a,GIESSENBURG,,,Nederland
14,HILVERSUM,,5616VA,Nederland
1,,,4817 ZD,Nederland
127 a,,,4751 PP,Nederland
2,BADHOEVEDORP,,,Nederland
1,,,,Nederland
10,MAASDIJK,,3044 CJ,Nederland
43,VLAARDINGEN,,,Nederland
13,'S HERTOGENBOSCH,,2132 MZ,Nederland
,BREDA,,4283 JG,Nederland
10,EINDHOVEN,,C.C.12 717 130,Nederland
12,Rotterdam,,5145 PB,Nederland
,,,4902 ZP,Saudi Arabia
2,Delft,,B-1120,Nederland
300,GOUDA,,,Nederland
,Roosendaal,,3089 JH,Nederland
41,BREDA,,1060 LX,Nederland
66,DEN HAAG,,4813XD,Verenigd Koninkrijk
108,OUD-GASTEL,,3534 AM,Nederland
291,DEN HAAG,,5612 AZ,Nederland
,,,4904 MH,Nederland
1,,,5210,Ukraine
,AMSTERDAM,,4818 CP,Nederland
1,MAASTRICHT,,2521 EN,United States
158 C,HAAKSBERGEN,,POB 8464,Nederland
26,,,3641 SM,Nederland
1,GOUDA,,3088 GB,Nederland
4,UTRECHT,,3511 EW,Nederland
,,,3197 KJ,Indonesia
50,Milsbeek,,1062 HH,Nederland
,,,6003 DB,Nederland
25,DIEMEN,,2595 BJ,Nederland
39,Gulou District NANJING,,,Nederland
,Utrecht,,6709 PA,Nederland
2,,,2594 AV,Nederland
7,ROTTERDAM,,4612 RC,Nederland
,LISSABON,,Sint Janslaan 6,Nederland
104,STROMBEEK-BEVER,,1077 XX,Nederland
130-156,Tegelen,,5651 GG,Nederland
34,DUIVENDRECHT,,-,Nederland
7061,RIJSWIJK,,4836 LG,Italy
,HAARLEM,,,Nederland
65,WORMERVEER,,2627 BM,Nederland
14,BRUSSEL,,2718 SG,Nederland
,,,,Nederland
,,,2595 AL,Nederland
1,,,D-20099,Nederland
,APLPHEN AAN DEN RIJN,,2491 BJ,Nederland
26,HOUTEN,,,Nederland
,ROTTERDAM,,,Nederland
246 e,MADRID,,3723 DL,Nederland
,AMERSFOORT,,,Nederland
19,,,4836 LD,Nederland
100,DIEPENBEEK,,1821 BN,Nederland
37,SCHIPHOL,,3141 JA,Nederland
17,EINDHOVEN,,3542 EB,Nederland
5,Rotterdam,,3024 AN,Nederland
,BREDA,,,Nederland
33,SCHIPHOL RIJK,,5503 LM,Nederland
8,,,1077 AR,Nederland
2,,,,Nederland
65,BREDA,,5258 PV,Nederland
,Grace-Hollogne,,4817 ZH,Nederland
,BREDA,,,Nederland
1,,,1217 GP,Nederland
5,ZOETERMEER,,1213 AC,Nederland
3051,ZAANDAM,,4782 PP,Nederland
1,DEN HAAG,,5900 MA,Nederland
76 B,UTRECHT,,5616 VB,Nederland
,DEN HAAG,,Dublin Airport,Nederland
6-10,MIERLO,,3433 PH,Nederland
1,'s-Hertogenbosch,,8911 AW,Nederland
145,WAALWIJK,,4761 RK,Nederland
,Breda,,3528 BJ,Nederland
,Oosterhout,,5521 DW,Nederland
35,PAPENDRECHT,,1815 AB,Nederland
141 JFK,GOOR,,4811 XS,Sweden
28,Dongen,,4811RJ,Nederland
,BRUSSEL,,1970 AL,Nederland
2121,DOORN,,3526 KL,Nederland
,HENGELO,,4818 RD,Nederland
,EINDHOVEN,,3011 AA,Italy
1,ROTTERDAM,,Sliedrecht,Nederland
,,,3439 LM,Nederland
2,UTRECHT,,,Nederland
10,DELFT,,5986 PM,België
,Brussel,,3015 GE,Nederland
131,SCHIPHOL,,8308 AH,Nederland
28,AMSTERDAM,,,Nederland
22,,,4921 BV,Nederland
,ROTTERDAM,,3528 BE,Nederland
800,,,5221 LN,Nederland
60,,,4116 HA,Nederland
24,NEW CAIRO,,,Nederland
1,BREDA,,3824 MP,Nederland
1,BERGEN OP ZOOM,,3356 LE,Nederland
1,AMSTERDAM Z-O,,5657 EA,Nederland
148,DEN HAAG,,8500,Nederland
2,BREDA,,1507 CX,Nederland
350,ANTWERPEN,,CA 90095-1481,Nederland
41,AMSTERDAM,,1043 NX,Nederland
20,WAALWIJK,,,Nederland
83,,,B 2500,Nederland
5,Amsterdam,,6851 EJ,Nederland
4,AMERSFOORT,,5085 NM,Nederland
,,,,Nederland
,BREDA,,5502 SB,Nederland
3 -5,,,3732 HM,Nederland
,BREDA,,2595 AL,Nederland
93,EMMEN,,,Italy
134,,,3316 EE,Nederland
,,,3133 AT,België
333,Amsterdam,,Sint-Michielsgestel,Nederland
5,,,1059 CM,Nederland
2,UTRECHT,,4917 HA,Nederland
10,,,2153 PL,Nederland
,,,5616 NJ,Nederland
10200,OISTERWIJK,,,Nederland
50,BREDA,,,Nederland
,DIEPENVEEN,,1103 RD,Duitsland
20,LANGEZWAAG,,7944 HX,Nederland
1,ANTWERPEN,Utrecht,,Nederland
1,ZOETERMEER,,,Nederland
23A,EINDHOVEN,,4811 JJ,Nederland
,,,4241 TH,Nederland
2,,,,Nederland
55,OOSTERHOUT,,2803 PE,Nederland
13,DELFT,,2273 XV,Nederland
21,UTRECHT,,5048 CG,Nederland
55,MAASVLAKTE ROTTERDAM,,DK-9100,Nederland
7,,,,Nederland
110,Waalwijk,,5528 NB,Nederland
59,CAPELLE A/D IJSSEL,,6709 PA,Nederland
,Santa Clara CA,,,Nederland
,LUMMEN,,7431 AT,Nederland
2,AMSTERDAM,,,Nederland
8,VOORBURG,,5571 SK,Nederland
42,,,3992 AE,Nederland
54,APELDOORN,,3771 MN,Nederland
525,HOOFDDORP,,,Nederland
,'S-HERTOGENBOSCH,,,Nederland
80,WOERDEN,,,Nederland
23,HETEREN,,,Nederland
,HOUTEN,,,Nederland
14,JÖNKÖPING,Zuid-Holland,,Nederland
30,SCHIJNDEL,,3527 WB,Nederland
46,VIANEN,,104,Nederland
99,BADHOEVEDORP,,-,Nederland
50,STOLWIJK,,1000,Nederland
,BREDA,,,Nederland
,BERGEN OP ZOOM,,2800,Nederland
1 1,AMSTERDAM,,1017 WV,Nederland
,,,SE-433 64,Nederland
,DE LIER,,6071 RA,Nederland
10,AMSTERDAM,,,Nederland
50,Tokyo,,8253 CN,Nederland
5a,,,,Nederland
,,,4814 ND,Nederland
27,,,50009,Nederland
,,Noord-Brabant,3089 JH,Nederland
24,EINDHOVEN,,3860 BA,Nederland
5 bus 15,'S-HERTOGENBOSCH,,2352 BM,Nederland
2,,,Asten,Nederland
41,ANTWERPEN,,2595 BN,Nederland
,DEN HAAG,,1117 BM,Nederland
104,ZWIJNDRECHT,,,Nederland
55,MAASTRICHT,,10018,Nederland
,LONDON,,,Nederland
1,BREDA,,9781 AC,Nederland
,AMSTERDAM,,B-9050,Nederland
43,BERCHEM,,,Nederland
6,BREDA,,1077 ZZ,Nederland
27,TEGELEN,,4818 CR,Nederland
150,,,5368 AX,Nederland
92,,,5234 KA,Nederland
10,,,2719 EE,Nederland
1600 app 304,,,7325 WZ,Nederland
3,,,3087 CH,Nederland
141,GELEEN,,5145 PE,Nederland
- -,AMSTERDAM,,53285 GP,Nederland
145,,,4907 HC,Nederland
23,,,3527 JP,Nederland
2,EINDHOVEN,,1033 SN,Nederland
70,AMSTERDAM,,4823 AD,Nederland
,ROTTERDAM,,4813 DA,Nederland
,HILVERSUM,,3534 BC,Nederland
4200,,,B-1000,Nederland
54,AXEL,,3089 JH,Nederland
,HOOGVLIET,,2153 PH,Duitsland
31 4907 PN,,,4815 PT,Nederland
,,,3161 WD,Nederland
21,BREDA,,1424 LD,Nederland
60,HOOFDDORP,,,Nederland
,ROTTERDAM,,3821 BR,Nederland
,,,7521 PV,Nederland
300,DELFT,,5231 BS,Nederland
,ROOSENDAAL,,4813 DA,Nederland
15 d,,,1812 PM,Nederland
11,BARENDRECHT,,3903 LX,Nederland
85,RIEL,,2685 DG,Nederland
30,,,53113,Nederland
,AMSTERDAM,,5253 RC,Nederland
10,ROTTERDAM,,1018 BH,Switzerland
2,BERGAMBACHT,,8243 PZ,Nederland
6520,,,SW12 9ER,Nederland
8,Rossum,,,Nederland
5,,,4834 LL,Nederland
2,ZWOLLE,,4941 TB,Duitsland
,ARCEUIL,,1506 RZ,Nederland
3,,,,Nederland
13,,,57122,Nederland
,AMERSFOORT,,3542 DL,Nederland
,ALKMAAR,,3818 GA,Nederland
,HULST,,1432 DJ,Nederland
,AMSTERDAM,,2722 NN,Nederland
51,Utrecht,,1383 HT,Nederland
60,Gouda,,1351 JH,Nederland
7,TILBURG,,3526 KS,Nederland
5790,AMSTERDAM,,5553 CS,Nederland
162,EINDHOVEN,,7491KD,Nederland
6,,,2803 PE,Nederland
10A,LONDON,,3195 ND,Nederland
-,Aalborg,,,Nederland
,AMSTERDAM,,3511 BW,Nederland
5,SINT-MICHIELSGESTEL,,,Nederland
4,Alphen a/d Rijn,,5017 HP,Nederland
80,,,,Nederland
31 a,ANTWERPEN,,4707 ZH,Nederland
1,ALMELO,,,Verenigd Koninkrijk
,,,4782 PV,Nederland
9,BREDA,,2401 MR,Nederland
41,NIJMEGEN,,4761 VH,Nederland
,OOSTERHOUT,,3771ED,Sweden
,CAPE TOWN,,4824 EH,Nederland
197,DEN HAAG,,3526 KS,Nederland
1,Ridderkerk,,1118 LE,Nederland
11 -13,ROSSUM,,59000,Nederland
,CAIRO,,1505 HK,Nederland
30,Almelo,,D-40213,Nederland
5,UTRECHT,,3089 JC,Nederland
,UTRECHT,,5038 CD,Nederland
6,ROTTERDAM,,1018 VN,Nederland
5,SCHIPHOL ZUID OOST,,10374,Nederland
33,AMERSFOORT,,3311 RR,Nederland
2,UTRECHT,,2954 PA,Nederland
10,,,8233 BR,Nederland
13,CULEMBORG,,5015 BP,Nederland
2,NOIDA UP,,4818 NL,Nederland
41,ROTTERDAM,,6523LC,Nederland
1328,VELP,,Den Haag,Nederland
11,KOLHAM,,2628 BX,Nederland
,VENLO,,,Nederland
18 e,EINDHOVEN,,6921 RZ,Nederland
,Naarden,,,Nederland
77,,,28031,Nederland
,EMMEN,,,Nederland
20 bus 5,,,2031 CC,Nederland
1,'S-HERTOGENBOSCH,,1013 AA,Nederland
6,ESSEN,,2676 LV,Nederland
128,Voorburg,,3526 KS,Nederland
3A,BEST,,,Nederland
26,REEUWIJK,,4849 BR,Nederland
,Alphen aan Den Rijn,,5674 PS,Nederland
,ROTTERDAM,,3208 KB,Nederland
44,Breda,,57180,Nederland
203,HOEK VAN HOLLAND,,,Nederland
,ROTTERDAM,,1424 PB,Nederland
32,HILVERSUM,,4121 KS,Nederland
24,AMSTELVEEN,,,Nederland
351,ROTTERDAM,,,Nederland
29,ROELOFARENDSVEEN,,B-9000,Nederland
10,WAGENINGEN,,3439 NJ,Nederland
13,,,,Nederland
10,AMSTERDAM,,,Nederland
11 14th ,HEERHUGOWAARD,,PO2 8EB,Nederland
16,ROTTERDAM,,6161 RD,Nederland
1,,,,Nederland
,,,4847 KL,Nederland
90,,,210009,Sweden
19,'s-Hertogenbosch,,Waalwijk,Nederland
7081,DEN BOSCH,,1424 PX,Nederland
1,DUSSELDORF,,,Nederland
1,,,,Nederland
102D,TILBURG,,2289 CL,Nederland
,REUSEL,,6921 RZ,Nederland
52,VENLO,,,Nederland
18,NIEUWEGEIN,,4691 DZ,Nederland
,AMERSFOORT,,8162 GD,Nederland
29,,,2311 EZ,Nederland
87-93,BERGEN OP ZOOM,,5482 TL,Nederland
4255,S'-HERTOGENBOSCH,,400009,Nederland
,DEN HAAG,,7575 DA,Nederland
,ARNHEM,,,Nederland
1351,,,3165 AM,Nederland
,ZALTBOMMEL,,3079 DZ,Nederland
114,DORDRECHT,,2312 JX,Nederland
,MUNSBACH,,Horn,Nederland
64,MOERDIJK,,6800 HA,Nederland
,,,4811 HT,Nederland
214,,,2713 HX,Nederland
,DELFT,,1119 NT,Nederland
,ROTTERDAM,,1050,United States
9,ZOETERWOUDE,,B-2000,Nederland
9,ZUTPHEN,,7811 AP,Nederland
22 B,,,3542 EB,Nederland
51,UTRECHT,,1438 AN,China
21 Floor - room 2101,SCHIPHOL,,Oosterhout,Nederland
- -,LEUVEN,,5657 EE,Nederland
,ETTEN-LEUR,,5048 CA,Nederland
201,AMSTERDAM,,1011 PN,België
11,BREDA,,3208 LA,Nederland
7,EINDHOVEN,,,Nederland
120,DRIEBERGEN,,8930,Nederland
871,BREDA,,2496 ZT,Nederland
401 21st,DORDRECHT,,5928 LD,Nederland
3B,ALKMAAR,,5216 TV,Nederland
35,CAPELLE A/D IJSSEL,,FI-33100,Nederland
161,,,4817BL,Nederland
21,VEGHEL,,5684 PZ,Nederland
1,,,,Nederland
,LIVORNO,,5331kj,Nederland
223,DEN HAAG,,2511 VE,Nederland
,DELFT,,4811 GP,Nederland
